{"version":0.6,"generator":"Overpass API 0.7.62.1 084b4234","osm3s":{"timestamp_osm_base":"2024-06-03T07:53:46Z","copyright":"The data included in this document is from www.openstreetmap.org. The data is made available under ODbL."},"elements":[{"type":"node","id":1511392162,"lat":50.8311897,"lon":4.3686372,"tags":{"artist:wikidata":"Q1451193;Q50556420","artist_name":"François Schuiten;Alexandre Obolensky","artwork_type":"mural","name":"L'Arche","start_date":"2013","tourism":"artwork"}},{"type":"node","id":1650859134,"lat":50.8355577,"lon":4.344938,"tags":{"artist_name":"Mitacq","artwork_type":"mural","image":"https://commons.wikimedia.org/wiki/File:De_Beverpatroelje.jpg","name":"La patrouille des Castors - De Beverpatroelje","name:fr":"La patrouille des Castors","name:nl":"De Beverpatroelje","tourism":"artwork","website":"https://www.parcoursbd.brussels/fresques/la-patrouille-castors/","img_thumbnail":"node_1650859134_0.jpg"}},{"type":"node","id":1650859135,"lat":50.8377745,"lon":4.3456266,"tags":{"artist:wikidata":"Q1685793","artist_name":"Roba","artwork_type":"mural","name":"Boule et Bill - Bollie en Billie","name:fr":"Boule et Bill","name:nl":"Bollie en Billie","tourism":"artwork","website":"https://www.parcoursbd.brussels/fresques/boule-et-bill/"}},{"type":"node","id":1650859160,"lat":50.8377385,"lon":4.3420589,"tags":{"artist:wikidata":"Q2264505","artist_name":"Philippe Geluck","artwork_type":"mural","image":"https://i.imgur.com/fKIsOb5.jpg","name":"Le Chat - De Kat","name:fr":"Le Chat","name:nl":"De Kat","tourism":"artwork","website":"https://www.parcoursbd.brussels/fresques/le-chat/","img_thumbnail":"node_1650859160_0.jpg"}},{"type":"node","id":1650859163,"lat":50.8384114,"lon":4.3464972,"tags":{"artist_name":"Jijé","artwork_type":"mural","name":"Blondin et Cirage - Blondie en Blinkie","name:fr":"Blondin et Cirage","name:nl":"Blondie en Blinkie","tourism":"artwork","website":"https://www.parcoursbd.brussels/fresques/blondin-et-cirage/","wikimedia_commons":"File:Blondie en Blinkie.JPG"}},{"type":"node","id":1650859204,"lat":50.8431595,"lon":4.3482627,"tags":{"artist_name":"William Vance;Jean Van Hamme","artwork_type":"mural","name":"XIII","tourism":"artwork","website":"https://www.parcoursbd.brussels/fresques/xiii/"}},{"type":"node","id":1650859229,"lat":50.8443366,"lon":4.3437496,"tags":{"artist_name":"Defo 84;Shake","artwork_type":"mural","name":"Quartier Imaginaire","start_date":"2016","tourism":"artwork","was:artist_name":"Will","was:name":"Isabelle et Calendula","was:wikimedia_commons":"File:Stripmuur_Isabel_bis.jpg","website":"https://parcoursstreetart.brussels/oeuvres/defo-84-shake-rue-de-la-verdure-13-1000-bruxelles/"}},{"type":"node","id":1650859236,"lat":50.8453475,"lon":4.350321,"tags":{"artist_name":"Hergé","artwork_type":"mural","mapillary":"840073659915204","name":"Tintin - Kuifje","name:fr":"Tintin","name:nl":"Kuifje","tourism":"artwork","website":"https://www.parcoursbd.brussels/fresques/les-aventures-de-tintin/","wikimedia_commons":"File:A wall paint in Brussels, featuring Tintin.jpg"}},{"type":"node","id":1650859240,"lat":50.8459633,"lon":4.3478732,"tags":{"artist_name":"Tibet;André-Paul Duchâteau","artwork_type":"mural","name":"Ric Hochet - Rik Ringers","name:fr":"Ric Hochet","name:nl":"Rik Ringers","tourism":"artwork","website":"https://www.parcoursbd.brussels/fresques/ric-hochet/"}},{"type":"node","id":1650859249,"lat":50.8464836,"lon":4.3504103,"tags":{"artist_name":"François Schuiten","artwork_type":"mural","image":"https://commons.wikimedia.org/wiki/File:Doorgang.jpg","name":"Le Passage - De Doorgang","name:fr":"Le Passage","name:nl":"De Doorgang","title":"Le Passage","tourism":"artwork","website":"https://www.parcoursbd.brussels/fresques/le-passage/","img_thumbnail":"node_1650859249_0.jpg"}},{"type":"node","id":1650859254,"lat":50.8469446,"lon":4.3418205,"tags":{"artist_name":"René Goscinny;Albert Uderzo","artwork_type":"mural","name":"Astérix et Obélix - Asterix en Obelix","name:fr":"Astérix et Obélix","name:nl":"Asterix en Obelix","title":"Astérix et Obélix","tourism":"artwork","website":"https://www.parcoursbd.brussels/fresques/asterix-le-gaulois/"}},{"type":"node","id":1650859259,"lat":50.8465131,"lon":4.349311,"tags":{"artist_name":"Frank Pé;Bom","artwork_type":"mural","image":"https://commons.wikimedia.org/wiki/File:Ragebol_(strip).jpg","name":"Broussaille - Ragebol","name:fr":"Broussaille","name:nl":"Ragebol","tourism":"artwork","website":"https://www.parcoursbd.brussels/fresques/broussaille/","img_thumbnail":"node_1650859259_0.jpg"}},{"type":"node","id":1650859262,"lat":50.8474431,"lon":4.3413573,"tags":{"artist_name":"Morris;René Goscinny","artwork_type":"mural","image":"https://i.imgur.com/GXwb77U.jpg","name":"Lucky Luke","tourism":"artwork","website":"https://www.parcoursbd.brussels/fresques/lucky-luke/","img_thumbnail":"node_1650859262_0.jpg"}},{"type":"node","id":1650859265,"lat":50.8478516,"lon":4.3468513,"tags":{"artist_name":"Marc Sleen","artwork_type":"mural","image":"https://i.imgur.com/qlrOdQg.jpg","name":"Néron - Nero","name:fr":"Néron","name:nl":"Nero","tourism":"artwork","website":"https://www.parcoursbd.brussels/fresques/neron/","img_thumbnail":"node_1650859265_0.jpg"}},{"type":"node","id":1650859268,"lat":50.8476906,"lon":4.3618079,"tags":{"artist_name":"Enrico Marini;Stephen Desberg","artwork_type":"mural","mapillary":"197881732154014","name":"Le Scorpion - De Schorpioen","name:fr":"Le Scorpion","name:nl":"De Schorpioen","tourism":"artwork","website":"https://www.parcoursbd.brussels/fresques/le-scorpion/"}},{"type":"node","id":1650859273,"lat":50.8486803,"lon":4.3414688,"tags":{"artist_name":"Bob de Moor","artwork_type":"mural","name":"Cori le Moussaillon - Cori de Scheepsjongen","name:fr":"Cori le Moussaillon","name:nl":"Cori de Scheepsjongen","tourism":"artwork","website":"https://www.parcoursbd.brussels/fresques/cori-le-moussaillon/"}},{"type":"node","id":1650859277,"lat":50.848862,"lon":4.3387432,"tags":{"artist:wikidata":"Q2848686;Q2927018","artist_name":"André Taymans;Bruno Wesel","artwork_type":"mural","name":"Caroline Baldwin","tourism":"artwork","website":"https://www.parcoursbd.brussels/fresques/caroline-baldwin/"}},{"type":"node","id":1650859281,"lat":50.8488295,"lon":4.3409798,"tags":{"artist_name":"Hermann;Morphée","artwork_type":"mural","name":"Les rêves de Nic - De dromen van Nick","name:fr":"Les rêves de Nic","name:nl":"De dromen van Nick","tourism":"artwork","website":"https://www.parcoursbd.brussels/fresques/les-reves-de-nic/"}},{"type":"node","id":1650859286,"lat":50.8488637,"lon":4.3464436,"tags":{"artist_name":"Yslaire","artwork_type":"mural","name":"L’Archange - De Aartsengel","name:fr":"L’Archange","name:nl":"De Aartsengel","tourism":"artwork","website":"https://www.parcoursbd.brussels/fresques/larchange-xxe-ciel/"}},{"type":"node","id":1650859307,"lat":50.8528861,"lon":4.3582336,"tags":{"artist_name":"Johan de Moor;Stephen Desberg","artwork_type":"mural","name":"La Vache - De Koe","name:fr":"La Vache","name:nl":"De Koe","tourism":"artwork","website":"https://www.parcoursbd.brussels/fresques/la-vache/"}},{"type":"node","id":1650859321,"lat":50.8610303,"lon":4.3491191,"tags":{"artist:wikidata":"Q12113","artist_name":"Hugo Pratt","artwork_type":"mural","name":"Corto Maltese","start_date":"2009","subject:wikidata":"Q12116","tourism":"artwork","website":"https://www.parcoursbd.brussels/fresques/corto-maltes/","wikidata":"Q122182938","wikimedia_commons":"Category:Parcours BD (Corto Maltese)"}},{"type":"node","id":1650859328,"lat":50.8762101,"lon":4.3578849,"tags":{"artist_name":"Marc Marlier;Gilbert Delahaye","artwork_type":"mural","mapillary":"298450051760760","name":"Martine - Tiny","name:fr":"Martine","name:nl":"Tiny","start_date":"2004","tourism":"artwork","website":"https://www.parcoursbd.brussels/fresques/martine/"}},{"type":"node","id":1650859338,"lat":50.8772025,"lon":4.3443836,"tags":{"artist_name":"Maurice Tilleux","artwork_type":"mural","name":"Gil Jourdan - Guus Slim","name:fr":"Gil Jourdan","name:nl":"Guus Slim","tourism":"artwork","website":"https://www.parcoursbd.brussels/fresques/gil-jourdan/"}},{"type":"node","id":1650859339,"lat":50.8775033,"lon":4.3585087,"tags":{"artist_name":"Anne-Claire Jouvray;Jérôme Jouvray; Olivier Jouvray","artwork_type":"mural","name":"Lincoln","tourism":"artwork","website":"https://www.parcoursbd.brussels/fresques/lincoln/"}},{"type":"node","id":1650859349,"lat":50.8788234,"lon":4.3467925,"tags":{"artist_name":"François Walthéry","artwork_type":"mural","image":"https://i.imgur.com/lyxqkOK.jpg","name":"Natacha","tourism":"artwork","website":"https://www.parcoursbd.brussels/fresques/natacha/","img_thumbnail":"node_1650859349_0.jpg"}},{"type":"node","id":1650859356,"lat":50.893739,"lon":4.3515456,"tags":{"artist:wikidata":"Q726935","artist_name":"Merho","artwork_type":"mural","mapillary":"928161054697093","name":"De Kiekeboes","tourism":"artwork","website":"https://www.parcoursbd.brussels/fresques/de-kiekeboes/"}},{"type":"node","id":1650859361,"lat":50.8949242,"lon":4.3381428,"tags":{"artist_name":"Tome & Janry","artwork_type":"mural","name":"Le Petit Spirou - De kleine Robbe","name:fr":"Le Petit Spirou","name:nl":"De kleine Robbe","tourism":"artwork","website":"https://www.parcoursbd.brussels/fresques/le-petit-spirou/"}},{"type":"node","id":2080531630,"lat":51.319929,"lon":4.9520273,"tags":{"artist_name":"Dido Drachman","artwork_type":"mural","name":"Kind met inktvlekken nr.10","tourism":"artwork","website":"www.kindmetinktvlekken.be"}},{"type":"node","id":2185723700,"lat":50.8493064,"lon":4.3532532,"tags":{"artist_name":"Franquin","artwork_type":"mural","image":"https://i.imgur.com/xXLHZAU.jpg","image:0":"https://i.imgur.com/lXSafZU.jpg","name":"Gaston Lagaffe - Guust Flater","name:fr":"Gaston Lagaffe","name:nl":"Guust Flater","tourism":"artwork","website":"https://www.parcoursbd.brussels/fresques/gaston-lagaffe/","img_thumbnail":"node_2185723700_0.jpg"}},{"type":"node","id":2362962653,"lat":50.8438281,"lon":4.3329953,"tags":{"artist:wikidata":"Q59341401","artist_name":"Rocío Álvarez","artwork_type":"mural","start_date":"2020","tourism":"artwork"}},{"type":"node","id":2379630149,"lat":51.3239724,"lon":4.951108,"tags":{"artist_name":"Treepack","artwork_type":"mural","name":"Kind met inktvlekken nr.08","tourism":"artwork","website":"www.kindmetinktvlekken.be"}},{"type":"node","id":2506177880,"lat":50.8546873,"lon":4.3520856,"tags":{"artist:wikidata":"Q543908","artist_name":"Willy Vandersteen;Paul Geerts","artwork_type":"mural","image":"https://i.imgur.com/aJMJrj1.jpg","name":"Bob et Bobette - Suske & Wiske","name:fr":"Bob et Bobette","name:nl":"Suske & Wiske","tourism":"artwork","website":"https://www.parcoursbd.brussels/fresques/bob-et-bobette/","img_thumbnail":"node_2506177880_0.jpg"}},{"type":"node","id":2506689613,"lat":50.8535896,"lon":4.3449839,"tags":{"artist_name":"Stéphane Colman;Stephen Desberg","artwork_type":"mural","name":"Billy the Cat","tourism":"artwork","website":"https://www.parcoursbd.brussels/fresques/billy-the-cat/"}},{"type":"node","id":2581656015,"lat":50.8942207,"lon":4.4198503,"tags":{"artist_name":"3ttman","artwork_type":"mural","name":"Les Herbes Folles","tourism":"artwork","website":"https://parcoursstreetart.brussels/oeuvres/3ttman-les-herbes-folles/"}},{"type":"node","id":2597893950,"lat":50.8265931,"lon":4.3426889,"tags":{"artist_name":"Maud Zabczynski;Murielle Lô","artwork_type":"mural","start_date":"2013","tourism":"artwork"}},{"type":"node","id":2606769576,"lat":50.8766782,"lon":4.3581899,"tags":{"artist_name":"Mezzo;Pirus","artwork_type":"mural","mapillary":"781051015808661","name":"Le Roi des Mouches - De vliegenkoning","name:fr":"Le Roi des Mouches","name:nl":"De vliegenkoning","start_date":"2007","tourism":"artwork","website":"https://www.parcoursbd.brussels/fresques/le-roi-des-mouches/"}},{"type":"node","id":2610309913,"lat":51.9152345,"lon":4.4762944,"tags":{"artist_name":"OX-Alien en Mark Goss","artwork_type":"mural","tourism":"artwork"}},{"type":"node","id":2620155858,"lat":50.8773055,"lon":4.3460894,"tags":{"artist_name":"Anthea Missy","artwork_type":"mural","name":"Women Bike The City","start_date":"2020-09","tourism":"artwork","website":"https://parcoursstreetart.brussels/oeuvres/anthea-missy-avenue-richard-neybergh-1-1020-bruxelles-laeken/"}},{"type":"node","id":2631879185,"lat":50.8436241,"lon":4.3491293,"tags":{"artist_name":"Vincent Glowinski","artwork_type":"mural","name":"Le dinosaure transparent","tourism":"artwork","website":"https://parcoursstreetart.brussels/oeuvres/vincent-glowinski-rue-des-alexiens-1000-bruxelles"}},{"type":"node","id":2697420172,"lat":50.8761314,"lon":4.7069297,"tags":{"artwork_type":"mural","tourism":"artwork"}},{"type":"node","id":2789017345,"lat":51.8788323,"lon":4.5300735,"tags":{"artist_name":"Studio voor kunstwerk","artwork_type":"mural","name":"Homerus","tourism":"artwork"}},{"type":"node","id":3286705658,"lat":50.8896308,"lon":4.3119823,"tags":{"artist_name":"Dourone","artwork_type":"mural","name":"JESSICA 00:00,02","tourism":"artwork","website":"https://dourone.com/project/jessica-000002/"}},{"type":"node","id":3525346645,"lat":51.5908838,"lon":4.91791,"tags":{"artwork_type":"mural","name":"Gevelgedicht","tourism":"artwork"}},{"type":"node","id":3596542063,"lat":51.0423855,"lon":4.8116109,"tags":{"artwork_type":"mural","tourism":"artwork"}},{"type":"node","id":3751446321,"lat":51.8659586,"lon":4.3535754,"tags":{"addr:city":"Hoogvliet Rotterdam","addr:street":"Middenbaan-Noord","artist_name":"Gust Romijn","artwork_type":"mural","fixme":"Exact location, not found first time","name":"IJzeren bloem","start_date":"1960","tourism":"artwork"}},{"type":"node","id":3761423385,"lat":51.8650911,"lon":4.3573515,"tags":{"artist_name":"Dick Elffers","artwork_type":"mural","image":"https://cdn1.bkor.nl/wp-content/uploads/20191127111152/Dick-Elffers-De-Oerwereld-foto-Max-Dereta-5-800x500.jpg","material":"ceramic","name":"De oerwereld van het dier","start_date":"1960","tourism":"artwork","website":"https://www.bkor.nl/beelden/de-oerwereld-van-het-dier-ten-opzichte-van-de-synthetische-wereld/","img_thumbnail":"node_3761423385_0.jpg"}},{"type":"node","id":3761775786,"lat":50.7395074,"lon":4.135412,"tags":{"artwork_type":"mural","tourism":"artwork"}},{"type":"node","id":3761775788,"lat":50.7396307,"lon":4.1351653,"tags":{"artist_name":"Cortens","artwork_type":"mural","tourism":"artwork"}},{"type":"node","id":3762001685,"lat":51.877415,"lon":4.5268384,"tags":{"artwork_type":"mural","inscription":"Slechts hij die leeft echt die al levend van het leven geniet","name":"Menander","tourism":"artwork"}},{"type":"node","id":3909787144,"lat":50.9794523,"lon":4.0811001,"tags":{"artwork_type":"mural","tourism":"artwork"}},{"type":"node","id":3932937528,"lat":51.9171582,"lon":4.4737378,"tags":{"artist_name":"Peter Pontiac","artwork_type":"mural","name":"Louis de Vries","start_date":"2014","tourism":"artwork","website":"https://www.bkor.nl/kunstwerken/louis-de-vries","wikimedia_commons":"File:Trompettist_Louis_de_Vries.jpg"}},{"type":"node","id":3934620754,"lat":50.6690703,"lon":4.6111562,"tags":{"artist:wikidata":"Q1451193;Q50556420","artist_name":"François Schuiten;Alexandre Obolensky","artwork_type":"mural","name":"La Tour Infinie","start_date":"2010","tourism":"artwork"}},{"type":"node","id":3934620755,"lat":50.6689988,"lon":4.6111273,"tags":{"artwork_type":"mural","tourism":"artwork"}},{"type":"node","id":4061262210,"lat":50.6265722,"lon":5.5704109,"tags":{"artwork_type":"mural","tourism":"artwork"}},{"type":"node","id":4157413689,"lat":50.8385086,"lon":4.346244,"tags":{"artist_name":"Laurent Verron;Yann","artwork_type":"mural","name":"Odilon Verjus - Govert Suurbier","name:fr":"Odilon Verjus","name:nl":"Govert Suurbier","tourism":"artwork","website":"https://www.parcoursbd.brussels/fresques/odilon-verjus/"}},{"type":"node","id":4240940827,"lat":50.8440988,"lon":4.345528,"tags":{"artist_name":"Jannin;Liberski","artwork_type":"mural","name":"Froud & Stouf","tourism":"artwork","website":"https://www.parcoursbd.brussels/fresques/froud-stouf/"}},{"type":"node","id":4427812977,"lat":50.8391094,"lon":4.3617092,"tags":{"artist_name":"PROPAGANZA","artwork_type":"mural","tourism":"artwork","website":"https://parcoursstreetart.brussels/oeuvres/steve-locatelli/"}},{"type":"node","id":4451542360,"lat":50.7324317,"lon":4.4582736,"tags":{"artist_name":"Folon","artwork_type":"mural","tourism":"artwork"}},{"type":"node","id":4511105740,"lat":51.8887533,"lon":4.4946696,"tags":{"artist_name":"Leen Droppert","artwork_type":"mural","material":"steel","name":"Twee cirkelsegmenten","start_date":"1978","tourism":"artwork","website":"https://www.bkor.nl/beelden/twee-cirkelsegmenten/","wikidata":"Q102080944"}},{"type":"node","id":4511105745,"lat":51.8832394,"lon":4.5147452,"tags":{"artwork_type":"mural","tourism":"artwork"}},{"type":"node","id":4552967028,"lat":50.8766052,"lon":4.712305,"tags":{"artist_name":"Lucas Bernaerts;Luc Cauwenberghs","artwork_type":"mural","name":"Gevallen voor het Algemeen Stemrecht","tourism":"artwork"}},{"type":"node","id":4585115344,"lat":50.8344033,"lon":4.3360221,"tags":{"artist_name":"Johan De Moor","artwork_type":"mural","layer":"1","name":"Le Secret de l'Espadon","start_date":"2008-12-12","tourism":"artwork"}},{"type":"node","id":4591422703,"lat":50.8904435,"lon":4.3370254,"tags":{"artist_name":"Franquin","artwork_type":"mural","name":"Marsupilami","tourism":"artwork","website":"https://www.parcoursbd.brussels/fresques/marsupilami/"}},{"type":"node","id":4636398007,"lat":50.9783188,"lon":5.8444102,"tags":{"artist_name":"SKiNZ","artwork_type":"mural","name":"graffiti kust by SKiNZ","tourism":"artwork"}},{"type":"node","id":4684083058,"lat":50.8414477,"lon":4.3499959,"tags":{"artist_name":"Nora Juncker;Manon Brûlé","artwork_type":"mural","name":"Wall of truth","tourism":"artwork","website":"https://parcoursstreetart.brussels/oeuvres/nora-juncker-en-manon-brule-girls-make-the-city-wall-of-truth/"}},{"type":"node","id":4685864861,"lat":50.84075,"lon":4.3451278,"tags":{"artwork_type":"mural","name":"Cyntia Bolingo","tourism":"artwork"}},{"type":"node","id":4693827790,"lat":50.8698831,"lon":4.3431198,"tags":{"artist:wikidata":"Q123066","artist_name":"Zep","artwork_type":"mural","name":"Titeuf","tourism":"artwork","website":"https://www.parcoursbd.brussels/fresques/titeuf/"}},{"type":"node","id":4693827894,"lat":50.8444261,"lon":4.3481057,"tags":{"artist_name":"Philippe Dupuy;Charles Beberian","artwork_type":"mural","name":"Monsieur Jean - Johan","name:fr":"Monsieur Jean","name:nl":"Johan","tourism":"artwork","website":"https://www.parcoursbd.brussels/fresques/monsieur-jean/"}},{"type":"node","id":4693881193,"lat":50.8446402,"lon":4.3501857,"tags":{"artist_name":"Dany;Greg","artwork_type":"mural","name":"Olivier Rameau - Roze Bottel","name:fr":"Olivier Rameau","name:nl":"Roze Bottel","tourism":"artwork","website":"https://www.parcoursbd.brussels/fresques/olivier-rameau/"}},{"type":"node","id":4693914489,"lat":50.8370579,"lon":4.3354561,"tags":{"artist_name":"Hergé","artwork_type":"mural","indoor":"yes","name":"Tintin - Kuifje","name:fr":"Tintin","name:nl":"Kuifje","tourism":"artwork"}},{"type":"node","id":4710835375,"lat":50.8390735,"lon":4.3504792,"tags":{"artist_name":"Peyo","artwork_type":"mural","name":"Benoît Brisefer - Steven Sterk","name:fr":"Benoît Brisefer","name:nl":"Steven Sterk","start_date":"2015","tourism":"artwork","website":"https://www.parcoursbd.brussels/fresques/benoit-brisefer/"}},{"type":"node","id":4770948522,"lat":50.8270559,"lon":4.3955323,"tags":{"artist:wikidata":"Q2264505","artist_name":"Philippe Geluck","artwork_type":"mural","name":"Le Chat - De Kat","name:fr":"Le Chat","name:nl":"De Kat","start_date":"2014-09-27","tourism":"artwork"}},{"type":"node","id":4818530389,"lat":51.2067569,"lon":4.4117762,"tags":{"artwork_type":"mural","name":"Portret Wannes Van De Velde","tourism":"artwork"}},{"type":"node","id":5018129146,"lat":50.8380445,"lon":4.3473728,"tags":{"artist_name":"Turk; Bob de Groot","artwork_type":"mural","name":"Léonard - Leonardo","name:fr":"Léonard","name:nl":"Leonardo","start_date":"2015-09-11","tourism":"artwork","website":"https://www.parcoursbd.brussels/fresques/leonard/"}},{"type":"node","id":5042146066,"lat":51.0447532,"lon":4.5382832,"tags":{"artwork_type":"mural","tourism":"artwork"}},{"type":"node","id":5303499733,"lat":51.1274347,"lon":4.4965142,"tags":{"artwork_type":"mural","name":"linth 1935","tourism":"artwork"}},{"type":"node","id":5338688773,"lat":50.8529625,"lon":4.3453083,"tags":{"artist_name":"Dupa","artwork_type":"mural","name":"Cubitus - Dommel","name:fr":"Cubitus","name:nl":"Dommel","tourism":"artwork","website":"https://www.parcoursbd.brussels/fresques/cubitus/"}},{"type":"node","id":5358645180,"lat":51.5529748,"lon":5.0848249,"tags":{"artwork_type":"mural","tourism":"artwork"}},{"type":"node","id":5384138659,"lat":51.1515946,"lon":4.6172395,"tags":{"artwork_type":"mural","description":"Wall art of leaping gemsbok.","tourism":"artwork"}},{"type":"node","id":5572933101,"lat":50.6374401,"lon":5.5616057,"tags":{"artwork_type":"mural","name":"Ginko Biloba","tourism":"artwork"}},{"type":"node","id":5681944028,"lat":50.6690651,"lon":4.6131197,"tags":{"artist_name":"J-M Collier","artwork_type":"mural","location":"overhead","name":"fresque trompe-l'oeil","tourism":"artwork"}},{"type":"node","id":5700155742,"lat":51.152796,"lon":4.3011144,"tags":{"artwork_type":"mural","name":"Kikkerschilderij","tourism":"artwork"}},{"type":"node","id":5703053842,"lat":50.8456233,"lon":4.3559359,"tags":{"artist_name":"Peyo","artwork_type":"mural","description":"Mural of Smurf characters - it is located on the ceiling of the footway passage under Hilton Hotel","location":"overhead","name":"Les Schtroumpfs - De Smurfen","name:de":"Die Schlümpfe","name:en":"The Smurfs","name:fr":"Les Schtroumpfs","name:nl":"De Smurfen","start_date":"2018-06-19","tourism":"artwork","website":"https://www.parcoursbd.brussels/fresques/les-schtroumpfs/"}},{"type":"node","id":5765082611,"lat":50.0116083,"lon":4.9617135,"tags":{"artist_name":"Leo Van Hullebusch","artwork_type":"mural","description":"Peinture de façade représentant deux cyclistes","start_date":"2015","tourism":"artwork"}},{"type":"node","id":5784878371,"lat":50.0056378,"lon":5.7224567,"tags":{"addr:city":"Bastogne","addr:street":"Rond point des Herdiers d'Ardenne","artwork_type":"mural","name":"Herdiers d'Ardenne","tourism":"artwork","wheelchair":"yes","wheelchair:description":"[En: Beside footway, no accessible crossings on roundabout."}},{"type":"node","id":5810115580,"lat":50.8425592,"lon":4.3473156,"tags":{"artist_name":"Roger Leloup","artwork_type":"mural","name":"Yoko Tsuno","tourism":"artwork","website":"https://www.parcoursbd.brussels/fresques/yoko-tsuno/"}},{"type":"node","id":5833458094,"lat":50.6698377,"lon":4.6159979,"tags":{"artwork_type":"mural","tourism":"artwork"}},{"type":"node","id":5833458095,"lat":50.6697841,"lon":4.6159293,"tags":{"artwork_type":"mural","tourism":"artwork"}},{"type":"node","id":5833458096,"lat":50.6697456,"lon":4.6158801,"tags":{"artwork_type":"mural","tourism":"artwork"}},{"type":"node","id":5834510086,"lat":51.2138711,"lon":4.3942188,"tags":{"artist_name":"Marc Sleen","artwork_type":"mural","description:nl":"stripmuur","name":"Nero","tourism":"artwork","website":"https://stripmuren.be"}},{"type":"node","id":5856105144,"lat":51.2267498,"lon":4.401564,"tags":{"artist_name":"Joost Swarte","artwork_type":"mural","description:nl":"stripmuur","name":"Zeven Deugden en Ondeugden","tourism":"artwork","url":"http://stripmuren.be/"}},{"type":"node","id":5858712466,"lat":51.2176979,"lon":4.3979343,"tags":{"alt_name":"Suske en Wiske op Sus Antigoon","artist_name":"Willy Vandersteen","artwork_type":"mural","description:nl":"stripmuur","image":"https://i.imgur.com/21iHK3r.jpg","name":"Suske en Wiske","tourism":"artwork","url":"http://stripmuren.be/","img_thumbnail":"node_5858712466_0.jpg"}},{"type":"node","id":5858738561,"lat":51.2190435,"lon":4.4039821,"tags":{"artist_name":"Jan Van Der Veken","artwork_type":"mural","description:nl":"stripmuur","name":"Passage","tourism":"artwork","website":"https://stripmuren.be"}},{"type":"node","id":5858749446,"lat":51.2203567,"lon":4.4041577,"tags":{"artist_name":"Dick Matena","artwork_type":"mural","description:nl":"stripmuur","name":"Laarmans","tourism":"artwork","website":"https://stripmuren.be"}},{"type":"node","id":5858865484,"lat":51.2204104,"lon":4.4120997,"tags":{"artist_name":"Jef Nys","artwork_type":"mural","description:nl":"stripmuur","name":"Jommeke","tourism":"artwork","url":"http://stripmuren.be/"}},{"type":"node","id":5858869985,"lat":51.2218389,"lon":4.4123539,"tags":{"alt_name":"De Kiekeboes","artist_name":"Merho","artwork_type":"mural","description:nl":"stripmuur","name":"Kiekeboe","tourism":"artwork","url":"http://stripmuren.be/"}},{"type":"node","id":5858869986,"lat":51.2215304,"lon":4.40869,"tags":{"artist_name":"Ilah","artwork_type":"mural","description:nl":"stripmuur","name":"Cordelia","tourism":"artwork","website":"https://stripmuren.be"}},{"type":"node","id":5858869987,"lat":51.2081305,"lon":4.3925819,"tags":{"artist_name":"Philip Paquet","artwork_type":"mural","description:nl":"stripmuur","name":"Louis Armstrong","tourism":"artwork","website":"https://stripmuren.be"}},{"type":"node","id":5858869988,"lat":51.2215181,"lon":4.4031692,"tags":{"alt_name":"Hendrik Conscience","artist_name":"Jan Bosschaert","artwork_type":"mural","description:nl":"stripmuur","name":"Conscience","tourism":"artwork","website":"https://stripmuren.be"}},{"type":"node","id":5994827624,"lat":51.6194898,"lon":5.4353879,"tags":{"artwork_type":"mural","name":"Sint Servatius","start_date":"1888","tourism":"artwork"}},{"type":"node","id":6139146785,"lat":51.2708541,"lon":4.2986864,"tags":{"artist_name":"Ramsey Nasr","artwork_type":"mural","name":"Geef mij glas","tourism":"artwork"}},{"type":"node","id":6196852364,"lat":51.5840174,"lon":4.7777642,"tags":{"artwork_type":"mural","image":"https://photos.app.goo.gl/n1Gha1WYtJagkXYk8","mapillary":"466057221343764","tourism":"artwork","img_thumbnail":"node_6196852364_0.jpg"}},{"type":"node","id":6196852369,"lat":51.5838959,"lon":4.7773422,"tags":{"artwork_type":"mural","image":"https://photos.app.goo.gl/czhVmRfH9PaLXeun6","mapillary":"789303768641426","tourism":"artwork","img_thumbnail":"node_6196852369_0.jpg"}},{"type":"node","id":6204275063,"lat":51.9267716,"lon":4.4774746,"tags":{"artwork_type":"mural","image":"https://d1cuyjsrcm0gby.cloudfront.net/1XVZ3mx0Hf19kUTsTXY1eQ/thumb-2048.jpg","mapillary":"2610022195969235","name":"OZON","tourism":"artwork"}},{"type":"node","id":6205201373,"lat":51.9213008,"lon":4.4708258,"tags":{"artwork_type":"mural","image":"https://d1cuyjsrcm0gby.cloudfront.net/k3hwB2s6DOZ-2hqErsn2Rw/thumb-2048.jpg","mapillary":"196612372132366","tourism":"artwork"}},{"type":"node","id":6205236285,"lat":51.9211063,"lon":4.4707579,"tags":{"artwork_type":"mural","image":"https://d1cuyjsrcm0gby.cloudfront.net/6jGjJ9SFuyENc8gM0y81FQ/thumb-2048.jpg","mapillary":"1717119468469053","tourism":"artwork"}},{"type":"node","id":6205236287,"lat":51.9198295,"lon":4.472678,"tags":{"artwork_type":"mural","image":"https://d1cuyjsrcm0gby.cloudfront.net/3YKdXrTqWNZysPRP8X5XxQ/thumb-2048.jpg","mapillary":"189895462954309","tourism":"artwork"}},{"type":"node","id":6238087191,"lat":50.8577347,"lon":5.6907438,"tags":{"artist_name":"Collin van der Sluijs","artwork_type":"mural","image":"https://images.mapillary.com/UX0VhBeYZ9A5sdvXcZ9l8u/thumb-2048.jpg","mapillary":"906144713280587","name":"Mural zanglijster","name:en":"Mural Song Thrush","tourism":"artwork","url":"https://www.belvedere-maastricht.nl/actueel/mural-als-entree-voor-het-sphinxkwartier"}},{"type":"node","id":6258357372,"lat":51.4853688,"lon":4.2931208,"tags":{"artwork_type":"mural","image":"https://d1cuyjsrcm0gby.cloudfront.net/butvxkLo5TSsvR14kjQp8Q/thumb-2048.jpg","mapillary":"1161692610959821","tourism":"artwork"}},{"type":"node","id":6258357373,"lat":51.4854093,"lon":4.2931453,"tags":{"artwork_type":"mural","image":"https://d1cuyjsrcm0gby.cloudfront.net/JkrbejJCYwvBXKvYDClzog/thumb-2048.jpg","mapillary":"1551814705027020","tourism":"artwork"}},{"type":"node","id":6258837281,"lat":51.8109469,"lon":4.6631016,"tags":{"artwork_type":"mural","image":"https://d1cuyjsrcm0gby.cloudfront.net/YKcZ39XR0LpAMTScJWSq3g/thumb-2048.jpg","mapillary":"3568112643413756","tourism":"artwork"}},{"type":"node","id":6258837293,"lat":51.8116929,"lon":4.6619174,"tags":{"artwork_type":"mural","image":"https://d1cuyjsrcm0gby.cloudfront.net/pqes-azb-6QYjA-wOHV2Fg/thumb-2048.jpg","mapillary":"483184789765746","tourism":"artwork"}},{"type":"node","id":6305518228,"lat":51.1060342,"lon":5.863259,"tags":{"artist_name":"Mathieu van Thoor","artwork_type":"mural","name":"De Valk","tourism":"artwork","website":"https://vanderkrogt.net/standbeelden/object.php?record=LI06ba"}},{"type":"node","id":6305518665,"lat":51.1064241,"lon":5.8642112,"tags":{"artist_name":"Gebroeders Van Thoor","artwork_type":"mural","name":"De Valk","tourism":"artwork","website":"https://vanderkrogt.net/standbeelden/object.php?record=LI06ba"}},{"type":"node","id":6312353146,"lat":50.8493552,"lon":4.3530519,"tags":{"artist_name":"Oli-B","artwork_type":"mural","description":"Colourful mural painting on the side of a building","level":"5","name":"Ecuyer","start_date":"2019-01-11","tourism":"artwork","website":"https://parcoursstreetart.brussels/oeuvres/oli-b-rue-de-lecuyer-5-9-1000-bruxelles/"}},{"type":"node","id":6436299776,"lat":51.8729621,"lon":4.4665347,"tags":{"artist_name":"Julia Braendle","artwork_type":"mural","material":"stone","name":"Klimfiguren","start_date":"1963","tourism":"artwork","website":"http://www.bkor.nl/beelden/klimfiguren/","wikidata":"Q102080214"}},{"type":"node","id":6534405863,"lat":50.8472793,"lon":4.3459818,"tags":{"artist_name":"Anthea Missy","artwork_type":"mural","name":"Ihsane Jarfi","tourism":"artwork","website":"https://parcoursstreetart.brussels/oeuvres/anthea-missy-rue-saint-christophe-45-1000-bruxelles/"}},{"type":"node","id":6534450912,"lat":50.8465408,"lon":4.3470905,"tags":{"artist_name":"LaetiCNN199;Nadia;Michelle Shiyu Chen;Chelove","artwork_type":"mural","name":"La Belle Hip Hop","tourism":"artwork","website":"https://parcoursstreetart.brussels/oeuvres/laeticnn199-nadia-michelle-shiyu-chen-chelove-rue-de-leclipse-1000-bruxelles/"}},{"type":"node","id":6534462291,"lat":50.8554977,"lon":4.3427849,"tags":{"artist_name":"Claire Daliers","artwork_type":"mural","name":"The Drunken Ship","tourism":"artwork"}},{"type":"node","id":6534462987,"lat":50.8466961,"lon":4.3466632,"tags":{"artist_name":"Farm Piotr","artwork_type":"mural","tourism":"artwork"}},{"type":"node","id":6534464086,"lat":50.8548232,"lon":4.3434748,"tags":{"artwork_type":"mural","level":"4-6","tourism":"artwork"}},{"type":"node","id":6534469151,"lat":50.8499528,"lon":4.3550135,"tags":{"artist_name":"FSTN","artwork_type":"mural","mapillary":"1397809337284338","name":"REVLT!","tourism":"artwork"}},{"type":"node","id":6648126355,"lat":50.4663343,"lon":4.8665652,"tags":{"artist:wikidata":"Q8674","artist_name":"CitéCréation","artwork_type":"mural","name":"Fresque des Wallons","start_date":"2004-09-18","tourism":"artwork","wikidata":"Q38072209","wikipedia":"fr:Fresque des Wallons"}},{"type":"node","id":6757572304,"lat":50.6304913,"lon":5.5746236,"tags":{"artwork_type":"mural","tourism":"artwork"}},{"type":"node","id":6757615674,"lat":50.632725,"lon":5.5745963,"tags":{"artist_name":"René Lejeune (Willoos)","artwork_type":"mural","source":"https://www.tvlux.be/video/liege-une-fresque-de-willoos_8540.html","start_date":"2011","tourism":"artwork"}},{"type":"node","id":6786813279,"lat":51.9159575,"lon":4.4775273,"tags":{"artwork_type":"mural","tourism":"artwork"}},{"type":"node","id":6786830372,"lat":51.9154433,"lon":4.4778775,"tags":{"artist_name":"Jorge Kata Núñez","artwork_type":"mural","name":"El Trotamundos","start_date":"2007","tourism":"artwork","wikidata":"Q62006757","wikipedia":"nl:El trotamundos"}},{"type":"node","id":6789425903,"lat":51.9153182,"lon":4.4767273,"tags":{"artist_name":"Tymon & Robert Rost","artwork_type":"mural","name":"LOVEBIRDS IN ROTTERDAM","tourism":"artwork"}},{"type":"node","id":6855305017,"lat":50.6356498,"lon":5.5771697,"tags":{"artist_name":"Pablo Gonzalez (Sozyone)","artwork_type":"mural","name":"L’Homme de la Meuse","source":"https://www.lavenir.net/cnt/dmf20190822_01369887/a-liege-une-gigantesque-oeuvre-de-street-art-se-devoile;http://www.vivreici.be/article/detail_l-homme-de-la-meuse-se-reveille-a-liege?id=319254","tourism":"artwork"}},{"type":"node","id":6855305018,"lat":50.6363535,"lon":5.5777256,"tags":{"artist_name":"Pablo Gonzalez (Sozyone)","artwork_type":"mural","name":"L’Homme de la Meuse","source":"http://www.vivreici.be/article/detail_l-homme-de-la-meuse-se-reveille-a-liege?id=319254","tourism":"artwork"}},{"type":"node","id":6856214697,"lat":51.9223115,"lon":4.475514,"tags":{"artist_name":"Ian Kirk Patrick","artwork_type":"mural","material":"vinyl","name":"Phoenix","start_date":"2018","tourism":"artwork","website":"https://www.iankirkpatrick.ca/2d","wikidata":"Q102079647"}},{"type":"node","id":6859075685,"lat":50.844142,"lon":4.3509859,"tags":{"artwork_type":"mural","mapillary":"217662846536869","name":"Manneken Peace","tourism":"artwork","website":"https://parcoursstreetart.brussels/oeuvres/h-m-i-_manneken-peace/"}},{"type":"node","id":6866246691,"lat":50.6456508,"lon":5.5790972,"tags":{"artist_name":"Nicolas Kozakis","artwork_type":"mural","name":"Grotte de la nativité","start_date":"2006","tourism":"artwork"}},{"type":"node","id":6873106700,"lat":51.4429191,"lon":5.4843713,"tags":{"artwork_type":"mural","name":"Silly Walk Eindhoven","start_date":"2016","tourism":"artwork"}},{"type":"node","id":6879782794,"lat":51.9220668,"lon":4.4779719,"tags":{"artwork_type":"mural","tourism":"artwork"}},{"type":"node","id":6881134475,"lat":50.8614313,"lon":4.3537567,"tags":{"artist_name":"Sainer","artwork_type":"mural","image":"https://i.imgur.com/4swXfCC.jpg","mapillary":"873109376883051","name":"Mother","tourism":"artwork","website":"https://parcoursstreetart.brussels/oeuvres/sainer-boulevard-simon-bolivar-1000-bruxelles/","img_thumbnail":"node_6881134475_0.jpg"}},{"type":"node","id":6937416760,"lat":50.5854503,"lon":5.569046,"tags":{"artist_name":"Didier Jaba Mathieu","artwork_type":"mural","name":"Sans titre   2015-2018","tourism":"artwork"}},{"type":"node","id":6937937853,"lat":51.4394489,"lon":5.4780141,"tags":{"artwork_type":"mural","historic":"memorial","memorial":"plaque","tourism":"artwork"}},{"type":"node","id":6939751982,"lat":50.880093,"lon":4.328701,"tags":{"artwork_type":"mural","tourism":"artwork"}},{"type":"node","id":6994601285,"lat":50.8447865,"lon":4.3477225,"tags":{"artist_name":"Nix","artwork_type":"mural","full_name":"Kinky & Cosy sèment la pagaille","name":"Kinky & Cosy","tourism":"artwork","website":"https://www.parcoursbd.brussels/fresques/kinky-cosy/"}},{"type":"node","id":7089883130,"lat":50.8357445,"lon":4.3445256,"tags":{"artist_name":"Andre Geerts","artwork_subject":"Jojo","artwork_type":"mural","image":"https://commons.wikimedia.org/wiki/File:Jojo_-_Rue_Piermans_2011.jpg","name":"Jojo","tourism":"artwork","website":"https://www.parcoursbd.brussels/fresques/le-petit-jojo/","img_thumbnail":"node_7089883130_0.jpg"}},{"type":"node","id":7093987964,"lat":50.8381141,"lon":4.3504837,"tags":{"artist_name":"Yoann; Fabien Vehlmann","artwork_type":"mural","name":"Spirou - Robbedoes","name:fr":"Spirou","name:nl":"Robbedoes","tourism":"artwork","website":"https://www.parcoursbd.brussels/fresques/spirou/"}},{"type":"node","id":7093987965,"lat":50.838689,"lon":4.3515885,"tags":{"artist_name":"Bonom","artwork_subject":"figurative","artwork_type":"mural","name":"Squid","tourism":"artwork"}},{"type":"node","id":7093987966,"lat":50.8406227,"lon":4.3516071,"tags":{"artist_name":"Parole;Obêtre;Spencer;Doctor H","artwork_subject":"genre","artwork_type":"mural","name":"Lotsjmaghrust","start_date":"2015","tourism":"artwork","website":"https://parcoursstreetart.brussels/oeuvres/parole-obetre-doctor-h-spencer-rue-haute-60-1000-bruxelles/"}},{"type":"node","id":7093987967,"lat":50.8402061,"lon":4.3509721,"tags":{"artist_name":"Hell’O","artwork_subject":"abstract","artwork_type":"mural","name":"Patientia","start_date":"2019","tourism":"artwork","website":"https://parcoursstreetart.brussels/oeuvres/hello-rue-notre-seigneur-29-31-1000-bruxelles/"}},{"type":"node","id":7093987969,"lat":50.8392857,"lon":4.3487176,"tags":{"artist_name":"Bonom","artwork_subject":"figurative","artwork_type":"mural","start_date":"2010","tourism":"artwork"}},{"type":"node","id":7093987970,"lat":50.8392328,"lon":4.3488329,"tags":{"artist_name":"Kool Koor","artwork_subject":"abstract","artwork_type":"mural","tourism":"artwork"}},{"type":"node","id":7093987971,"lat":50.8377461,"lon":4.3492061,"tags":{"artist_name":"Thomas Vuille","artwork_subject":"figurative","artwork_type":"mural","name":"Mr Chat","start_date":"2018","tourism":"artwork","website":"https://www.monsieurchat.fr"}},{"type":"node","id":7093987972,"lat":50.8382323,"lon":4.349555,"tags":{"artist_name":"Nelson Dos Reis","artwork_subject":"figurative","artwork_type":"mural","name":"La paresse - De luiheid","name:fr":"La paresse","name:nl":"De luiheid","start_date":"2019","tourism":"artwork","website":"https://parcoursstreetart.brussels/oeuvres/nelson-dos-reis-rue-saint-ghislain-75-1000-bruxelles/"}},{"type":"node","id":7113499446,"lat":51.8101889,"lon":4.5600666,"tags":{"access":"private","artwork_type":"mural","heritage":"8","name":"Tegeltableau Suikerfabriek","tourism":"artwork"}},{"type":"node","id":7334205291,"lat":51.8984608,"lon":5.0960564,"tags":{"artwork_type":"mural","tourism":"artwork"}},{"type":"node","id":7344143944,"lat":51.2106801,"lon":4.4326167,"tags":{"artist_name":"Joachim Lambrechts","artwork_type":"mural_painting","name":"Mala Zimetbaum","tourism":"artwork","wikidata":"Q276062","wikimedia_commons":"Category:Mala Zimetbaum","wikipedia":"nl:Mala Zimetbaum"}},{"type":"node","id":7449702185,"lat":51.1058134,"lon":4.9148394,"tags":{"artist_name":"Liens Creations","artwork_type":"mural","survey:date":"2020-04-26","tourism":"artwork"}},{"type":"node","id":7580353165,"lat":50.8846994,"lon":4.723977,"tags":{"artist_name":"Nean","artwork_type":"mural","tourism":"artwork"}},{"type":"node","id":7580353166,"lat":50.8845471,"lon":4.7246599,"tags":{"artist_name":"Dzia","artwork_type":"mural","name":"A tale of two foxe","tourism":"artwork"}},{"type":"node","id":7580353167,"lat":50.8841965,"lon":4.7192544,"tags":{"artist_name":"Gijs Vanhee","artwork_type":"mural","tourism":"artwork"}},{"type":"node","id":7660455682,"lat":51.8715129,"lon":4.5280144,"tags":{"artwork_type":"mural","inscription":"Jean de la Fonatiane - Een bescheiden geluk is het beste geluk","tourism":"artwork"}},{"type":"node","id":7660458202,"lat":51.8730125,"lon":4.5293327,"tags":{"artwork_type":"mural","inscription":"Hij opende op de eerste de beste molen die voor hem stond","name":"Cervantes","tourism":"artwork"}},{"type":"node","id":7707020785,"lat":50.8539389,"lon":4.3471109,"tags":{"artist_name":"Jadranka Lacković","artwork_type":"mural","image":"https://i.imgur.com/6DJyOKa.jpeg","name":"No Borders","tourism":"artwork","website":"https://parcoursstreetart.brussels/oeuvres/jadranka-lackovic-quai-a-la-houille-5-8-1000-bruxelles/","img_thumbnail":"node_7707020785_0.jpg"}},{"type":"node","id":7707020985,"lat":50.8429328,"lon":4.3505406,"tags":{"artist:wikidata":"Q1937177","artist_name":"Yves Chaland","artwork_type":"mural","name":"Le Jeune Albert - De Jonge Albert","name:fr":"Le Jeune Albert","name:nl":"De Jonge Albert","tourism":"artwork","website":"https://www.parcoursbd.brussels/fresques/le-jeune-albert/","wikidata":"Q96216516"}},{"type":"node","id":7717068215,"lat":51.2489933,"lon":5.0605121,"tags":{"artist_name":"Joost Jansen","artwork_type":"mural","description":"Voormalig Reties burgemeester had de gewoonte om bij herstelling van wegen de overschotten van beton te gebruiken om ‘monumentale constructies’ op te richten in de omgeving van de werken. Zijn autoritaire bestuursstijl leverde hem de bijnaam Napoleon op.","name":"Graf van Napoleon","start_date":"2020-05-07","tourism":"artwork","website":"https://www.invlaanderen.be/(76956)/pleintjes-krijgen-opknapbeurt-in-kader-van-wegenis--en-rioleringswerken-geenend-duinberg-zavelstraat-duinkerken-wenen-wildeman"}},{"type":"node","id":7728827089,"lat":51.8780434,"lon":4.4706951,"tags":{"artwork_type":"mural","tourism":"artwork"}},{"type":"node","id":7772873834,"lat":50.6326715,"lon":5.5625905,"tags":{"artist_name":"Jérémy Goffart","artwork_type":"mural","name":"Chet Baker","source":"https://www.liege.be/fr/annuaire/palissart/chet-baker-par-jeremy-goffart","tourism":"artwork"}},{"type":"node","id":7823840380,"lat":50.8170091,"lon":4.3721312,"tags":{"artist_name":"Alvari, Kool Koor, Mino1","artwork_type":"mural","note":"4000 m2","tourism":"artwork"}},{"type":"node","id":7826148969,"lat":50.8522724,"lon":4.3584402,"tags":{"artist_name":"Juliette Boutant;Thomas Mathieu","artwork_type":"mural","description":"Large mural depicting 6 scenes where men are depicted as crocodiles; this artwork illustrates sexism and harrasment of women","name":"Les crocodiles - Krokodilen","name:fr":"Les crocodiles","name:nl":"Krokodillen","start_date":"2020","tourism":"artwork","website":"https://www.parcoursbd.brussels/fresques/les-crocodiles/"}},{"type":"node","id":7847777562,"lat":50.2279042,"lon":5.3455236,"tags":{"artist_name":"Pierre Fromont","artwork_type":"mural","name":"Porte Ouvertee","start_date":"1994","tourism":"artwork"}},{"type":"node","id":7853614779,"lat":50.2269021,"lon":5.3445025,"tags":{"artist_name":"Luc Templier","artwork_type":"mural","name":"Mise en abîme","start_date":"1997","tourism":"artwork"}},{"type":"node","id":7853614780,"lat":50.2272885,"lon":5.3442,"tags":{"artist_name":"Bernadette Henin-Lecomte","artwork_type":"mural","fixme":"position exacte à déterminer","name":"Fresque murale","start_date":"1999","tourism":"artwork"}},{"type":"node","id":7859539967,"lat":51.4523417,"lon":5.4705814,"tags":{"artwork_type":"mural","description":"https://photos.app.goo.gl/q1aWx2uKTCd8EHis7","image":"https://images.mapillary.com/M9UYPxkgoHfJJ0HCUmqABf/thumb-2048.jpg","mapillary":"199604711997255","tourism":"artwork"}},{"type":"node","id":7860547017,"lat":51.4404087,"lon":5.4697194,"tags":{"artwork_type":"mural","image":"https://images.mapillary.com/ziHv9Px4yBRwk65xVUu7FS/thumb-2048.jpg","mapillary":"1364276713944782","tourism":"artwork"}},{"type":"node","id":7905056017,"lat":50.8557868,"lon":5.6941363,"tags":{"artwork_type":"mural","image":"https://images.mapillary.com/eEWzXrz1oN3A1WpOaN4J29/thumb-2048.jpg","mapillary":"789149261743272","tourism":"artwork"}},{"type":"node","id":7905056018,"lat":50.8555622,"lon":5.6949539,"tags":{"artwork_type":"mural","tourism":"artwork"}},{"type":"node","id":7918358534,"lat":50.8879953,"lon":5.9806277,"tags":{"addr:street":"Schandelerboord","artist_name":"Os Gemeos","artwork_type":"mural","name":"L'étranger","opening_hours":"24/7","start_date":"2008","tourism":"artwork"}},{"type":"node","id":7986144136,"lat":51.9611235,"lon":5.218212,"tags":{"artist_name":"Klaas van Os","artwork_type":"mural","name":"Graaf Egbert Sigaren","start_date":"1933","tourism":"artwork"}},{"type":"node","id":8023052208,"lat":50.8558189,"lon":5.6942483,"tags":{"artist_name":"Dave de Leeuw","artwork_type":"mural","image":"https://images.mapillary.com/DlJW0aFP2DvfD2Nq74JsTD/thumb-2048.jpg","mapillary":"310439690458635","tourism":"artwork","website":"http://wallpaintss.blogspot.com/2020/10/maastricht-netherlands.html"}},{"type":"node","id":8066253631,"lat":50.4601688,"lon":4.8704717,"tags":{"artist_name":"Démosthène Stellas","artwork_type":"mural","image":"https://photos.app.goo.gl/hrpQJBtqw5kx851H8","name":"Fresque de la Villa Balat","start_date":"2020","tourism":"artwork","website":"https://www.namur.be/fr/loisirs/culture/namur-confluent-culture/publications/la-fresque-de-la-villa-balat-par-demosthene-stellas","img_thumbnail":"node_8066253631_0.jpg"}},{"type":"node","id":8101103725,"lat":50.8629472,"lon":4.3563653,"tags":{"artist_name":"Une ville en couleur","artwork_type":"mural","name":"Fresque Nord","tourism":"artwork","website":"https://parcoursstreetart.brussels/oeuvres/une-ville-en-couleur-chaussee-danvers-150-1000-bruxelles/"}},{"type":"node","id":8147093530,"lat":50.8776351,"lon":4.3553221,"tags":{"artist_name":"FSTN","artwork_type":"mural","image":"https://i.imgur.com/XfRtnkX.jpg","mapillary":"495262265262068","name":"Annie Cordy","tourism":"artwork","website":"https://parcoursstreetart.brussels/oeuvres/fstn-parvis-notre-dame-374-1020-bruxelles-laeken/","img_thumbnail":"node_8147093530_0.jpg"}},{"type":"node","id":8148235970,"lat":50.7658975,"lon":4.4491239,"tags":{"artist_name":"DZIA","artwork_type":"mural","name":"DZIA","tourism":"artwork"}},{"type":"node","id":8148585755,"lat":50.8768074,"lon":4.3576597,"tags":{"artist_name":"Nean","artwork_type":"mural","mapillary":"1865507556951952","name":"La Croix Rouge de Belgique - Belgische Rode Kruis","name:fr":"La Croix Rouge de Belgique","name:nl":"Belgische Rode Kruis","tourism":"artwork","website":"https://parcoursstreetart.brussels/oeuvres/nean-avenue-de-la-reine-1020-bruxelles-laeken/"}},{"type":"node","id":8150792045,"lat":50.8433926,"lon":4.3569196,"tags":{"artist:wikidata":"Q16734502","artist_name":"Phlegm","artwork_type":"mural","tourism":"artwork"}},{"type":"node","id":8151291952,"lat":50.8411593,"lon":4.3598691,"tags":{"artist_name":"PROPAGANZA","artwork_type":"mural","mapillary":"1392384237794593","name":"Sagesse","tourism":"artwork","website":"https://parcoursstreetart.brussels/oeuvres/spear_sagesse/"}},{"type":"node","id":8185262771,"lat":50.8498087,"lon":4.3752362,"tags":{"artwork_type":"mural","mapillary":"2994246304191708","tourism":"artwork"}},{"type":"node","id":8191852126,"lat":50.8530326,"lon":4.3693486,"tags":{"artwork_type":"mural","mapillary":"162785265783494","tourism":"artwork"}},{"type":"node","id":8211263641,"lat":50.8738045,"lon":4.3596458,"tags":{"artist_name":"NovaDead","artwork_type":"mural","mapillary":"2635443346755891","name":"George Floyd","name:etymology:wikidata":"Q95677819","tourism":"artwork","website":"https://parcoursstreetart.brussels/oeuvres/novadead-avenue-de-la-reine-1020-bruxelles-laeken/"}},{"type":"node","id":8222092050,"lat":50.8719252,"lon":4.3568257,"tags":{"artist_name":"Hell’o Monsters","artwork_type":"mural","mapillary":"5495683813837967","name":"CCB Tower","tourism":"artwork","website":"https://parcoursstreetart.brussels/oeuvres/hello-monsters-avenue-du-port-79-1000-bruxelles/"}},{"type":"node","id":8227888528,"lat":50.8436096,"lon":4.3770533,"tags":{"artwork_type":"mural","mapillary":"946886309464030","name":"The Future Is Europe","tourism":"artwork"}},{"type":"node","id":8232726224,"lat":51.5855138,"lon":4.7777931,"tags":{"artwork_type":"mural","image":"https://photos.app.goo.gl/hLHxcGp6HBdVVXE47","mapillary":"321663676008960","tourism":"artwork","img_thumbnail":"node_8232726224_0.jpg"}},{"type":"node","id":8242236164,"lat":51.2135536,"lon":4.405152,"tags":{"artwork_type":"mural","image":"https://photos.app.goo.gl/qQJW2DGYP9Ytc5JT9","mapillary":"370528614401516","tourism":"artwork","img_thumbnail":"node_8242236164_0.jpg"}},{"type":"node","id":8244570475,"lat":51.2330516,"lon":4.4025108,"tags":{"artwork_type":"mural","image":"https://photos.app.goo.gl/k4haPYGFNxzm12Y79","mapillary":"2802647763319173","tourism":"artwork","img_thumbnail":"node_8244570475_0.jpg"}},{"type":"node","id":8244570490,"lat":51.236062,"lon":4.4088049,"tags":{"artwork_type":"mural","image":"https://photos.app.goo.gl/kao6RYRox7QUzvah8","mapillary":"1039521439913455","tourism":"artwork","img_thumbnail":"node_8244570490_0.jpg"}},{"type":"node","id":8318528827,"lat":50.8175108,"lon":4.4297098,"tags":{"artwork_type":"mural","name":"Gil Jourdan","start_date":"2006","tourism":"artwork"}},{"type":"node","id":8331181088,"lat":50.8574291,"lon":5.8632511,"tags":{"artwork_type":"mural","tourism":"artwork"}},{"type":"node","id":8358710496,"lat":50.8583873,"lon":4.3517914,"tags":{"artist_name":"FreskoLab","artwork_type":"mural","description":"Een kind op stelten in een oceaan vol waterlelies","name":"Green City","start_date":"2020-11","tourism":"artwork","website":"https://parcoursstreetart.brussels/oeuvres/freskolab-frontispiesstraat-10-1000-brussel/"}},{"type":"node","id":8358733292,"lat":50.8356097,"lon":4.3487453,"tags":{"artist_name":"Céleste Gangolphe;Florianne Mandin;Mathieu Mary","artwork_type":"mural","name":"Entre Aide - Wederzijdse Hulp","name:fr":"Entre Aide - Wederzijdse Hulp","name:nl":"Wederzijdse Hulp","start_date":"2020-09","tourism":"artwork","website":"https://parcoursstreetart.brussels/oeuvres/celeste-gangolphe-florianne-mandin-mathieu-mary-rue-de-labricotier-11-1000-bruxelles/"}},{"type":"node","id":8455135500,"lat":50.8752153,"lon":4.3605249,"tags":{"artist_name":"Kim Demane","artwork_type":"mural","name":"Omatiks","tourism":"artwork","website":"https://parcoursstreetart.brussels/oeuvres/kim-demane-rue-albert-1020-bruxelles-laeken/"}},{"type":"node","id":8455275937,"lat":50.8968786,"lon":4.3921578,"tags":{"artist_name":"Ammar Abo Bakr","artwork_type":"mural","tourism":"artwork","website":"https://parcoursstreetart.brussels/oeuvres/ammar/"}},{"type":"node","id":8455281572,"lat":50.8941891,"lon":4.3843113,"tags":{"artist_name":"Farm Prod","artwork_type":"mural","name":"NOH","tourism":"artwork","website":"https://parcoursstreetart.brussels/oeuvres/farm-prod_noh/"}},{"type":"node","id":8518496740,"lat":51.8821925,"lon":4.5040234,"tags":{"artwork_type":"mural","tourism":"artwork"}},{"type":"node","id":8518496773,"lat":51.8951283,"lon":4.5025972,"tags":{"artwork_type":"mural","tourism":"artwork"}},{"type":"node","id":8525833493,"lat":51.4891196,"lon":4.0406164,"tags":{"artwork_type":"mural","name":"TEHAERE","tourism":"artwork"}},{"type":"node","id":8525833494,"lat":51.4889741,"lon":4.0403885,"tags":{"artwork_type":"mural","name":"GERSICHA","tourism":"artwork"}},{"type":"node","id":8530031126,"lat":51.578423,"lon":4.5772306,"tags":{"artwork_type":"mural","tourism":"artwork"}},{"type":"node","id":8530031127,"lat":51.5825627,"lon":4.7615877,"tags":{"artwork_type":"mural","tourism":"artwork"}},{"type":"node","id":8533413048,"lat":51.876794,"lon":4.5319152,"tags":{"artwork_type":"mural","inscription":"Ik hoe van dingen die mij strelen, ik geloof dat liefde het zonlicht weerspiegelt","name":"Sappho van Losbos","tourism":"artwork"}},{"type":"node","id":8570045235,"lat":51.881589,"lon":4.546436,"tags":{"artwork_type":"mural","inscription":"geluk is slechts een woord maar jij maakt het een daad","tourism":"artwork"}},{"type":"node","id":8602340244,"lat":51.1724743,"lon":4.1440102,"tags":{"artwork_type":"mural","image":"https://i.imgur.com/aE3pPvr.jpg","tourism":"artwork","img_thumbnail":"node_8602340244_0.jpg"}},{"type":"node","id":8618584519,"lat":50.8508932,"lon":4.4541364,"tags":{"artist_name":"Christophe Bourdeaux","artwork_type":"mural","level":"1","name":"La Conquista","source_ref":"https://books.google.be/books?id=zh6_CQAAQBAJ&pg=PA118&lpg=PA118&dq=christophe+bourdeaux+fresque&source=bl&ots=2VNzTQth9X&sig=ACfU3U1WjjPK50AWgsL5AufY8p9Xts3R8A&hl=it&sa=X&ved=2ahUKEwi71peQxrLyAhWhOOwKHceJBVAQ6AF6BAgMEAM#v=onepage&q=christophe%20bourdeaux","tourism":"artwork","year":"1993"}},{"type":"node","id":8867551500,"lat":51.8154077,"lon":4.7149709,"tags":{"artwork_type":"mural","tourism":"artwork"}},{"type":"node","id":8941012962,"lat":51.0009163,"lon":5.3654078,"tags":{"artist_name":"kunstenaarscollectief Treepack","artwork_type":"mural","tourism":"artwork","website":"https://www.zonhoven.be/knooppunt305"}},{"type":"node","id":8941025443,"lat":51.0010868,"lon":5.3654882,"tags":{"artist_name":"kunstenaarscollectief Treepack","artwork_type":"mural","tourism":"artwork","website":"https://www.zonhoven.be/knooppunt305"}},{"type":"node","id":8971664696,"lat":51.9118791,"lon":4.491146,"tags":{"artist_name":"Joe Cillen","artwork_type":"mural","name":"Zicht op Kaap Hoorn","tourism":"artwork","website":"https://www.bkor.nl/schilderkunst/zicht-op-kaap-hoorn/"}},{"type":"node","id":8971668243,"lat":51.9124468,"lon":4.4949066,"tags":{"artist_name":"Harry Sengers","artwork_type":"mural","name":"Herman van Olst","tourism":"artwork","website":"https://www.bkor.nl/schilderkunst/herman-van-olst/"}},{"type":"node","id":8971673145,"lat":51.9125599,"lon":4.4928476,"tags":{"artist_name":"Joe Cillen","artwork_type":"mural","name":"Orgon, orgon, orgon","tourism":"artwork","website":"https://www.bkor.nl/schilderkunst/orgon-orgon-orgon/"}},{"type":"node","id":8971683270,"lat":51.9126109,"lon":4.4938372,"tags":{"artist_name":"Helena van der Kraan, Axel van der Kraan","artwork_type":"mural","tourism":"artwork","website":"https://www.bkor.nl/schilderkunst/zonder-titel-12/"}},{"type":"node","id":8971694290,"lat":51.9128531,"lon":4.4924193,"tags":{"artist_name":"Anton Vrede","artwork_type":"mural","tourism":"artwork","website":"https://www.bkor.nl/schilderkunst/zonder-titel-14/"}},{"type":"node","id":8971697390,"lat":51.9161325,"lon":4.4998992,"tags":{"artist_name":"Joe Cillen","artwork_type":"mural","name":"Machinekamer MS Noordereiland","tourism":"artwork","website":"https://www.bkor.nl/schilderkunst/machinekamer-ms-noordereiland/"}},{"type":"node","id":8971697977,"lat":51.9153005,"lon":4.5000392,"tags":{"artist_name":"Ellen Vomberg","artwork_type":"mural","name":"Samen uit, samen thuis","tourism":"artwork","website":"https://www.bkor.nl/schilderkunst/samen-uit-samen-thuis/"}},{"type":"node","id":8971699120,"lat":51.9138469,"lon":4.4968094,"tags":{"artist_name":"Hans Wap","artwork_type":"mural","name":"Icarus","tourism":"artwork","website":"https://www.bkor.nl/schilderkunst/icarus/"}},{"type":"node","id":8971709198,"lat":51.9125526,"lon":4.499747,"tags":{"artist_name":"Marije Maria","artwork_type":"mural","tourism":"artwork"}},{"type":"node","id":8988169825,"lat":51.9137006,"lon":4.4938887,"tags":{"artist_name":"Joe Cillen","artwork_type":"mural","name":"Drijvende orgonblokken op zee","tourism":"artwork"}},{"type":"node","id":9003612742,"lat":50.8399151,"lon":4.3434993,"tags":{"artist:wikidata":"Q89411595","artist_name":"Fabienne Loodts","artwork_type":"mural","name":"Les ancêtres bienveillants - De zorgzame voorouders","name:fr":"Les ancêtres bienveillants","name:nl":"De zorgzame voorouders","tourism":"artwork","website":"https://www.parcoursbd.brussels/fresques/les-ancetres-bienveillants/"}},{"type":"node","id":9003612743,"lat":50.8391943,"lon":4.3420289,"tags":{"artist:wikidata":"Q75173837","artist_name":"Aurélie William Levaux","artwork_type":"mural","name":"Le petit gilet - Het kleine vest","name:fr":"Le petit gilet","name:nl":"Het kleine vest","tourism":"artwork","website":"https://www.parcoursbd.brussels/fresques/le-petit-gilet/"}},{"type":"node","id":9003612744,"lat":50.8394744,"lon":4.3425988,"tags":{"artist:wikidata":"Q104409452","artist_name":"Mathilde Van Gheluwe","artwork_type":"mural","name":"La Voie lactée - De melkweg","name:fr":"La Voie lactée","name:nl":"De melkweg","tourism":"artwork","website":"https://www.parcoursbd.brussels/fresques/la-voie-lactee/"}},{"type":"node","id":9007704463,"lat":50.8511937,"lon":4.4544907,"tags":{"alt_name":"L'Itinéraire secret d'un point de couleur à travers l'espace","artist_name":"Charline Mahy","artwork_type":"mural","level":"1","name":"L'Oiseau bleu","source_ref":"https://books.google.be/books?id=zh6_CQAAQBAJ&pg=PA118&lpg=PA118&dq=christophe+bourdeaux+fresque&source=bl&ots=2VNzTQth9X&sig=ACfU3U1WjjPK50AWgsL5AufY8p9Xts3R8A&hl=it&sa=X&ved=2ahUKEwi71peQxrLyAhWhOOwKHceJBVAQ6AF6BAgMEAM#v=onepage&q&f=false","tourism":"artwork","year":"1978"}},{"type":"node","id":9007910404,"lat":50.8495144,"lon":4.4520162,"tags":{"alt_name":"La Médecine en Afrique, de la tradition à la spiritualité","artist_name":"Aimé Mpané","artwork_type":"mural","name":"L'Allégorie de la médecine traditionnelle","tourism":"artwork","year":"1997"}},{"type":"node","id":9028898170,"lat":50.8422926,"lon":4.371859,"tags":{"artist_name":"Olimpia Velasco;Esther Pizarro","artwork_type":"mural","name":"Efecto Mariposa","name:es":"Efecto Mariposa","name:fr":"Effet Papillon","tourism":"artwork","website":"https://parcoursstreetart.brussels/oeuvres/olimpia-velasco-esther-pizarro-juanas-ambassade-despagne-rue-de-la-science-19-1000-bruxelles/"}},{"type":"node","id":9048753487,"lat":51.1744932,"lon":4.1944995,"tags":{"artist_name":"Werner Heyndrickx","artwork_type":"mural","name":"De Zwemmers","tourism":"artwork"}},{"type":"node","id":9072226989,"lat":50.8959944,"lon":4.4210283,"tags":{"artist_name":"Wauter Mannaert","artwork_type":"mural","name":"Yasmina","start_date":"2020","tourism":"artwork","website":"https://www.parcoursbd.brussels/fresques/yasmina/"}},{"type":"node","id":9072226990,"lat":50.8960345,"lon":4.4210701,"tags":{"artist_name":"Wauter Mannaert","artwork_type":"mural","name":"Yasmina","start_date":"2020","tourism":"artwork","website":"https://www.parcoursbd.brussels/fresques/yasmina/"}},{"type":"node","id":9087344632,"lat":50.8682112,"lon":4.3754458,"tags":{"artist_name":"Leti & Jango Jim","artwork_type":"mural","image":"https://i.imgur.com/tJxLdJ4.jpg","name":"BIODIVERCITY","start_date":"2021-09","tourism":"artwork","website":"https://cargocollective.com/jangojim/MURALS","img_thumbnail":"node_9087344632_0.jpg"}},{"type":"node","id":9089568491,"lat":50.8473195,"lon":4.3542712,"tags":{"artist_name":"Rikardo Druškić","artwork_type":"mural","name":"On ne voit bien qu’avec le cœur - Je kunt alleen goed zien met het hart","name:fr":"On ne voit bien qu’avec le cœur","name:nl":"Je kunt alleen goed zien met het hart","start_date":"2019","tourism":"artwork","website":"https://parcoursstreetart.brussels/oeuvres/rikardo-druskic-rue-du-marche-aux-peaux-1000-bruxelles/"}},{"type":"node","id":9160380061,"lat":50.8808279,"lon":4.3434229,"tags":{"artist_name":"Eva Roussel","artwork_type":"mural","name":"Solastalgie","start_date":"2021-10-09","tourism":"artwork","website":"https://www.parcoursbd.brussels/fresques/solastalgie/"}},{"type":"node","id":9165964967,"lat":50.842323,"lon":4.3297305,"tags":{"artwork_type":"mural","image":"https://i.imgur.com/RDgKNo4.jpg","tourism":"artwork","img_thumbnail":"node_9165964967_0.jpg"}},{"type":"node","id":9170366535,"lat":51.9123892,"lon":4.4997723,"tags":{"addr:city":"Rotterdam","addr:housenumber":"2a","addr:street":"Stieltjesplein","artist_name":"Ox-Alien","artwork_type":"street_art","commissioned_by":"All Caps","material":"spray_paint","operator":"All Caps","start_date":"2021","tourism":"artwork","website":"https://all-caps.nl/"}},{"type":"node","id":9170370763,"lat":51.9125272,"lon":4.4998151,"tags":{"artist_name":"MOTS","artwork_type":"mural","name":"De brugwachter","tourism":"artwork"}},{"type":"node","id":9174270772,"lat":50.8128646,"lon":4.3912602,"tags":{"artist_name":"Arnaud Théval","artwork_type":"mural","name":"Rubis (Je peux là contre?) - Ruby (Mag ik er tegenin gaan?)","name:fr":"Rubis (Je peux là contre?)","name:nl":"Ruby (Mag ik er tegenin gaan?)","start_date":"2009","tourism":"artwork"}},{"type":"node","id":9174275537,"lat":50.7994729,"lon":4.319505,"tags":{"artist:wikidata":"Q3180431","artist_name":"Johan Muyle","artwork_type":"mural","name":"Il ne faut pas rire du bonheur - Je moet niet spotten met geluk","name:fr":"Il ne faut pas rire du bonheur","name:nl":"Je moet niet spotten met geluk","ref:urbanbrussels":"64608","start_date":"2009","tourism":"artwork"}},{"type":"node","id":9174328347,"lat":50.8990052,"lon":4.3593957,"tags":{"artist_name":"Cécile Pitois","artwork_type":"mural","name":"Le Refuge des Rêves - Toevlucht der dromen","name:fr":"Le Refuge des Rêves","name:nl":"Toevlucht der dromen","ref:urbanbrussels":"64602","start_date":"2012","tourism":"artwork"}},{"type":"node","id":9174328348,"lat":50.8988581,"lon":4.3584705,"tags":{"artist_name":"Cécile Pitois","artwork_type":"mural","name":"Requiem pour une étoile - Requiem voor een ster","name:fr":"Requiem pour une étoile","name:nl":"Requiem voor een ster","ref:urbanbrussels":"64602","start_date":"2012","tourism":"artwork"}},{"type":"node","id":9174377621,"lat":50.8407212,"lon":4.3482219,"tags":{"artist:wikidata":"Q52825934","artist_name":"Vincent Glowinski","artwork_type":"mural","name":"Anges - Engelen","name:fr":"Anges","name:nl":"Engelen","ref:urbanbrussels":"64708","start_date":"2020","tourism":"artwork"}},{"type":"node","id":9176722064,"lat":50.839891,"lon":4.3513103,"tags":{"artist_name":"Edgar P. Jacobs","artwork_type":"mural","name":"Les aventures de Blake & Mortimer - De avonturen van Blake & Mortimer","name:fr":"Les aventures de Blake & Mortimer","name:nl":"De avonturen van Blake & Mortimer","start_date":"2021","tourism":"artwork","website":"https://www.parcoursbd.brussels/fresques/les-aventures-de-blake-mortimer/"}},{"type":"node","id":9178965341,"lat":50.8124882,"lon":4.4307158,"tags":{"artist_name":"Suarez Murals","artwork_type":"mural","start_date":"2021-10-17","tourism":"artwork"}},{"type":"node","id":9183825446,"lat":50.6489786,"lon":5.5611807,"tags":{"artwork_type":"mural","tourism":"artwork"}},{"type":"node","id":9197002831,"lat":50.8494045,"lon":4.4026365,"tags":{"artist_name":"Bonom","artwork_type":"mural","tourism":"artwork"}},{"type":"node","id":9199169371,"lat":50.8382887,"lon":4.3515324,"tags":{"artist_name":"Stuf;Janry","artist_name:wikidata":"Q3501100;Q1654509","artwork_type":"mural","name":"Passe-moi l’ciel - Oh! Lieve Hemel","name:fr":"Passe-moi l’ciel","name:nl":"Oh! Lieve Hemel","tourism":"artwork","website":"https://www.parcoursbd.brussels/fresques/passe-moi-lciel/","wikimedia_commons":"File:Oh!_Lieve_hemel.jpg"}},{"type":"node","id":9237588083,"lat":51.8136683,"lon":4.6636366,"tags":{"artist_name":"Frans Kromeich, Rob van Kooten","artwork_subject":"Five famous Dordrecht personalities: Johan De Witt, Cornelis de Witt, Ary Scheffer, Albert Cuyp and Ferdinand Bol","artwork_type":"mural","name":"De Grachtwacht","start_date":"2020-05","tourism":"artwork","website":"https://dordrecht800.nl/grachtwacht-nu-zichtbaar/"}},{"type":"node","id":9253157317,"lat":50.8273503,"lon":4.3738179,"tags":{"artwork_type":"mural","name":"Fuller Projection","tourism":"artwork"}},{"type":"node","id":9318687687,"lat":50.8462242,"lon":4.3488031,"tags":{"artist_name":"Francis Carin;François Rivière;Gabrielle Borille","artwork_type":"mural","image":"https://commons.wikimedia.org/wiki/File:Victor_Sackville.jpg","name":"Victor Sackville","tourism":"artwork","website":"https://www.parcoursbd.brussels/fresques/victor-sackville/","img_thumbnail":"node_9318687687_0.jpg"}},{"type":"node","id":9329615538,"lat":50.8446568,"lon":4.3593617,"tags":{"artist:wikidata":"Q52825934","artist_name":"Bonom","artwork_type":"mural","tourism":"artwork"}},{"type":"node","id":9498361081,"lat":50.8823278,"lon":5.9794151,"tags":{"artist_name":"Pluk de dag","artwork_type":"mural","name":"Burpk","tourism":"artwork"}},{"type":"node","id":9498361082,"lat":50.8843607,"lon":5.9770053,"tags":{"artist_name":"Case Maclaim","artwork_type":"mural","name":"A miracle Elixir","tourism":"artwork"}},{"type":"node","id":9498395014,"lat":50.8829139,"lon":5.9793252,"tags":{"artist_name":"TelmoMiel","artwork_type":"mural","name":"A crazy little thing called glove","tourism":"artwork"}},{"type":"node","id":9524383117,"lat":50.8466569,"lon":4.3570756,"tags":{"artist_name":"Freskolab","artwork_type":"mural","name":"L’eau ne tombe pas du ciel - Water valt niet uit de lucht","name:en":"Water Doesn’t Fall from the Sky","name:fr":"L’eau ne tombe pas du ciel","name:nl":"Water valt niet uit de lucht","start_date":"2021-09-20","tourism":"artwork","website":"https://parcoursstreetart.brussels/oeuvres/freskolab-rue-du-cardinal-mercier-1000-bruxelles/"}},{"type":"node","id":9557410760,"lat":50.4617717,"lon":4.8698538,"tags":{"artwork_type":"mural","tourism":"artwork"}},{"type":"node","id":9557465190,"lat":50.4615362,"lon":4.8696357,"tags":{"artwork_type":"mural","tourism":"artwork"}},{"type":"node","id":9573484412,"lat":50.8749476,"lon":4.3741774,"tags":{"artwork_type":"mural","name":"Brussels Corvus Corone","tourism":"artwork","website":"https://parcoursstreetart.brussels/oeuvres/sozyone_brussels-corvus-corone/"}},{"type":"node","id":9577413430,"lat":50.8480157,"lon":4.3372166,"tags":{"artist_name":"Amandine Levy","artwork_type":"mural","name":"Yvonne Reynders","start_date":"2019-07","tourism":"artwork","website":"https://www.bruxelles.be/sites/default/files/bxl/CP_Tour_de_France.pdf"}},{"type":"node","id":9604173318,"lat":51.1602534,"lon":5.0001517,"tags":{"artist_name":"Bart Smeets","artwork_type":"mural","image":"https://i.imgur.com/vdyv1Hp.jpg","mapillary":"https://www.mapillary.com/app/?lat=51.160066666667&lng=4.999725&z=17&pKey=796724857648329&focus=photo&x=0.510674758012567&y=0.3408626370347503&zoom=0","start_date":"2019-03","tourism":"artwork","website":"https://www.visit-geel.be/street-art","img_thumbnail":"node_9604173318_0.jpg"}},{"type":"node","id":9604199142,"lat":51.1629875,"lon":4.9935283,"tags":{"artist_name":"Mr. June","artwork_type":"mural","tourism":"artwork","website":"https://www.visit-geel.be/street-art"}},{"type":"node","id":9612530360,"lat":51.1597958,"lon":4.9898653,"tags":{"artist_name":"Eelco van den Berg","artwork_type":"mural","image":"https://i.imgur.com/k2A3PnZ.jpeg","mapillary":"288808159922523","tourism":"artwork","website":"https://www.visit-geel.be/street-art","img_thumbnail":"node_9612530360_0.jpg"}},{"type":"node","id":9632138696,"lat":51.1614728,"lon":4.9891954,"tags":{"artist_name":"Medianeras","artwork_type":"mural","image":"https://i.imgur.com/QMTalOe.jpeg","tourism":"artwork","website":"https://www.visit-geel.be/street-art","img_thumbnail":"node_9632138696_0.jpg"}},{"type":"node","id":9635436644,"lat":50.8571793,"lon":4.3621716,"tags":{"artist:wikidata":"Q28122911","artist_name":"Okuda","artwork_type":"mural","image":"https://i.imgur.com/m0YTPFu.jpg","name":"Multiculturaly Balance the World","tourism":"artwork","img_thumbnail":"node_9635436644_0.png"}},{"type":"node","id":9652790167,"lat":50.846603,"lon":4.3451328,"tags":{"artist_name":"Bernard Godi;Zidrou;Falzar","artwork_type":"mural","name":"L’élève Ducobu - Dokus de leerling","name:fr":"L’élève Ducobu","name:nl":"Dokus de leerling","tourism":"artwork","website":"https://www.parcoursbd.brussels/fresques/leleve-ducobu/"}},{"type":"node","id":9652790183,"lat":50.8435822,"lon":4.3440521,"tags":{"artist_name":"Rosinski","artwork_type":"mural","name":"Thorgal","tourism":"artwork","website":"https://www.parcoursbd.brussels/fresques/thorgal/"}},{"type":"node","id":9661677648,"lat":50.8634105,"lon":4.2935361,"tags":{"artist:wikidata":"Q55236530","artist_name":"Wannes Lecompte","artwork_type":"mural","name":"Fabel","start_date":"2019-08-30","tourism":"artwork"}},{"type":"node","id":9666257453,"lat":50.848242,"lon":4.3393975,"tags":{"artwork_type":"mural","tourism":"artwork"}},{"type":"node","id":9666286654,"lat":50.8478813,"lon":4.3395286,"tags":{"artist:wikidata":"Q3575484","artist_name":"Zidrou","artwork_type":"mural","name":"Tour à Plomb - Hageltoren","name:fr":"Tour à Plomb","name:nl":"Hageltoren","tourism":"artwork","website":"https://www.parcoursbd.brussels/fresques/tour-a-plomb/"}},{"type":"node","id":9670060684,"lat":51.2128107,"lon":4.4070223,"tags":{"artwork_type":"mural","image":"https://i.imgur.com/c1Cg0JK.jpg","image:0":"https://i.imgur.com/eYXTiT7.jpg","tourism":"artwork","img_thumbnail":"node_9670060684_0.jpg"}},{"type":"node","id":9670072111,"lat":51.2147035,"lon":4.4002578,"tags":{"artwork_type":"mural","image":"https://i.imgur.com/kfmkIAH.jpg","tourism":"artwork","img_thumbnail":"node_9670072111_0.jpg"}},{"type":"node","id":9670085167,"lat":51.2148631,"lon":4.4006306,"tags":{"artwork_type":"mural","image":"https://i.imgur.com/wWcbbSx.jpg","tourism":"artwork","img_thumbnail":"node_9670085167_0.jpg"}},{"type":"node","id":9670113304,"lat":51.2148874,"lon":4.3959408,"tags":{"artwork_type":"mural","tourism":"artwork"}},{"type":"node","id":9670129670,"lat":51.2164883,"lon":4.3964888,"tags":{"artwork_type":"mural","image":"https://i.imgur.com/sDOn2FG.jpg","tourism":"artwork","img_thumbnail":"node_9670129670_0.jpg"}},{"type":"node","id":9670157698,"lat":51.2170203,"lon":4.4003463,"tags":{"artwork_type":"mural","image":"https://i.imgur.com/oaV1HZb.jpg","tourism":"artwork","img_thumbnail":"node_9670157698_0.jpg"}},{"type":"node","id":9670159742,"lat":51.2166524,"lon":4.3965456,"tags":{"artwork_type":"mural","image":"https://i.imgur.com/TuaVBnF.jpg","tourism":"artwork","img_thumbnail":"node_9670159742_0.jpg"}},{"type":"node","id":9670209938,"lat":51.2183778,"lon":4.3991514,"tags":{"artwork_type":"mural","image":"https://i.imgur.com/pJnmh2R.jpg","tourism":"artwork","img_thumbnail":"node_9670209938_0.jpg"}},{"type":"node","id":9673870303,"lat":51.2167339,"lon":4.3961084,"tags":{"artwork_type":"mural","image":"https://i.imgur.com/0FYG0wH.jpg","tourism":"artwork","img_thumbnail":"node_9673870303_0.jpg"}},{"type":"node","id":9692578176,"lat":50.8850307,"lon":4.318411,"tags":{"artist_name":"Soaz","artwork_type":"mural","tourism":"artwork"}},{"type":"node","id":9707705000,"lat":50.8498203,"lon":4.3509454,"tags":{"artist_name":"Fred Penelle;Yannick Jacquet","artwork_type":"mural","name":"Mécaniques Discursives","tourism":"artwork"}},{"type":"node","id":9707981460,"lat":50.7450711,"lon":4.2298265,"tags":{"artist_name":"Monja (Viva Pintura)","artwork_type":"mural","tourism":"artwork","website":"https://www.halle.be/nieuwsberichten/rouwruimte-voor-kinderen-en-jongeren-op-halse-begraafplaats"}},{"type":"node","id":9707997742,"lat":50.7328298,"lon":4.2372248,"tags":{"artist_name":"TUZQ","artwork_type":"mural","tourism":"artwork"}},{"type":"node","id":9709618558,"lat":50.7356502,"lon":4.2345466,"tags":{"artist_name":"Bart Smeets, Steve Locatelli","artwork_type":"mural","tourism":"artwork","website":"https://www.parcum.be/nl/herbestemming-kerken/paterskerk"}},{"type":"node","id":9709919923,"lat":50.7347273,"lon":4.2396372,"tags":{"artist_name":"TUZQ","artwork_type":"mural","tourism":"artwork"}},{"type":"node","id":9719974899,"lat":50.7905194,"lon":4.4220802,"tags":{"artwork_type":"mural","image":"https://i.imgur.com/xjvNGWo.jpg","tourism":"artwork","img_thumbnail":"node_9719974899_0.jpg"}},{"type":"node","id":9721219732,"lat":50.8819681,"lon":4.3441613,"tags":{"artist_name":"Christian Darasse;Zidrou","artwork_type":"mural","name":"Tamara","start_date":"2019","tourism":"artwork","website":"https://www.parcoursbd.brussels/fresques/tamara/"}},{"type":"node","id":9725065473,"lat":50.7414471,"lon":4.3324159,"tags":{"artwork_type":"mural","tourism":"artwork"}},{"type":"node","id":9725088509,"lat":50.7418818,"lon":4.3333807,"tags":{"artwork_type":"mural","tourism":"artwork"}},{"type":"node","id":9725161638,"lat":50.7361477,"lon":4.2396702,"tags":{"artist_name":"Gijs Vanhee","artwork_type":"mural","tourism":"artwork"}},{"type":"node","id":9749905074,"lat":50.8611989,"lon":4.3420543,"tags":{"artist_name":"Orlando Kintero","artwork_type":"mural","tourism":"artwork"}},{"type":"node","id":9808344781,"lat":50.4658339,"lon":4.8536765,"tags":{"artist_name":"Samuel Idmtal","artwork_type":"mural","name":"Pierre Dandoy","note":"https://www.namur.be/fr/actualite/fresque-hommage-pierre-dandoy","start_date":"2022","tourism":"artwork"}},{"type":"node","id":9812183420,"lat":50.4380711,"lon":4.0075369,"tags":{"artist_name":"Wuper Kec","artwork_type":"mural","tourism":"artwork"}},{"type":"node","id":9854030691,"lat":50.4906099,"lon":4.0178034,"tags":{"artist_name":"Francisco Diaz Scotto (alias Pastel)","artwork_type":"mural","start_date":"2022-06","tourism":"artwork"}},{"type":"node","id":9863812928,"lat":50.8772465,"lon":4.3546517,"tags":{"artist_name":"Léonie Bischoff","artwork_type":"mural","name":"La Cabane - De Boomhut","name:fr":"La Cabane","name:nl":"De Boomhut","start_date":"2022","tourism":"artwork","website":"https://www.parcoursbd.brussels/fresques/la-cabane/"}},{"type":"node","id":9885776733,"lat":50.8540412,"lon":4.3388355,"tags":{"artwork_type":"mural","image":"https://i.imgur.com/9ETQkSq.jpg","tourism":"artwork","img_thumbnail":"node_9885776733_0.jpg"}},{"type":"node","id":9885776734,"lat":50.8525364,"lon":4.3367176,"tags":{"artist_name":"Yvette","artwork_type":"mural","tourism":"artwork"}},{"type":"node","id":9886939464,"lat":50.4701552,"lon":4.8622366,"tags":{"artwork_type":"mural","tourism":"artwork"}},{"type":"node","id":9893822785,"lat":50.877469,"lon":4.3358784,"tags":{"artist_name":"Nova Dead","artwork_type":"mural","name":"La femme et le papillon","tourism":"artwork","website":"https://www.novadead.com/jette-brussels"}},{"type":"node","id":9894876452,"lat":50.8773908,"lon":4.3357636,"tags":{"artist_name":"Nova Dead","artwork_type":"mural","name":"Le Chat dans la New Era","tourism":"artwork","website":"https://www.novadead.com/jette-brussels"}},{"type":"node","id":9902062637,"lat":51.8135134,"lon":4.6628809,"tags":{"artist_name":"Iconoclash","artwork_type":"mural","image":"https://i.imgur.com/6yvvojh.jpg","tourism":"artwork","img_thumbnail":"node_9902062637_0.jpg"}},{"type":"node","id":9902098520,"lat":51.8123377,"lon":4.668645,"tags":{"artwork_type":"mural","image":"https://i.imgur.com/ymE5CXg.jpg","tourism":"artwork","img_thumbnail":"node_9902098520_0.jpg"}},{"type":"node","id":9924423775,"lat":51.5991902,"lon":4.7684852,"tags":{"artwork_type":"mural","image":"https://photos.app.goo.gl/SC7Jwvb7KpZAiiNP6","tourism":"artwork","img_thumbnail":"node_9924423775_0.jpg"}},{"type":"node","id":9930426205,"lat":51.2118772,"lon":4.399546,"tags":{"artwork_type":"mural","image":"https://photos.app.goo.gl/YCSsnYNk17mMWRxJ6","tourism":"artwork","img_thumbnail":"node_9930426205_0.jpg"}},{"type":"node","id":9941167731,"lat":50.7804299,"lon":5.4649437,"tags":{"artwork_type":"mural","image":"https://i.imgur.com/mU5QX0Y.jpeg","tourism":"artwork","img_thumbnail":"node_9941167731_0.jpg"}},{"type":"node","id":9941735785,"lat":50.7827951,"lon":5.4704453,"tags":{"artist:wikidata":"Q61582499","artist_name":"Adéle Renault","artwork_type":"mural","image":"https://i.imgur.com/GeGCTSC.jpg","start_date":"2019-07","tourism":"artwork","img_thumbnail":"node_9941735785_0.jpg"}},{"type":"node","id":9943621842,"lat":51.0251728,"lon":4.4763105,"tags":{"artwork_type":"mural","image":"https://photos.app.goo.gl/zD5xdwRd8edPxDTW8","tourism":"artwork","img_thumbnail":"node_9943621842_0.jpg"}},{"type":"node","id":9943621843,"lat":51.0239077,"lon":4.4755361,"tags":{"artwork_type":"mural","image":"https://photos.app.goo.gl/daC8bPZTFnZ1JatV7","tourism":"artwork","img_thumbnail":"node_9943621843_0.jpg"}},{"type":"node","id":9943621845,"lat":51.0233878,"lon":4.4773272,"tags":{"artwork_type":"mural","image":"https://photos.app.goo.gl/GP8K5r8fSgfyUn1m6","tourism":"artwork","img_thumbnail":"node_9943621845_0.jpg"}},{"type":"node","id":9948200609,"lat":50.9290752,"lon":5.3405126,"tags":{"artwork_type":"mural","image":"https://photos.app.goo.gl/MkMbQTNEmvDFc4geA","tourism":"artwork","img_thumbnail":"node_9948200609_0.jpg"}},{"type":"node","id":9949524652,"lat":51.2464152,"lon":4.4507013,"tags":{"artwork_type":"mural","image":"https://photos.app.goo.gl/YFu8hkaV7t7nGCVs6","tourism":"artwork","img_thumbnail":"node_9949524652_0.jpg"}},{"type":"node","id":9951185915,"lat":51.8444016,"lon":5.8599619,"tags":{"artwork_type":"mural","image":"https://photos.app.goo.gl/8c3gwj7RbStKC7cx8","tourism":"artwork","img_thumbnail":"node_9951185915_0.jpg"}},{"type":"node","id":9951613034,"lat":51.8383713,"lon":5.8555679,"tags":{"artwork_type":"mural","image":"https://photos.app.goo.gl/UfQDuyYMMJ3pfUcN7","tourism":"artwork","img_thumbnail":"node_9951613034_0.jpg"}},{"type":"node","id":9951613035,"lat":51.8345664,"lon":5.8636997,"tags":{"artwork_type":"mural","image":"https://photos.app.goo.gl/Wvi6BjmMjyx5Sxdt5","tourism":"artwork","img_thumbnail":"node_9951613035_0.jpg"}},{"type":"node","id":9951613060,"lat":51.8463842,"lon":5.8692552,"tags":{"artwork_type":"mural","image":"https://photos.app.goo.gl/kvKiKQBWLrkXgxi27","tourism":"artwork","img_thumbnail":"node_9951613060_0.jpg"}},{"type":"node","id":9951684327,"lat":51.8486109,"lon":5.8688475,"tags":{"artwork_type":"mural","image":"https://photos.app.goo.gl/jmjoK2mKFyxFa6d37","tourism":"artwork","img_thumbnail":"node_9951684327_0.jpg"}},{"type":"node","id":9957681353,"lat":50.459957,"lon":4.8707974,"tags":{"artwork_type":"mural","image":"https://photos.app.goo.gl/pG8mZcpoETc3Mr7s8","tourism":"artwork","img_thumbnail":"node_9957681353_0.jpg"}},{"type":"node","id":9981286533,"lat":50.8426829,"lon":4.3507989,"tags":{"access":"customers","artist:wikidata":"Q80308820","artist_name":"Studio Max!","artwork_type":"mural","name":"Stam & Pilou","start_date":"2011","subject:wikidata":"Q13571597","tourism":"artwork","wikidata":"Q119362070"}},{"type":"node","id":9991489491,"lat":50.4384109,"lon":4.0077884,"tags":{"artist_name":"Soaz","artwork_type":"mural","tourism":"artwork"}},{"type":"node","id":9998489409,"lat":50.4744593,"lon":4.0086865,"tags":{"artist_name":"Lena Cruz","artwork_type":"mural","tourism":"artwork"}},{"type":"node","id":10026655442,"lat":50.8361486,"lon":4.351164,"tags":{"artist_name":"Roger Somville, Louis Deltour, Edmond Dubrunfaut","artwork_type":"mural","indoor":"yes","level":"1","name":"Prolétaires de tous les pays, unissez-vous - Proletariërs aller landen, verenigt u","name:fr":"Prolétaires de tous les pays, unissez-vous","name:nl":"Proletariërs aller landen, verenigt u","start_date":"1947","tourism":"artwork"}},{"type":"node","id":10049744642,"lat":50.4612415,"lon":4.0462451,"tags":{"artist_name":"Samuel Idmtal","artwork_type":"mural","subject:wikidata":"Q276480","tourism":"artwork"}},{"type":"node","id":10050363313,"lat":50.8761967,"lon":4.7031205,"tags":{"artist:wikidata":"Q16508892","artist_name":"Case Maclaim","artwork_type":"mural","historic":"memorial","name":"Sanda Dia","subject":"Sanda Dia","subject:wikidata":"Q117104220","tourism":"artwork","wikimedia_commons":"File:Muurschildering_Sanda_Dia_Leuven_2023.jpg"}},{"type":"node","id":10074591784,"lat":50.865857,"lon":4.359827,"tags":{"artist_name":"Katrien De Blauwer","artwork_type":"mural","mapillary":"1020218528697381","tourism":"artwork"}},{"type":"node","id":10083255464,"lat":50.4918922,"lon":4.0166477,"tags":{"artist_name":"Alessandra Carloni","artwork_type":"mural","tourism":"artwork"}},{"type":"node","id":10124700913,"lat":50.572505,"lon":4.1740316,"tags":{"artist_name":"DULK","artwork_type":"mural","name":"Fresque Odenat Bouton","tourism":"artwork"}},{"type":"node","id":10182677373,"lat":50.8361143,"lon":4.3550439,"tags":{"artist_name":"Edmond Dubrunfaut","artwork_type":"mural","level":"-1","name":"La terre en fleur","tourism":"artwork"}},{"type":"node","id":10186170214,"lat":50.8820845,"lon":4.3219858,"tags":{"artwork_type":"mural","tourism":"artwork"}},{"type":"node","id":10200424479,"lat":50.8551973,"lon":4.3719695,"tags":{"artist_name":"Ever Meulen","artwork_type":"mural","image":"https://i.imgur.com/cXHoe2U.jpg","name":"Saint-Josse-sur-Mer","start_date":"2000","tourism":"artwork","img_thumbnail":"node_10200424479_0.jpg"}},{"type":"node","id":10209261856,"lat":50.8256956,"lon":4.5130406,"tags":{"artwork_type":"mural","crossing":"marked","crossing:island":"no","crossing:markings":"zebra","crossing:markings:colour":"white","crossing:signals":"no","highway":"crossing","surface:colour":"rainbow","tactile_paving":"no","tourism":"artwork"}},{"type":"node","id":10214641584,"lat":50.8936579,"lon":4.3858137,"tags":{"artist_name":"Aimée de Jongh","artwork_type":"mural","name":"Jours de Sable - Dagen van Zand","name:fr":"Jours de Sable","name:nl":"Dagen van Zand","start_date":"2022-10-23","tourism":"artwork","website":"https://www.parcoursbd.brussels/fresques/jours-de-sable/"}},{"type":"node","id":10243371223,"lat":50.6693461,"lon":4.6161086,"tags":{"artwork_type":"mural","tourism":"artwork"}},{"type":"node","id":10281345407,"lat":50.8701219,"lon":4.3427421,"tags":{"artist_name":"Peter Willems","artwork_type":"mural","name":"Parchis","start_date":"2016","tourism":"artwork","website":"https://www.parcoursbd.brussels/fresques/parchis/"}},{"type":"node","id":10281373736,"lat":50.8746678,"lon":4.3482781,"tags":{"artist:wikidata":"Q1395580","artist_name":"Jef Nys","artwork_type":"mural","name":"Jommeke","start_date":"2014","tourism":"artwork","website":"https://www.parcoursbd.brussels/fresques/jommeke/"}},{"type":"node","id":10292610253,"lat":50.4635636,"lon":5.0140934,"tags":{"artwork_type":"mural","tourism":"artwork"}},{"type":"node","id":10293958284,"lat":51.0277362,"lon":4.4790809,"tags":{"artwork_type":"mural","image":"https://photos.app.goo.gl/nkck38M3XbNYfpar5","tourism":"artwork","img_thumbnail":"node_10293958284_0.jpg"}},{"type":"node","id":10312951729,"lat":50.8505849,"lon":4.3805409,"tags":{"artwork_type":"mural","historic":"memorial","memorial":"mural","name":"Toots Thielemans","subject:wikidata":"Q365567","subject:wikipedia":"en:Toots Thielemans","tourism":"artwork"}},{"type":"node","id":10562009262,"lat":50.8504346,"lon":4.3351116,"tags":{"artwork_type":"mural","image":"https://i.imgur.com/czwpScL.jpg","tourism":"artwork","img_thumbnail":"node_10562009262_0.jpg"}},{"type":"node","id":10599574617,"lat":50.8795989,"lon":4.3474529,"tags":{"artist":"Émilie Plateau","artwork_type":"mural","name":"Vandergoten","start_date":"2022-10-27","tourism":"artwork","website":"https://www.parcoursbd.brussels/fresques/vandergoten/"}},{"type":"node","id":10603741495,"lat":51.5762849,"lon":5.1054016,"tags":{"artist_name":"Niels van Swaemen; Kaspar van Leek","artwork_type":"mural","name":"Trashure","operator":"Studio Giftig","tourism":"artwork","website":"https://studiogiftig.nl/"}},{"type":"node","id":10609132969,"lat":50.5956509,"lon":5.8518827,"tags":{"artist_name":"Natasa Konjevic (Bosnie-Herzégovine), José Carvalho (Portugal), Polina Stoyanova « Jo Iyaa » (Bulgarie)","artwork_type":"mural","name":"Dire Nous","source":"https://www.paysdevesdre.be/wp-content/uploads/woocommerce_uploads/2020/11/2020_Parcours-Fresques-et-Street-Art-ok-koq9yq.pdf","start_date":"2017","tourism":"artwork"}},{"type":"node","id":10609177153,"lat":50.5954034,"lon":5.8515841,"tags":{"artist_name":"Yassine Latrache","artwork_type":"mural","name":"Medi-Act 19","source":"https://www.paysdevesdre.be/wp-content/uploads/woocommerce_uploads/2020/11/2020_Parcours-Fresques-et-Street-Art-ok-koq9yq.pdf","start_date":"2020","tourism":"artwork"}},{"type":"node","id":10651619374,"lat":50.9596738,"lon":4.4582958,"tags":{"artist_name":"Smates","artwork_type":"mural","name":"Rubens","source":"https://www.ringtv.be/nieuws/zemst-verfraait-stationsbuurt-eppegem-met-kunstwerk-rond-rubens","start_date":"2022","tourism":"artwork"}},{"type":"node","id":10692756499,"lat":50.835721,"lon":4.3476771,"tags":{"artist_name":"Mishel Feldman;Nicol Feldman;Teresa Sdralevich","artwork_type":"mural","inscription":"Grow — Freedom","name":"Grow in Freedom","start_date":"2023-02-24","tourism":"artwork","website":"https://parcoursstreetart.brussels/oeuvres/sestry-feldman-teresa-sdralevich-rue-haute-290-1000-bruxelles/"}},{"type":"node","id":10695540473,"lat":50.4801809,"lon":4.0101631,"tags":{"artist_name":"Godmess","artwork_type":"mural","tourism":"artwork"}},{"type":"node","id":10743926691,"lat":50.8771486,"lon":4.3465978,"tags":{"artist_name":"Elodie Shanta","artwork_type":"mural","name":"Après-midi place Bockstael - ’s Namiddags aan het Bockstaelplein","name:fr":"Après-midi place Bockstael","name:nl":"’s Namiddags aan het Bockstaelplein","tourism":"artwork","website":"https://www.parcoursbd.brussels/fresques/apres-midi-place-bockstael/"}},{"type":"node","id":10771646295,"lat":50.8975889,"lon":4.3880131,"tags":{"artist_name":"Wall Street colors","artwork_type":"mural","name":"L’Eglanteam","tourism":"artwork","website":"https://parcoursstreetart.brussels/oeuvres/wall-street-colors-rue-saints-pierre-et-paul-15-1120-bruxelles-neder-over-heembeek/"}},{"type":"node","id":10776233876,"lat":50.8320503,"lon":4.3407593,"tags":{"artist_name":"Farm Prod","artwork_type":"mural","name":"11.11.11","source":"https://www.cncd.be/Inauguration-d-une-fresque-11-11-7350?lang=fr","start_date":"2021","tourism":"artwork"}},{"type":"node","id":10784671874,"lat":50.8173764,"lon":4.3420209,"tags":{"artist_name":"Samuel Idmtal;Orlando Kintero","artwork_type":"mural","start_date":"2016","tourism":"artwork"}},{"type":"node","id":10784671875,"lat":50.8175312,"lon":4.3414006,"tags":{"artist_name":"Samuel Idmtal;Orlando Kintero","artwork_type":"mural","start_date":"2016","tourism":"artwork"}},{"type":"node","id":10805268335,"lat":51.5533793,"lon":5.0792318,"tags":{"artwork_type":"mural","name":"Vincent van Gogh","tourism":"artwork","url":"https://standbeelden.vanderkrogt.net/object.php?record=NB57ad"}},{"type":"node","id":10816115914,"lat":51.563143,"lon":5.0794627,"tags":{"artist_name":"JanIsDeMan","artwork_type":"mural","name":"Boekenkast Tilburg","tourism":"artwork","website":"https://janisdeman.com/portfolio/boekenkast-tilburg/"}},{"type":"node","id":10860010102,"lat":50.8532118,"lon":4.3686701,"tags":{"artist_name":"No More Lies","artwork_type":"mural","description":"Street art by artist group Balkan Trafik showing many different type of flowers as a symbol of Brussels diversity, one of the flowers being a yellow iris","image":"https://i.imgur.com/TAsabgN.jpeg","name":"Flora Balcanica","start_date":"2023-04","tourism":"artwork","img_thumbnail":"node_10860010102_0.jpg"}},{"type":"node","id":10860032333,"lat":50.8362433,"lon":4.3425121,"tags":{"artist_name":"Fitore Alísdóttir","artwork_type":"mural","description":"Street art by artist group Balkan Trafik showing a female face with long hair on a yellow background","name":"Haunted","start_date":"2023-04","tourism":"artwork","website":"https://parcoursstreetart.brussels/oeuvres/fitore-alisdottir-berisha-rue-des-fleuristes-59-1000-bruxelles/"}},{"type":"node","id":10886201661,"lat":51.986493,"lon":5.9165589,"tags":{"artist_name":"Arno Arts","artwork_type":"mural","name":"Corso Cinema","tourism":"artwork","year":"2011"}},{"type":"node","id":10893316340,"lat":50.9244416,"lon":4.6924839,"tags":{"artwork_type":"mural","image":"https://i.imgur.com/k32RzHA.jpg","tourism":"artwork","img_thumbnail":"node_10893316340_0.jpg"}},{"type":"node","id":10905948887,"lat":51.1606234,"lon":4.9863721,"tags":{"artist:wikidata":"Q118444451","artist_name":"SMOK","artwork_type":"mural","name":"De Kolibrie","tourism":"artwork"}},{"type":"node","id":10905975186,"lat":51.1531017,"lon":4.9822453,"tags":{"artist:wikidata":"Q118444367","artist_name":"Gijs Vanhee","artwork_type":"mural","image":"https://i.imgur.com/K4myveU.jpg","name":"Jona en de walvis","tourism":"artwork","img_thumbnail":"node_10905975186_0.jpg"}},{"type":"node","id":10913982593,"lat":51.5924962,"lon":4.8252958,"tags":{"artwork_type":"mural","image":"https://photos.app.goo.gl/UNouxsRRE5EjhreT9","tourism":"artwork","img_thumbnail":"node_10913982593_0.jpg"}},{"type":"node","id":10926842240,"lat":50.84792,"lon":4.3223233,"tags":{"artwork_type":"mural","name":"Gevriye Cavas","tourism":"artwork"}},{"type":"node","id":10978211673,"lat":50.8352342,"lon":4.3455238,"tags":{"artist_name":"Guillaume Desmarets;Amandine Levy","artwork_type":"mural","name":"Nu praat ik erover","start_date":"2023-06-14","tourism":"artwork"}},{"type":"node","id":10982304071,"lat":51.1614838,"lon":4.1414215,"tags":{"artist_name":"Dzia","artwork_type":"mural","image":"https://i.imgur.com/84k9jUF.jpg","tourism":"artwork","website":"https://www.ontdeksintniklaas.be/nl/node/1422","img_thumbnail":"node_10982304071_0.jpg"}},{"type":"node","id":10983335946,"lat":50.8337659,"lon":4.3800869,"tags":{"artwork_type":"mural","tourism":"artwork"}},{"type":"node","id":10994277635,"lat":50.8930739,"lon":4.3759852,"tags":{"artist:wikidata":"Q99498490","artist_name":"Maurane Mazars","artwork_type":"mural","name":"L'Arbre - De Boom","name:fr":"L'Arbre","name:nl":"De Boom","start_date":"2023-06-21","tourism":"artwork","website":"https://www.parcoursbd.brussels/fresques/larbre/"}},{"type":"node","id":10995566970,"lat":50.8558759,"lon":4.3530726,"tags":{"artist_name":"Dominique Goblet","artwork_type":"mural","name":"Le grand loup qui porte le mouton - De grote wolf die het schaap draagt","name:fr":"Le grand loup qui porte le mouton","name:nl":"De grote wolf die het schaap draagt","tourism":"artwork","website":"https://www.parcoursbd.brussels/fresques/le-grand-loup-qui-porte-le-mouton/"}},{"type":"node","id":10996769738,"lat":50.8924405,"lon":4.419934,"tags":{"artist_name":"Pierre Bailly;Céline Fraipont","artwork_type":"mural","name":"Petit Poilu - Stoppeltje","name:fr":"Petit Poilu","name:nl":"Stoppeltje","tourism":"artwork","website":"https://www.parcoursbd.brussels/fresques/petit-poilu/"}},{"type":"node","id":10996776723,"lat":50.8486688,"lon":4.3451571,"tags":{"artist_name":"Lucy McKenzie","artwork_type":"mural","name":"In my area","tourism":"artwork","website":"https://www.parcoursbd.brussels/fresques/in-my-area/"}},{"type":"node","id":10996791330,"lat":50.8503379,"lon":4.3415379,"tags":{"artist_name":"Brecht Evens","artwork_type":"mural","name":"Jardin aux fleurs - Bloemenhof","name:fr":"Jardin aux fleurs","name:nl":"Bloemenhof","tourism":"artwork","website":"https://www.parcoursbd.brussels/fresques/jardin-aux-fleurs/"}},{"type":"node","id":10997331923,"lat":50.840392,"lon":4.350279,"tags":{"artist_name":"Hergé","artwork_type":"mural","name":"Quick et Flupke - Kwik & Flupke","name:fr":"Quick et Flupke","name:nl":"Kwik & Flupke","tourism":"artwork","website":"https://www.parcoursbd.brussels/fresques/quick-et-flupke/"}},{"type":"node","id":11001418259,"lat":50.8914524,"lon":4.3426174,"tags":{"artist_name":"Selor","artwork_type":"mural","name":"Chemin de vie, le parcours de la naissance à la mort","tourism":"artwork","website":"https://parcoursstreetart.brussels/oeuvres/selor/"}},{"type":"node","id":11006129336,"lat":50.8530106,"lon":4.3451869,"tags":{"artist_name":"Zouwi","artwork_type":"mural","name":"La Belle Hip Hop","tourism":"artwork","website":"https://parcoursstreetart.brussels/oeuvres/zouwi-rue-dophem-1000-bruxelles/"}},{"type":"node","id":11013788588,"lat":50.8534004,"lon":4.3585213,"tags":{"artist:wikidata":"Q113412581","artist_name":"Mona Tusz","artwork_type":"mural","image":"https://i.imgur.com/ouLzmvQ.jpg","inscription:en":"Marie - boundless, timeless, matchless","inscription:fr":"Marie - hors champs, hors temps, hors du commun","inscription:nl":"Marie - grenzeloos, tijdloos, weergaloos","name":"Marie","subject:wikidata":"Q7186","tourism":"artwork","website":"https://parcoursstreetart.brussels/oeuvres/mona-tusz-rue-de-la-blanchisserie-29-1000-bruxelles/","img_thumbnail":"node_11013788588_0.jpg"}},{"type":"node","id":11016477674,"lat":50.8832723,"lon":4.3346229,"tags":{"artist_name":"DACO","artwork_type":"mural","name":"S'élever","tourism":"artwork","website":"http://daco-art.com/index.php/portfolio-items/jette-belgique/?portfolioCats=37"}},{"type":"node","id":11016508045,"lat":50.8796604,"lon":4.3278375,"tags":{"artist_name":"KUNLO","artwork_type":"mural","tourism":"artwork"}},{"type":"node","id":11016508050,"lat":50.8701851,"lon":4.331379,"tags":{"artist_name":"Amandine Lesay","artwork_type":"mural","tourism":"artwork"}},{"type":"node","id":11016596297,"lat":50.8773383,"lon":4.3231484,"tags":{"artist:wikidata":"Q62005831","artist:wikipedia":"fr:Kool Koor","artist_name":"Kool Koor","artwork_type":"mural","tourism":"artwork"}},{"type":"node","id":11016617341,"lat":50.8763035,"lon":4.324366,"tags":{"artist_name":"ALVARI","artwork_type":"mural","tourism":"artwork"}},{"type":"node","id":11016659274,"lat":50.8821596,"lon":4.3219443,"tags":{"artist_name":"Shoof","artwork_type":"mural","tourism":"artwork"}},{"type":"node","id":11019830971,"lat":50.8795951,"lon":4.3279221,"tags":{"artist_name":"Shamisa Debroey","artwork_type":"mural","tourism":"artwork"}},{"type":"node","id":11033867524,"lat":51.2015481,"lon":4.9822245,"tags":{"artwork_type":"mural","description":"muurschildering onder de brug","layer":"-1","mapillary":"https://www.mapillary.com/embed?map_style=OpenStreetMap&image_key=1658513771284957&x=0.23374421260697278&y=0.502031299714908&style=photo","name":"Kleine Parade","start_date":"2021","tourism":"artwork"}},{"type":"node","id":11044188131,"lat":50.8702394,"lon":4.3519777,"tags":{"artist_name":"Samuel Idmtal;Orlando Kintero","artwork_type":"mural","name":"Israël-Palestine: pour mieux comprendre - Israël-Palestina: beter begrijpen","name:fr":"Israël-Palestine: pour mieux comprendre","name:nl":"Israël-Palestina: beter begrijpen","tourism":"artwork","website":"https://parcoursstreetart.brussels/oeuvres/samuel-idmtal-orlando-kintero-rue-claessens-10-1020-bruxelles-laeken/"}},{"type":"node","id":11044233255,"lat":50.8740098,"lon":4.3530312,"tags":{"artist_name":"Kashink","artwork_type":"mural","name":"Strokar","tourism":"artwork","website":"https://parcoursstreetart.brussels/oeuvres/kashink-rue-de-la-comtesse-de-flandre-4-1020-bruxelles-laeken/"}},{"type":"node","id":11044251281,"lat":50.8539357,"lon":4.3479457,"tags":{"artist_name":"ENCQ","artwork_type":"mural","name":"Greta Thunberg","subject:wikidata":"Q56434717","tourism":"artwork","website":"https://parcoursstreetart.brussels/oeuvres/encq-cite-du-sureau-20-1000-bruxelles/"}},{"type":"node","id":11047465918,"lat":50.880771,"lon":4.3724557,"tags":{"artist_name":"Lucile van Laecken","artwork_type":"mural","name":"Un Voyage d’Antan","tourism":"artwork","website":"https://parcoursstreetart.brussels/oeuvres/lucile-van-laecken-chaussee-de-vilvorde-5c-1020-bruxelles-laeken"}},{"type":"node","id":11061239266,"lat":51.1308631,"lon":5.0860846,"tags":{"artwork_type":"mural","tourism":"artwork"}},{"type":"node","id":11085939051,"lat":50.828083,"lon":4.3478392,"tags":{"artwork_type":"mural","image":"https://i.imgur.com/DYbQ2li.jpg","tourism":"artwork","img_thumbnail":"node_11085939051_0.jpg"}},{"type":"node","id":11086112801,"lat":50.8948739,"lon":4.3906915,"tags":{"artist_name":"Aurélie Neyret","artwork_type":"mural","name":"Les Carnets de Cerise - Het Dagboek van Cerise","name:fr":"Les Carnets de Cerise","name:nl":"Het Dagboek van Cerise","tourism":"artwork","website":"https://www.parcoursbd.brussels/fresques/les-carnets-de-cerise/"}},{"type":"node","id":11086467147,"lat":50.8394919,"lon":4.3445011,"tags":{"artist_name":"Jana","artwork_type":"mural","name":"Up!","tourism":"artwork","website":"https://parcoursstreetart.brussels/oeuvres/jana-rue-vanderhaegen-1000-bruxelles/"}},{"type":"node","id":11086491096,"lat":50.8466413,"lon":4.3440581,"tags":{"artist_name":"Madame La Belge","artwork_type":"mural","name":"Les femmes","tourism":"artwork","website":"https://parcoursstreetart.brussels/oeuvres/madame-la-belge-rue-van-artevelde-112-1000-bruxelles/"}},{"type":"node","id":11086693078,"lat":50.8378187,"lon":4.3457182,"tags":{"artist_name":"Arno 2bal","artwork_type":"mural","name":"Pieter Bruegel l’ancien - Pieter Bruegel de Oude","name:fr":"Pieter Bruegel l’ancien","name:nl":"Pieter Bruegel de Oude","tourism":"artwork","website":"https://parcoursstreetart.brussels/oeuvres/arno-2bal-rue-du-chevreuil-14-16-1000-bruxelles/"}},{"type":"node","id":11086693162,"lat":50.8386062,"lon":4.3459091,"tags":{"artist_name":"Piotr Szlachta","artwork_type":"mural","name":"Fuite en Egypte - De vlucht naar Egypte","name:fr":"Fuite en Egypte","name:nl":"De vlucht naar Egypte","tourism":"artwork","website":"https://parcoursstreetart.brussels/oeuvres/piotr-szlachta-rue-des-capucins-44-1000-bruxelles/"}},{"type":"node","id":11086726443,"lat":50.8523462,"lon":4.3614219,"tags":{"artist_name":"Bruce Clarke","artwork_type":"mural","name":"Les Hommes Debout","tourism":"artwork","website":"https://parcoursstreetart.brussels/oeuvres/bruce-clarke-rue-de-lommegang-1000-bruxelles/"}},{"type":"node","id":11086732154,"lat":50.8207703,"lon":4.3694105,"tags":{"artist_name":"Lula Goce","artwork_type":"mural","name":"Ecosystem Restoration","tourism":"artwork","website":"https://parcoursstreetart.brussels/oeuvres/lula-goce-avenue-louise-375-1000-bruxelles/"}},{"type":"node","id":11086741464,"lat":50.8543721,"lon":4.3455846,"tags":{"artist_name":"Dark Perimeter","artwork_type":"mural","name":"Basic Primary Shapes","tourism":"artwork","website":"https://parcoursstreetart.brussels/oeuvres/elian_dark-perimeter-basic-primary-shapes/"}},{"type":"node","id":11086774434,"lat":50.8395906,"lon":4.3605776,"tags":{"artist_name":"PROPAGANZA","artwork_type":"mural","tourism":"artwork","website":"https://parcoursstreetart.brussels/oeuvres/orkez/"}},{"type":"node","id":11086806541,"lat":50.8533157,"lon":4.3519277,"tags":{"artwork_type":"mural","name":"Durable","tourism":"artwork","website":"https://parcoursstreetart.brussels/oeuvres/himed-y-reyben_durable/"}},{"type":"node","id":11088949857,"lat":50.8521267,"lon":4.3483282,"tags":{"artist_name":"Ledia Kostandini","artwork_type":"mural","name":"Wink","tourism":"artwork","website":"https://parcoursstreetart.brussels/oeuvres/ledia-kostandini-quai-au-bois-a-bruler-29-1000-bruxelles/"}},{"type":"node","id":11088985855,"lat":50.8358269,"lon":4.3473429,"tags":{"artist_name":"Guillaume Desmarets","artwork_type":"mural","name":"Chasseurs dans la neige - Jagers in de sneeuw","name:fr":"Chasseurs dans la neige","name:nl":"Jagers in de sneeuw","tourism":"artwork","website":"https://parcoursstreetart.brussels/oeuvres/guillaume-desmarets-rue-de-la-rasiere-32-1000-bruxelles/"}},{"type":"node","id":11089013706,"lat":50.8370144,"lon":4.3473324,"tags":{"artist_name":"Kim Demane","artwork_type":"mural","name":"La tour de Babel - De Toren van Babel","name:fr":"La tour de Babel","name:nl":"De Toren van Babel","tourism":"artwork","website":"https://parcoursstreetart.brussels/oeuvres/kim-demane-rue-des-renards-1f-1000-bruxelles/"}},{"type":"node","id":11089018810,"lat":50.8379957,"lon":4.3474749,"tags":{"artwork_type":"mural","name":"L’âne à l’école - De ezel op school","name:fr":"L’âne à l’école","name:nl":"De ezel op school","tourism":"artwork","website":"https://parcoursstreetart.brussels/oeuvres/alexis-corrand-rue-blaes-135-1000-bruxelles/"}},{"type":"node","id":11089028432,"lat":50.8368385,"lon":4.34823,"tags":{"artist_name":"Farm Prod","artwork_type":"mural","name":"La parabole du bon berger - De parabel van de goede herder","name:fr":"La parabole du bon berger","name:nl":"De parabel van de goede herder","tourism":"artwork","website":"https://parcoursstreetart.brussels/oeuvres/farm-prod-rue-des-renards-38-40-1000-bruxelles/"}},{"type":"node","id":11089257470,"lat":50.8463483,"lon":4.3465992,"tags":{"artist_name":"Mr Doodle","artwork_type":"mural","name":"Doodling","tourism":"artwork","website":"https://parcoursstreetart.brussels/oeuvres/mr-doodle-rue-de-la-grande-ile-10-1000-bruxelles/"}},{"type":"node","id":11089281210,"lat":50.847652,"lon":4.3873314,"tags":{"artist_name":"Oli-B","artwork_type":"mural","name":"The first date","tourism":"artwork","website":"https://parcoursstreetart.brussels/oeuvres/oli-b_the-first-date/"}},{"type":"node","id":11098077631,"lat":50.4049346,"lon":4.0181709,"tags":{"artwork_type":"mural","tourism":"artwork"}},{"type":"node","id":11098077637,"lat":50.4035519,"lon":4.0185316,"tags":{"artist_name":"Farid Rueda","artwork_type":"mural","image":"https://pixelfed.de/storage/m/_v2/615797448648714432/bf4779419-8cf74f/uBFaCI4FLv1O/TpbUIQI8emLgoTYE7Ew4tEL08SjJNKPp0HgBpNBh.jpg","name":"The Guardian","source":"https://mastodon.online/@AmiW/111418347046771871","tourism":"artwork","img_thumbnail":"node_11098077637_0.jpg"}},{"type":"node","id":11107954222,"lat":50.4636215,"lon":4.9145741,"tags":{"artist_name":"Sam Billen","artwork_type":"mural","name":"Au-delà des nuages","tourism":"artwork"}},{"type":"node","id":11107954223,"lat":50.4655775,"lon":4.8718121,"tags":{"artist_name":"Mehsos","artwork_type":"mural","name":"Confluence - Cécile de France","tourism":"artwork"}},{"type":"node","id":11109067507,"lat":51.1553619,"lon":5.0038482,"tags":{"artwork_type":"mural","mapillary":"749825230283798","name":"Meester Sels","tourism":"artwork"}},{"type":"node","id":11117372997,"lat":50.8557263,"lon":4.3516723,"tags":{"artist:wikidata":"Q62005831","artist:wikipedia":"fr:Kool Koor","artist_name":"Kool Koor","artwork_type":"mural","tourism":"artwork","website":"https://parcoursstreetart.brussels/oeuvres/kool-koor-quai-au-foin-17-1000-bruxelles/"}},{"type":"node","id":11117421330,"lat":50.851882,"lon":4.3476197,"tags":{"artist_name":"OAKOAK;Joachim","artwork_type":"mural","tourism":"artwork","website":"https://parcoursstreetart.brussels/oeuvres/150_oakoak_joachim/"}},{"type":"node","id":11194625638,"lat":50.8768499,"lon":4.3585281,"tags":{"artist_name":"Danaé Brissonnet","artwork_type":"mural","location":"indoor","name":"Les Cœurs de Bois","tourism":"artwork","website":"https://parcoursstreetart.brussels/oeuvres/danae-brissonnet-rue-hubert-stiernet-4-1020-bruxelles-laeken/"}},{"type":"node","id":11202812799,"lat":50.8542854,"lon":4.3459264,"tags":{"artist_name":"Alba Fabre Sacristán","artwork_type":"mural","description:fr":"Image tirée du film \"Jeanne Dielman, 23, quai du commerce, 1080 Bruxelles\" de Chantal Akerman","image":"https://i.imgur.com/gXHiEZo.jpg","start_date":"2023","tourism":"artwork","website":"https://parcoursstreetart.brussels/oeuvres/alba-fabre-sacristan-sans-titre/","img_thumbnail":"node_11202812799_0.jpg"}},{"type":"node","id":11207133883,"lat":50.9075212,"lon":4.3899375,"tags":{"artist_name":"IOTA","artwork_type":"mural","name":"Near Light","tourism":"artwork","website":"https://parcoursstreetart.brussels/oeuvres/iota-near-light/"}},{"type":"node","id":11217595157,"lat":51.8994259,"lon":4.5172102,"tags":{"addr:city":"Rotterdam","addr:housenumber":"18-22","addr:street":"Koperslagerstraat","artist_name":"Tommy Hagen","artwork_type":"street_art","commissioned_by":"All Caps","material":"spray_paint","operator":"All Caps","start_date":"2023","tourism":"artwork","website":"https://all-caps.nl"}},{"type":"node","id":11217595158,"lat":51.8992753,"lon":4.5161006,"tags":{"addr:city":"Rotterdam","addr:housenumber":"103","addr:street":"Korte Stadionweg","artist_name":"Sophie Mess","artwork_type":"street_art","commissioned_by":"All Caps","material":"spray_paint","operator":"All Caps","start_date":"2023","tourism":"artwork","website":"https://all-caps.nl"}},{"type":"node","id":11217595159,"lat":51.8994672,"lon":4.5173369,"tags":{"addr:city":"Rotterdam","addr:housenumber":"18-22","addr:street":"Koperslagerstraat","artist_name":"George Rose","artwork_type":"street_art","commissioned_by":"All Caps","material":"spray_paint","operator":"All Caps","start_date":"2023","tourism":"artwork","website":"https://all-caps.nl"}},{"type":"node","id":11217595160,"lat":51.8991169,"lon":4.5163966,"tags":{"addr:city":"Rotterdam","addr:housenumber":"4","addr:street":"Koperslagerstraat","artist_name":"Jorge Charrua","artwork_type":"street_art","commissioned_by":"All Caps","material":"spray_paint","operator":"All Caps","start_date":"2023","tourism":"artwork","website":"https://all-caps.nl"}},{"type":"node","id":11217595161,"lat":51.9036769,"lon":4.5091317,"tags":{"addr:city":"Rotterdam","addr:housenumber":"12","addr:street":"Machiniststraat","artist_name":"Ten Hundred","artwork_type":"street_art","commissioned_by":"All Caps","material":"spray_paint","operator":"All Caps","start_date":"2022","tourism":"artwork","website":"https://all-caps.nl"}},{"type":"node","id":11217595162,"lat":51.8992586,"lon":4.5167758,"tags":{"addr:city":"Rotterdam","addr:housenumber":"10-12","addr:street":"Koperslagerstraat","artist_name":"R75 Ricardo Van Zwol","artwork_type":"street_art","commissioned_by":"All Caps","material":"spray_paint","operator":"All Caps","start_date":"2023","tourism":"artwork","website":"https://all-caps.nl"}},{"type":"node","id":11224589072,"lat":50.953916,"lon":5.5338857,"tags":{"artwork_type":"mural","tourism":"artwork"}},{"type":"node","id":11244777793,"lat":51.533486,"lon":4.4525833,"tags":{"artwork_type":"mural","image":"https://photos.app.goo.gl/gBD7f4e7KniQvJw78","tourism":"artwork","img_thumbnail":"node_11244777793_0.jpg"}},{"type":"node","id":11244777794,"lat":51.533648,"lon":4.4528058,"tags":{"artist_name":"Studio Onrust","artwork_type":"mural","image":"https://photos.app.goo.gl/DEuKytucUeCvi1VP7","tourism":"artwork","img_thumbnail":"node_11244777794_0.jpg"}},{"type":"node","id":11270541826,"lat":50.4791206,"lon":4.1853633,"tags":{"artist_name":"Samuel Idmtal","artwork_type":"mural","name":"Childhood's Bridge","start_date":"2021-10","tourism":"artwork"}},{"type":"node","id":11295254185,"lat":50.881757,"lon":4.6973989,"tags":{"artist_name":"Leon Keer","artwork_type":"mural","tourism":"artwork","wikimedia_commons":"File:Dieric Bouts Mural Leuven.jpg"}},{"type":"node","id":11297554730,"lat":50.8623959,"lon":5.8291003,"tags":{"artwork_type":"mural","image":"https://i.imgur.com/S7yvFXA.jpg","tourism":"artwork","img_thumbnail":"node_11297554730_0.jpg"}},{"type":"node","id":11297559489,"lat":50.862274,"lon":5.828709,"tags":{"artwork_type":"mural","image":"https://i.imgur.com/yXOFAHR.jpg","tourism":"artwork","img_thumbnail":"node_11297559489_0.jpg"}},{"type":"node","id":11309346002,"lat":50.4582882,"lon":4.8699902,"tags":{"artist_name":"Makemade & Burt Durand","artwork_type":"mural","name":"Fresque Lafayette Namur","tourism":"artwork","website":"https://www.fresque.namur-lafayette.org/"}},{"type":"node","id":11329763623,"lat":51.5788831,"lon":4.7361266,"tags":{"artwork_type":"mural","image":"https://photos.app.goo.gl/GpVhXimyziifJ5P76","tourism":"artwork","img_thumbnail":"node_11329763623_0.jpg"}},{"type":"node","id":11329763624,"lat":51.5789854,"lon":4.7363004,"tags":{"artwork_type":"mural","image":"https://photos.app.goo.gl/frAUyxvryUW1ExjN6","tourism":"artwork","img_thumbnail":"node_11329763624_0.jpg"}},{"type":"node","id":11329763683,"lat":51.5769474,"lon":4.7390947,"tags":{"artwork_type":"mural","image":"https://photos.app.goo.gl/uaEy1WveS88hoYJy9","tourism":"artwork","img_thumbnail":"node_11329763683_0.jpg"}},{"type":"node","id":11330630331,"lat":51.5844123,"lon":4.7517798,"tags":{"artist_name":"Telmo Miel","artwork_type":"mural","image":"https://photos.app.goo.gl/6aPczasQJHUBh5CZ8","start_date":"2020","tourism":"artwork","img_thumbnail":"node_11330630331_0.jpg"}},{"type":"node","id":11330677154,"lat":51.6076869,"lon":4.791912,"tags":{"artwork_type":"mural","image":"https://photos.app.goo.gl/Nu91iKcmc1JYhZzG6","tourism":"artwork","img_thumbnail":"node_11330677154_0.jpg"}},{"type":"node","id":11333720265,"lat":50.8953021,"lon":4.3571588,"tags":{"artwork_type":"mural","name":"De Wand","tourism":"artwork"}},{"type":"node","id":11334665424,"lat":50.8407065,"lon":4.3454955,"tags":{"artist_name":"Patrick Croes","artwork_type":"mural","tourism":"artwork","website":"https://parcoursstreetart.brussels/oeuvres/patrick-croes/"}},{"type":"node","id":11334665426,"lat":50.8410942,"lon":4.3472841,"tags":{"artist_name":"2Shy","artwork_type":"mural","tourism":"artwork","website":"https://parcoursstreetart.brussels/oeuvres/2shy_miles/"}},{"type":"node","id":11343728773,"lat":50.8585341,"lon":4.3391853,"tags":{"artwork_type":"mural","name":"Libris","tourism":"artwork"}},{"type":"node","id":11346406413,"lat":50.8728075,"lon":4.3535017,"tags":{"artist_name":"Anthea Missy","artwork_type":"mural","name":"Love bomb","tourism":"artwork"}},{"type":"node","id":11375251118,"lat":51.2136008,"lon":4.4503855,"tags":{"artist_name":"NEAN","artwork_type":"mural","image":"https://pixelfed.de/storage/m/_v2/615797448648714432/bf4779419-8cf74f/MeHKgIEOetfv/NLKkJwVYjWD9iAfkkI3wq6raM9ZQsnjntTTZNezW.jpg","name":"Panacea","source":"https://mastodon.online/@AmiW/111449732870932719","tourism":"artwork","img_thumbnail":"node_11375251118_0.jpg"}},{"type":"node","id":11380458146,"lat":50.8408523,"lon":4.3459316,"tags":{"artwork_type":"mural","description":"Travail à la bombe de peinture et à l’acrylique réalisé par 27 élèves de l’Académie Royale des Beaux Arts secondaire de 4e Q1 et encadré par l’artiste street art Amandine Lesay","name":"Pchhht_ARBA !","note":"Partly destroyed by fire but most of the artwork is still visible","start_date":"2022-05","tourism":"artwork","url":"https://parcoursstreetart.brussels/oeuvres/arba-secondaire-amandine-lesay-tunnel-van-der-weyden-1000-bruxelles/"}},{"type":"node","id":11382338162,"lat":50.8346995,"lon":4.3458501,"tags":{"artist:wikidata":"Q123575032","artist_name":"MEDIANERAS","artwork_type":"mural","name":"Diversity","start_date":"2023-11-28","subject:wikidata":"Q17435","subject:wikipedia":"en:Same-sex marriage in Belgium","tourism":"artwork","wikidata":"Q123575040"}},{"type":"node","id":11382630702,"lat":51.3217684,"lon":4.9545935,"tags":{"artist_name":"Dido Drachman","artwork_type":"mural","name":"Kind met inktvlekken nr.09","tourism":"artwork","website":"www.kindmetinktvlekken.be"}},{"type":"node","id":11382630704,"lat":51.3272031,"lon":4.9480823,"tags":{"artist_name":"Dido Drachman","artwork_type":"mural","name":"Kind met inktvlekken nr.07","tourism":"artwork","website":"www.kindmetinktvlekken.be"}},{"type":"node","id":11382630705,"lat":51.3324926,"lon":4.947386,"tags":{"artist_name":"Treepack","artwork_type":"mural","name":"Kind met inktvlekken nr.06","tourism":"artwork","website":"www.kindmetinktvlekken.be"}},{"type":"node","id":11382630706,"lat":51.3328123,"lon":4.9442491,"tags":{"artist_name":"Treepack","artwork_type":"mural","name":"Kind met inktvlekken nr.05","tourism":"artwork","website":"www.kindmetinktvlekken.be"}},{"type":"node","id":11382630707,"lat":51.3290416,"lon":4.9450276,"tags":{"artist_name":"Dido Drachman","artwork_type":"mural","name":"Kind met inktvlekken nr.04","tourism":"artwork","website":"www.kindmetinktvlekken.be"}},{"type":"node","id":11382630709,"lat":51.3235263,"lon":4.9476647,"tags":{"artist_name":"Dido Drachman","artwork_type":"mural","name":"Kind met inktvlekken nr.03","tourism":"artwork","website":"www.kindmetinktvlekken.be"}},{"type":"node","id":11382630710,"lat":51.321324,"lon":4.947093,"tags":{"artist_name":"Dido Drachman","artwork_type":"mural","name":"Kind met inktvlekken nr.02","tourism":"artwork","website":"www.kindmetinktvlekken.be"}},{"type":"node","id":11382630711,"lat":51.3208917,"lon":4.9507174,"tags":{"artist_name":"Dido Drachman","artwork_type":"mural","name":"Kind met inktvlekken nr.01","tourism":"artwork","website":"www.kindmetinktvlekken.be"}},{"type":"node","id":11389640377,"lat":50.8458532,"lon":5.6861238,"tags":{"artist_name":"Roland Topor","artwork_type":"mural","name":"Muurschildering Rechten van de Mens","tourism":"artwork"}},{"type":"node","id":11399845684,"lat":50.8319389,"lon":4.3380875,"tags":{"artist_name":"Farm Prod","artwork_type":"mural","name":"Smart Wall","start_date":"2019","tourism":"artwork"}},{"type":"node","id":11423424037,"lat":51.8931421,"lon":4.4770107,"tags":{"artwork_type":"mural","tourism":"artwork"}},{"type":"node","id":11444701194,"lat":50.3807891,"lon":4.4428548,"tags":{"artwork_type":"mural","name":"Deux cent soixante-deux","name:it":"Duecentosessantadue","tourism":"artwork"}},{"type":"node","id":11451881989,"lat":50.8410975,"lon":4.4431246,"tags":{"artist_name":"J.-Y. Mangnay;G. Oreopoulos G.","artwork_type":"mural","mapillary":"1401348880435062","name":"Les énergies d'antan","start_date":"2000-09","tourism":"artwork"}},{"type":"node","id":11457593623,"lat":51.2222547,"lon":4.4002328,"tags":{"artwork_type":"mural","tourism":"artwork"}},{"type":"node","id":11464743115,"lat":50.8877909,"lon":5.9814449,"tags":{"artist_name":"Lars Sickenroth","artwork_type":"mural","image":"https://pixelfed.de/p/RA_Negm/646235100613822223","name":"Frisson Verdis","source":"https://mastodon.online/@AmiW/111597005457776048","tourism":"artwork"}},{"type":"node","id":11465201079,"lat":50.8885689,"lon":5.9712636,"tags":{"artist_name":"DZIA","artwork_type":"mural","image":"https://pixelfed.de/storage/m/_v2/615797448648714432/bc40e5d2a-3c51e6/Qsj14DGL5pGh/dNV8n2embLOgX2CyEiC6Cv3dSPhXP8xvmfd9xdxX.jpg","name":"Catch The Butterfly","source":"https://mastodon.online/@AmiW/111557282069754860","tourism":"artwork","img_thumbnail":"node_11465201079_0.jpg"}},{"type":"node","id":11515987872,"lat":51.2148281,"lon":4.4008425,"tags":{"artwork_type":"mural","tourism":"artwork"}},{"type":"node","id":11544136410,"lat":50.8613229,"lon":4.3499971,"tags":{"artist_name":"Sestry Feldman","artwork_type":"mural","tourism":"artwork"}},{"type":"node","id":11635568546,"lat":50.8780664,"lon":4.3930728,"tags":{"artist_name":"Veneno CNN","artwork_type":"mural","image":"https://i.imgur.com/0xfhoAZ.jpg","image:0":"https://i.imgur.com/NdatyEd.jpg","tourism":"artwork","website":"https://streetartcities.com/artists/veneno-cnn","img_thumbnail":"node_11635568546_0.jpg"}},{"type":"node","id":11643160383,"lat":50.8486175,"lon":4.3507685,"tags":{"artist:wikidata":"Q3089914","artist_name":"Frédéric Jannin","artwork_type":"mural","name":"Crolle des Snuls","start_date":"2024-02-19","subject:wikidata":"Q612865","subject:wikipedia":"en:Les Snuls","tourism":"artwork"}},{"type":"node","id":11704537056,"lat":50.9010826,"lon":4.9034398,"tags":{"artist_name":"Threepack","artwork_type":"mural","name":"Eddy Merckx","tourism":"artwork"}},{"type":"node","id":11704945250,"lat":50.8433912,"lon":4.4693215,"tags":{"artist_name":"Simon Mannaerts","artwork_type":"mural","start_date":"2023","tourism":"artwork"}},{"type":"node","id":11756605694,"lat":50.869351,"lon":4.5348244,"tags":{"artwork_type":"mural","description":"ter gelegenheid van 700 jaar Charter van Kortenberg","image:1":"https://upload.wikimedia.org/wikipedia/commons/d/d8/Armendaal_mural_1.jpg","image:2":"https://upload.wikimedia.org/wikipedia/commons/e/e5/Armendaal_mural_2.jpg","image:3":"https://upload.wikimedia.org/wikipedia/commons/a/ae/Armendaal_mural_3.jpg","image:4":"https://upload.wikimedia.org/wikipedia/commons/6/67/Armendaal_mural_4.jpg","image:5":"https://upload.wikimedia.org/wikipedia/commons/5/58/Armendaal_mural_5.jpg","image:6":"https://upload.wikimedia.org/wikipedia/commons/7/7b/Armendaal_mural_6.jpg","image:7":"https://upload.wikimedia.org/wikipedia/commons/2/2f/Armendaal_mural_7.jpg","name":"Armendaal","tourism":"artwork"}},{"type":"node","id":11806512234,"lat":51.1720472,"lon":5.1608102,"tags":{"artwork_type":"mural","name":"Sjokolaa","tourism":"artwork"}},{"type":"node","id":11931445628,"lat":50.4694451,"lon":4.8598211,"tags":{"artist_name":"Cam Stass (Camille Stassen)","artwork_type":"mural","name":"La Souffleuse de rêves","tourism":"artwork"}},{"type":"way","id":30362080,"bounds":{"minlat":50.8321498,"minlon":4.3411244,"maxlat":50.8325182,"maxlon":4.3416849},"nodes":[334916486,10774345230,10774344822,10774344832,10774344801,10774344804,10774344803,10774344802,10774344833,10774344821,10774345232,334916487,10774344819,10774344818,10774344817,10774344816,334916488,10774345215,10774344813,10774344834,10774344805,10774344806,10774344808,10774344807,10774344835,10774344814,10774345222,334916489,10774344825,10774344824,334916486],"geometry":[{"lat":50.8323816,"lon":4.3411244},{"lat":50.8323886,"lon":4.3411404},{"lat":50.8323961,"lon":4.3411573},{"lat":50.8324164,"lon":4.3412033},{"lat":50.8324437,"lon":4.3412598},{"lat":50.8324525,"lon":4.3412501},{"lat":50.8324678,"lon":4.3412843},{"lat":50.8324599,"lon":4.3412931},{"lat":50.8324871,"lon":4.341353},{"lat":50.8325039,"lon":4.3413899},{"lat":50.8325119,"lon":4.3414074},{"lat":50.8325182,"lon":4.3414214},{"lat":50.8324972,"lon":4.341445},{"lat":50.8324869,"lon":4.3414566},{"lat":50.832393,"lon":4.3415621},{"lat":50.8323832,"lon":4.3415732},{"lat":50.8322837,"lon":4.3416849},{"lat":50.832278,"lon":4.3416721},{"lat":50.8322708,"lon":4.341656},{"lat":50.8322531,"lon":4.3416162},{"lat":50.8322263,"lon":4.3415561},{"lat":50.8322181,"lon":4.3415653},{"lat":50.8322006,"lon":4.3415262},{"lat":50.8322087,"lon":4.3415172},{"lat":50.8321835,"lon":4.3414606},{"lat":50.832165,"lon":4.3414191},{"lat":50.832158,"lon":4.3414035},{"lat":50.8321498,"lon":4.3413849},{"lat":50.8322974,"lon":4.3412189},{"lat":50.8323071,"lon":4.3412081},{"lat":50.8323816,"lon":4.3411244}],"tags":{"artist_name":"Katrien Vanderlinden","artwork_type":"mural","leisure":"pitch","lit":"yes","name":"Hypercourt BXL","source":"https://www.instagram.com/p/CgCmwkgNB2C/;https://bx1.be/categories/news/la-plus-grande-gaufre-de-bruxelles-du-monde-se-trouve-a-saint-gilles/","sport":"multi","surface":"concrete","tourism":"artwork"}},{"type":"way","id":54076061,"bounds":{"minlat":51.8838376,"minlon":4.2615314,"maxlat":51.8844021,"maxlon":4.262446},"nodes":[682109094,681984325,682131480,682014389,681897483,681960311,682172434,681882475,682053836,681850034,682003114,681859799,682156993,681947634,682095529,681913048,682065428,681929680,682135070,681950389,682099137,682005950,682160846,681901243,682111828,681852037,682056761,682121191,682000062,682077770,681868915,682026057,681836189,682091925,681879360,682038493,681840834,682152406,681944573,681973115,682142364,682083062,681937936,682112282,681963478,682057095,681901797,682006386,681852398,682082474,681873356,682141521,681936954,681844357,681993742,682031534,681900564,682165213,681925873,681876693,682086863,681839145,682035346,681941405,682109094],"geometry":[{"lat":51.884121,"lon":4.262446},{"lat":51.8840934,"lon":4.262444},{"lat":51.884066,"lon":4.2624376},{"lat":51.8840391,"lon":4.2624269},{"lat":51.8840129,"lon":4.2624119},{"lat":51.8839878,"lon":4.2623929},{"lat":51.883964,"lon":4.26237},{"lat":51.8839417,"lon":4.2623434},{"lat":51.8839211,"lon":4.2623134},{"lat":51.8839024,"lon":4.2622803},{"lat":51.8838858,"lon":4.2622444},{"lat":51.8838715,"lon":4.262206},{"lat":51.8838595,"lon":4.2621655},{"lat":51.8838501,"lon":4.2621233},{"lat":51.8838432,"lon":4.2620799},{"lat":51.883839,"lon":4.2620355},{"lat":51.8838376,"lon":4.2619907},{"lat":51.8838388,"lon":4.2619459},{"lat":51.8838427,"lon":4.2619014},{"lat":51.8838494,"lon":4.2618579},{"lat":51.8838586,"lon":4.2618155},{"lat":51.8838703,"lon":4.2617749},{"lat":51.8838844,"lon":4.2617363},{"lat":51.8839009,"lon":4.2617001},{"lat":51.8839194,"lon":4.2616668},{"lat":51.8839398,"lon":4.2616365},{"lat":51.883962,"lon":4.2616096},{"lat":51.8839857,"lon":4.2615864},{"lat":51.8840107,"lon":4.261567},{"lat":51.8840367,"lon":4.2615517},{"lat":51.8840635,"lon":4.2615406},{"lat":51.8840909,"lon":4.2615338},{"lat":51.8841186,"lon":4.2615314},{"lat":51.8841463,"lon":4.2615334},{"lat":51.8841737,"lon":4.2615398},{"lat":51.8842006,"lon":4.2615505},{"lat":51.8842267,"lon":4.2615655},{"lat":51.8842518,"lon":4.2615845},{"lat":51.8842756,"lon":4.2616074},{"lat":51.8842979,"lon":4.261634},{"lat":51.8843185,"lon":4.261664},{"lat":51.8843372,"lon":4.2616971},{"lat":51.8843538,"lon":4.261733},{"lat":51.8843682,"lon":4.2617714},{"lat":51.8843801,"lon":4.2618119},{"lat":51.8843896,"lon":4.2618541},{"lat":51.8843964,"lon":4.2618975},{"lat":51.8844006,"lon":4.2619419},{"lat":51.8844021,"lon":4.2619867},{"lat":51.8844008,"lon":4.2620315},{"lat":51.8843969,"lon":4.262076},{"lat":51.8843903,"lon":4.2621195},{"lat":51.8843811,"lon":4.2621619},{"lat":51.8843693,"lon":4.2622025},{"lat":51.8843552,"lon":4.2622411},{"lat":51.8843388,"lon":4.2622773},{"lat":51.8843203,"lon":4.2623106},{"lat":51.8842998,"lon":4.2623409},{"lat":51.8842776,"lon":4.2623678},{"lat":51.8842539,"lon":4.262391},{"lat":51.884229,"lon":4.2624104},{"lat":51.8842029,"lon":4.2624257},{"lat":51.8841761,"lon":4.2624368},{"lat":51.8841487,"lon":4.2624436},{"lat":51.884121,"lon":4.262446}],"tags":{"artist_name":"Kunst & Vaarwerk","artwork_type":"mural","building":"yes","image":"https://cdn1.bkor.nl/wp-content/uploads/20191127110959/Kunst-en-Vaarwerk-Hoedendoos-foto-Wikipedia-800x500.jpg","man_made":"storage_tank","name":"Hoedendoos","start_date":"1983","tourism":"artwork","url":"https://www.bkor.nl/schilderkunst/hoedendoos/","img_thumbnail":"way_54076061_0.jpg"}},{"type":"way","id":319327230,"bounds":{"minlat":51.806655,"minlon":4.5765776,"maxlat":51.8066979,"maxlon":4.5766691},"nodes":[3257403650,3257403651,3257403652,3257403653,3257403650],"geometry":[{"lat":51.8066979,"lon":4.5765933},{"lat":51.8066784,"lon":4.5766691},{"lat":51.806655,"lon":4.5766533},{"lat":51.8066745,"lon":4.5765776},{"lat":51.8066979,"lon":4.5765933}],"tags":{"area":"yes","artwork_type":"mural","height":"0.2","tourism":"artwork"}},{"type":"way","id":380561382,"bounds":{"minlat":51.1264059,"minlon":4.2923016,"maxlat":51.1265042,"maxlon":4.2925938},"nodes":[3838816919,3838816909,3838816902,3838816900,3838816893],"geometry":[{"lat":51.1265042,"lon":4.2923016},{"lat":51.1264691,"lon":4.2924225},{"lat":51.1264553,"lon":4.2924703},{"lat":51.1264284,"lon":4.2925631},{"lat":51.1264059,"lon":4.2925938}],"tags":{"artwork_type":"mural","barrier":"wall","tourism":"artwork"}},{"type":"way","id":581843802,"bounds":{"minlat":50.8637793,"minlon":4.7112341,"maxlat":50.8638226,"maxlon":4.711424},"nodes":[831349506,3059872499,831349505],"geometry":[{"lat":50.8637793,"lon":4.7112341},{"lat":50.8638171,"lon":4.7113998},{"lat":50.8638226,"lon":4.711424}],"tags":{"artist:wikidata":"Q52047072;Q52047221","artist_name":"Collin Van der Sluijs;Super A","artwork_type":"mural","barrier":"wall","image":"https://upload.wikimedia.org/wikipedia/commons/5/5f/Mural_by_Collin_Van_der_Sluijs_in_Heverlee.jpg","mapillary":"3875354109258371","start_date":"2018-04-10","tourism":"artwork","wheelchair":"yes","wikimedia_commons":"File:Grafitti_mural_by_Collin_Van_der_Sluijs_in_Heverlee.jpg","img_thumbnail":"way_581843802_0.jpg"}},{"type":"way","id":581843803,"bounds":{"minlat":50.8644921,"minlon":4.7113325,"maxlat":50.8647191,"maxlon":4.7114121},"nodes":[5566194095,5566194094,5566194093,5566194092,5566194091],"geometry":[{"lat":50.8647191,"lon":4.7113611},{"lat":50.8646285,"lon":4.7113621},{"lat":50.8646182,"lon":4.7113325},{"lat":50.8645205,"lon":4.7113513},{"lat":50.8644921,"lon":4.7114121}],"tags":{"artist:wikidata":"Q52047072;Q52047221","artist_name":"Collin Van der Sluijs;Super A","artwork_type":"mural","barrier":"wall","bridge:support":"abutment","mapillary":"464770201302379","start_date":"2018-04-10","tourism":"artwork"}},{"type":"way","id":581843804,"bounds":{"minlat":50.8644147,"minlon":4.7111224,"maxlat":50.8646245,"maxlon":4.7112232},"nodes":[5566194100,5566194099,5566194090,5566194098,5566194097,5566194096],"geometry":[{"lat":50.8646245,"lon":4.7111224},{"lat":50.8645642,"lon":4.7111774},{"lat":50.8645759,"lon":4.7112111},{"lat":50.8644714,"lon":4.7112232},{"lat":50.8644597,"lon":4.7111924},{"lat":50.8644147,"lon":4.7111977}],"tags":{"artist:wikidata":"Q52047072;Q52047221","artist_name":"Collin Van der Sluijs;Super A","artwork_type":"mural","barrier":"wall","bridge:support":"abutment","mapillary":"516143686225356","start_date":"2018-04-10","tourism":"artwork","wikimedia_commons":"File:Grafitti_mural_on_bridge_by_Collin_Van_der_Sluijs_west.jpg"}},{"type":"way","id":614189207,"bounds":{"minlat":50.5909432,"minlon":5.8501651,"maxlat":50.5910322,"maxlon":5.8501967},"nodes":[5310962683,6726882801,5310962682],"geometry":[{"lat":50.5910322,"lon":5.8501651},{"lat":50.5910046,"lon":5.8501749},{"lat":50.5909432,"lon":5.8501967}],"tags":{"artist_name":"Roger Leloup","artwork_type":"mural","description":"https://www.rtbf.be/info/regions/liege/detail_une-grande-fresque-yoko-tsuno-inauguree-a-verviers?id=9959640","image":"https://1.bp.blogspot.com/-79G1wgvl2mQ/XVuqzwGUECI/AAAAAAAANPI/m-kkmxUQnhs_Mha4LhyoXucWnj2xLw2tQCLcBGAs/s1600/19.8.%2B2019%2BGraffiti%2B-%2BVerviers%2B-%2BRue%2BPeltzer%2Bde%2BClermont%2B%25281%2529.JPG","name":"Fresque Yoko Tsuno","start_date":"2018","tourism":"artwork","img_thumbnail":"way_614189207_0.png"}},{"type":"way","id":623784605,"bounds":{"minlat":50.5933328,"minlon":5.8583986,"maxlat":50.5934304,"maxlon":5.8584994},"nodes":[1707017344,5890370385,5890370386,5890370387,5890370388,5890370389,5890370390,5890370391,5890370392,5890370393,5890370394],"geometry":[{"lat":50.5934304,"lon":5.8583986},{"lat":50.5934288,"lon":5.8584226},{"lat":50.5934197,"lon":5.8584478},{"lat":50.5934121,"lon":5.8584646},{"lat":50.5934037,"lon":5.8584772},{"lat":50.5933926,"lon":5.8584856},{"lat":50.5933805,"lon":5.8584952},{"lat":50.5933686,"lon":5.8584994},{"lat":50.5933618,"lon":5.8584988},{"lat":50.5933469,"lon":5.8584946},{"lat":50.5933328,"lon":5.8584886}],"tags":{"artwork_type":"mural","name":"Fresque \"Le travail de la Laine à Verviers\"","tourism":"artwork"}},{"type":"way","id":825367376,"bounds":{"minlat":50.8138452,"minlon":4.7048627,"maxlat":50.8141418,"maxlon":4.7049501},"nodes":[7546106075,6886277431],"geometry":[{"lat":50.8141418,"lon":4.7048627},{"lat":50.8138452,"lon":4.7049501}],"tags":{"artist_name":"Dzia","artwork_subject":"wildlife","artwork_type":"mural","mapillary":"211371800591818","material":"concrete","start_date":"2020","tourism":"artwork"}},{"type":"way","id":825367377,"bounds":{"minlat":50.813873,"minlon":4.7050988,"maxlat":50.8141696,"maxlon":4.7051862},"nodes":[6886277433,6886277432],"geometry":[{"lat":50.8141696,"lon":4.7050988},{"lat":50.813873,"lon":4.7051862}],"tags":{"artist_name":"Dzia","artwork_subject":"wildlife","artwork_type":"mural","mapillary":"211371800591818","material":"concrete","start_date":"2020","tourism":"artwork"}},{"type":"way","id":828069617,"bounds":{"minlat":50.8680159,"minlon":4.6991443,"maxlat":50.8681102,"maxlon":4.6991921},"nodes":[11862810816,7730481257],"geometry":[{"lat":50.8681102,"lon":4.6991921},{"lat":50.8680159,"lon":4.6991443}],"tags":{"artwork_type":"mural","tourism":"artwork"}},{"type":"way","id":885323564,"bounds":{"minlat":51.5851702,"minlon":4.7759653,"maxlat":51.5852333,"maxlon":4.7765014},"nodes":[8232726228,8232726229],"geometry":[{"lat":51.5851702,"lon":4.7759653},{"lat":51.5852333,"lon":4.7765014}],"tags":{"artwork_type":"mural","image":"https://photos.app.goo.gl/hLRZRi5A7cbZ1WhQ9","mapillary":"513264256491583","tourism":"artwork","img_thumbnail":"way_885323564_0.jpg"}},{"type":"way","id":896157788,"bounds":{"minlat":50.5884884,"minlon":5.6327922,"maxlat":50.5885152,"maxlon":5.6328371},"nodes":[8330238056,8330238055,8330238054,8330238053,8330238052,8330238051,8330238050,8330238049,8330238056],"geometry":[{"lat":50.5885152,"lon":5.6328163},{"lat":50.5885118,"lon":5.6328002},{"lat":50.5885035,"lon":5.6327922},{"lat":50.5884931,"lon":5.6327962},{"lat":50.5884884,"lon":5.6328136},{"lat":50.5884914,"lon":5.63283},{"lat":50.588501,"lon":5.6328371},{"lat":50.5885123,"lon":5.6328307},{"lat":50.5885152,"lon":5.6328163}],"tags":{"artist_name":"Diane Benoit du Rey","artwork_type":"mural","building":"yes","name":"En continu","start_date":"2018","tourism":"artwork"}},{"type":"way","id":946883061,"bounds":{"minlat":50.7424889,"minlon":4.2500349,"maxlat":50.7425899,"maxlon":4.250226},"nodes":[5029502869,5029502874],"geometry":[{"lat":50.7424889,"lon":4.2500349},{"lat":50.7425899,"lon":4.250226}],"tags":{"OnroerendErfgoed:criteria":"BE","artwork_type":"mural","heritage":"4","heritage:operator":"OnroerendErfgoed","heritage:website":"https://id.erfgoed.net/erfgoedobjecten/215916","inscription":"1910 Exposition Universelle Bruxelles 1910 Avril Novembre","ref:OnroerendErfgoed":"215916","tourism":"artwork"}},{"type":"way","id":946883063,"bounds":{"minlat":50.7431741,"minlon":4.25163,"maxlat":50.7432121,"maxlon":4.251724},"nodes":[5029502741,5029502740],"geometry":[{"lat":50.7431741,"lon":4.25163},{"lat":50.7432121,"lon":4.251724}],"tags":{"artwork_type":"mural","name":"Chocolat Martougin","tourism":"artwork"}},{"type":"way","id":954185095,"bounds":{"minlat":50.7201426,"minlon":4.2316642,"maxlat":50.7241269,"maxlon":4.2319236},"nodes":[6840066348,6840066347,8941463911,6840066412,6840066341,6840066344,6840066411,6840066414,6840066413,6840066408,6840066407,6840066343,6840066349,6840066410,6840066409,6840066420,6840066419,6840066422,6840066421,6840066416,6840066415,6840066418,6840066417,6840066396,6840066395,6840066398,6840066397,6840066392,6840066391,6840066394,6840066393],"geometry":[{"lat":50.7241269,"lon":4.2318178},{"lat":50.7236004,"lon":4.2317306},{"lat":50.7235982,"lon":4.2317687},{"lat":50.7230291,"lon":4.2316763},{"lat":50.7230282,"lon":4.2317032},{"lat":50.7229927,"lon":4.2316991},{"lat":50.7229928,"lon":4.2316704},{"lat":50.7229547,"lon":4.2316642},{"lat":50.7229466,"lon":4.231803},{"lat":50.722582,"lon":4.2317988},{"lat":50.7223672,"lon":4.2318163},{"lat":50.7223675,"lon":4.2318382},{"lat":50.7223371,"lon":4.2318403},{"lat":50.7223357,"lon":4.2318188},{"lat":50.7220351,"lon":4.2318378},{"lat":50.7220351,"lon":4.2318433},{"lat":50.7215821,"lon":4.2318198},{"lat":50.7215815,"lon":4.2318619},{"lat":50.7215268,"lon":4.2318594},{"lat":50.7215269,"lon":4.2318167},{"lat":50.7213807,"lon":4.2318095},{"lat":50.7213798,"lon":4.2318575},{"lat":50.7213383,"lon":4.2318551},{"lat":50.7213389,"lon":4.231807},{"lat":50.7210248,"lon":4.2317901},{"lat":50.7210249,"lon":4.2318304},{"lat":50.7209737,"lon":4.2318288},{"lat":50.7209733,"lon":4.2317873},{"lat":50.7209054,"lon":4.2317843},{"lat":50.7209005,"lon":4.2319236},{"lat":50.7201426,"lon":4.231866}],"tags":{"artist_name":"Treepack","artwork_type":"mural","description:en":"https://www.brusselstimes.com/173621/halle-europe-mural-treepack-gooze-bozik-street-art-betoverde-bos-zenne-marc-snoeck","name":"Het Betoverde Bos","name:en":"Enchanted Forest","start_date":"2021-6","tourism":"artwork","website":"https://www.halle.be/nieuwsberichten/streetart-langs-kanaal-zet-halle-op-de-wereldkaart-van-de-graffitikunst","wikidata":"Q107224590"}},{"type":"way","id":972227701,"bounds":{"minlat":50.8366453,"minlon":4.3496024,"maxlat":50.8371533,"maxlon":4.3503333},"nodes":[11804216108,11804216106,6362954554,11804216107,11804216108],"geometry":[{"lat":50.8366453,"lon":4.3497297},{"lat":50.8367142,"lon":4.3496024},{"lat":50.8371533,"lon":4.3501981},{"lat":50.8370769,"lon":4.3503333},{"lat":50.8366453,"lon":4.3497297}],"tags":{"area":"yes","artist_name":"First Urban Tractor","artwork_type":"mural","name":"Pas-Laid","note":"Artwork is partially removed","tourism":"artwork"}},{"type":"way","id":977351422,"bounds":{"minlat":50.467757,"minlon":4.8499737,"maxlat":50.4685228,"maxlon":4.8502967},"nodes":[9043520076,9043520077,9043520078,9043520079,9043520080,9043520081,9043520082],"geometry":[{"lat":50.4685228,"lon":4.8502282},{"lat":50.4684618,"lon":4.8502967},{"lat":50.4683006,"lon":4.8502419},{"lat":50.4682013,"lon":4.8500352},{"lat":50.4680428,"lon":4.8499737},{"lat":50.4678276,"lon":4.8500421},{"lat":50.467757,"lon":4.8500079}],"tags":{"artwork_type":"mural","barrier":"wall","name":"Le Mur","tourism":"artwork"}},{"type":"way","id":1012040871,"bounds":{"minlat":50.8779199,"minlon":4.3487396,"maxlat":50.8781037,"maxlon":4.3493349},"nodes":[1210450212,8868718273,8868718264,2598333269],"geometry":[{"lat":50.8781037,"lon":4.3493349},{"lat":50.8779847,"lon":4.3489495},{"lat":50.8779761,"lon":4.3489218},{"lat":50.8779199,"lon":4.3487396}],"tags":{"artist_name":"Atak","artwork_type":"mural","name":"Un monde à l'envers - De omgekeerde wereld","name:fr":"Un monde à l'envers","name:nl":"De omgekeerde wereld","start_date":"2021-12-15","tourism":"artwork","website":"https://www.parcoursbd.brussels/fresques/un-monde-a-lenvers/"}},{"type":"way","id":1014885708,"bounds":{"minlat":51.0284133,"minlon":4.4833667,"maxlat":51.0284657,"maxlon":4.4833816},"nodes":[3300193507,9362249943],"geometry":[{"lat":51.0284657,"lon":4.4833667},{"lat":51.0284133,"lon":4.4833816}],"tags":{"artwork_type":"mural","barrier":"wall","tourism":"artwork"}},{"type":"way","id":1052637181,"bounds":{"minlat":51.2156871,"minlon":4.3962117,"maxlat":51.2157325,"maxlon":4.3963355},"nodes":[4897534046,4897534047],"geometry":[{"lat":51.2157325,"lon":4.3962117},{"lat":51.2156871,"lon":4.3963355}],"tags":{"artist_name":"Smates","artwork_type":"mural","image":"https://i.imgur.com/ClMqIvj.jpg","tourism":"artwork","img_thumbnail":"way_1052637181_0.jpg"}},{"type":"way","id":1052637182,"bounds":{"minlat":51.2187167,"minlon":4.3966991,"maxlat":51.2187588,"maxlon":4.3968715},"nodes":[4887697923,4887686720],"geometry":[{"lat":51.2187588,"lon":4.3966991},{"lat":51.2187167,"lon":4.3968715}],"tags":{"artist_name":"Charlotte De Cock","artwork_type":"mural","image":"https://i.imgur.com/oM25S17.jpg","tourism":"artwork","img_thumbnail":"way_1052637182_0.jpg"}},{"type":"way","id":1052637184,"bounds":{"minlat":51.2141238,"minlon":4.3949836,"maxlat":51.2141862,"maxlon":4.3950048},"nodes":[4897590190,9673907967],"geometry":[{"lat":51.2141862,"lon":4.3950048},{"lat":51.2141238,"lon":4.3949836}],"tags":{"artist_name":"Astro","artwork_type":"mural","image":"https://i.imgur.com/7awdN26.jpg","tourism":"artwork","img_thumbnail":"way_1052637184_0.jpg"}},{"type":"way","id":1052637185,"bounds":{"minlat":51.214034,"minlon":4.3950306,"maxlat":51.2140485,"maxlon":4.3951314},"nodes":[4806159886,9673907968],"geometry":[{"lat":51.2140485,"lon":4.3950306},{"lat":51.214034,"lon":4.3951314}],"tags":{"artwork_type":"mural","image":"https://i.imgur.com/rSHZ6uA.jpg","tourism":"artwork","img_thumbnail":"way_1052637185_0.jpg"}},{"type":"way","id":1052637186,"bounds":{"minlat":51.214049,"minlon":4.3953198,"maxlat":51.214112,"maxlon":4.3953435},"nodes":[4897590188,9673907969],"geometry":[{"lat":51.214049,"lon":4.3953198},{"lat":51.214112,"lon":4.3953435}],"tags":{"artwork_type":"mural","image":"https://i.imgur.com/ekkAXde.jpg","tourism":"artwork","img_thumbnail":"way_1052637186_0.jpg"}},{"type":"way","id":1052637187,"bounds":{"minlat":51.2135066,"minlon":4.3965351,"maxlat":51.2135249,"maxlon":4.3966605},"nodes":[4897590156,9673907970],"geometry":[{"lat":51.2135249,"lon":4.3965351},{"lat":51.2135066,"lon":4.3966605}],"tags":{"artwork_type":"mural","image":"https://i.imgur.com/YJ7DfpS.jpg","tourism":"artwork","img_thumbnail":"way_1052637187_0.jpg"}},{"type":"way","id":1052637188,"bounds":{"minlat":51.2134867,"minlon":4.3967327,"maxlat":51.213496,"maxlon":4.3967963},"nodes":[4897590155,9673907971],"geometry":[{"lat":51.2134867,"lon":4.3967963},{"lat":51.213496,"lon":4.3967327}],"tags":{"artwork_type":"mural","image":"https://i.imgur.com/EgK78ah.jpg","tourism":"artwork","img_thumbnail":"way_1052637188_0.jpg"}},{"type":"way","id":1052637193,"bounds":{"minlat":51.2139596,"minlon":4.3963616,"maxlat":51.2140569,"maxlon":4.3963978},"nodes":[4897590172,4897590176],"geometry":[{"lat":51.2139596,"lon":4.3963616},{"lat":51.2140569,"lon":4.3963978}],"tags":{"artwork_type":"mural","image":"https://i.imgur.com/QBpH3EP.jpg","name":"Habbekrats","tourism":"artwork","img_thumbnail":"way_1052637193_0.jpg"}},{"type":"way","id":1052637195,"bounds":{"minlat":51.2130656,"minlon":4.398954,"maxlat":51.2134701,"maxlon":4.3991766},"nodes":[4897490912,9673907987],"geometry":[{"lat":51.2130656,"lon":4.398954},{"lat":51.2134701,"lon":4.3991766}],"tags":{"artwork_type":"mural","barrier":"wall","image":"https://i.imgur.com/R53d8Bu.jpg","image:0":"https://i.imgur.com/PjR7q97.jpg","image:1":"https://i.imgur.com/T30unNA.jpg","image:2":"https://i.imgur.com/jbqXGJI.jpg","image:3":"https://i.imgur.com/UwPD9Ym.jpg","tourism":"artwork","img_thumbnail":"way_1052637195_0.jpg"}},{"type":"way","id":1081176141,"bounds":{"minlat":50.8992863,"minlon":4.4031402,"maxlat":50.8995955,"maxlon":4.4033853},"nodes":[9909714770,9909714769],"geometry":[{"lat":50.8992863,"lon":4.4031402},{"lat":50.8995955,"lon":4.4033853}],"tags":{"artist_name":"10ème Arte","artwork_type":"mural","image":"https://i.imgur.com/lRzDvHb.jpg","name":"Paysages en changement - Veranderende landschappen","name:fr":"Paysages en changement","name:nl":"Veranderende landschappen","start_date":"2021","tourism":"artwork","img_thumbnail":"way_1081176141_0.jpg"}},{"type":"way","id":1138014795,"bounds":{"minlat":50.591081,"minlon":5.8674661,"maxlat":50.5910874,"maxlon":5.8675253},"nodes":[10607828835,10607828836],"geometry":[{"lat":50.5910874,"lon":5.8675253},{"lat":50.591081,"lon":5.8674661}],"tags":{"artist_name":"René Hausman","artwork_type":"mural","name":"Les 4 saisons","source":"https://www.vedia.be/www/video/info/verviers-le-square-rene-hausman-est-inaugure_93632_89.html;https://www.agendabd.com/un-square-et-une-fresque-rene-hausman-inaugures-a-verviers/;survey","start_date":"2017-11-29","tourism":"artwork"}},{"type":"way","id":1138014796,"bounds":{"minlat":50.5917215,"minlon":5.8672823,"maxlat":50.5917221,"maxlon":5.8674234},"nodes":[10607828838,10607828839],"geometry":[{"lat":50.5917221,"lon":5.8672823},{"lat":50.5917215,"lon":5.8674234}],"tags":{"artist_name":"7eGauche","artwork_type":"mural","name":"Acrobates","source":"https://www.lavenir.net/regions/verviers/verviers/2022/04/02/verviers-une-nouvelle-fresque-au-message-feministe-egaye-la-rue-de-heusy-3FQCYXHGM5A45EDUGGL6DB23MQ/;survey","start_date":"2022-04-01","tourism":"artwork"}},{"type":"way","id":1138014797,"bounds":{"minlat":50.5901681,"minlon":5.867738,"maxlat":50.5902139,"maxlon":5.8678197},"nodes":[10607828840,10607828841],"geometry":[{"lat":50.5902139,"lon":5.8678197},{"lat":50.5901681,"lon":5.867738}],"tags":{"artist_name":"Natasa Konjevic (Bosnie-Herzégovine), Julien Delmelen (Belgique), José Carvalho (Portugal)","artwork_type":"mural","name":"Dire Nous","source":"https://www.paysdevesdre.be/wp-content/uploads/woocommerce_uploads/2020/11/2020_Parcours-Fresques-et-Street-Art-ok-koq9yq.pdf;survey","start_date":"2018","tourism":"artwork"}},{"type":"way","id":1138018116,"bounds":{"minlat":50.5895486,"minlon":5.8695736,"maxlat":50.5896106,"maxlon":5.8696301},"nodes":[10607849401,10607849402],"geometry":[{"lat":50.5896106,"lon":5.8696301},{"lat":50.5895486,"lon":5.8695736}],"tags":{"artist_name":"Vincent Solheid","artwork_type":"mural","name":"Sourires","source":"https://www.paysdevesdre.be/wp-content/uploads/woocommerce_uploads/2020/11/2020_Parcours-Fresques-et-Street-Art-ok-koq9yq.pdf;https://www.lesoir.be/art/%252Fverviersune-fresque-qui-ouvre-la-porte-du-quartier-de-m_t-20021109-Z0MGGM.html","start_date":"2002-11","tourism":"artwork"}},{"type":"way","id":1138257091,"bounds":{"minlat":50.5946368,"minlon":5.8535101,"maxlat":50.5946929,"maxlon":5.8537041},"nodes":[10610495099,10610495100],"geometry":[{"lat":50.5946368,"lon":5.8535101},{"lat":50.5946929,"lon":5.8537041}],"tags":{"artist_name":"Seb, Mick, John, Constant, Mouaad, Alain","artwork_type":"mural","name":"Rue du Commerce","source":"https://www.paysdevesdre.be/wp-content/uploads/woocommerce_uploads/2020/11/2020_Parcours-Fresques-et-Street-Art-ok-koq9yq.pdf","start_date":"2006","tourism":"artwork"}},{"type":"way","id":1138259550,"bounds":{"minlat":50.5933044,"minlon":5.8563973,"maxlat":50.5934185,"maxlon":5.8566638},"nodes":[10610507541,10610507542,5288243946],"geometry":[{"lat":50.593368,"lon":5.8566638},{"lat":50.5934185,"lon":5.8566019},{"lat":50.5933044,"lon":5.8563973}],"tags":{"artist_name":"Polina Stoyanova « Jo Iyaa » (Bulgarie), Natasa Konjevic (Bosnie-Herzégovine), José Carvalho (Portugal) et Julien Delmelen (Belgique)","artwork_type":"mural","name":"Dire Nous","source":"https://www.paysdevesdre.be/wp-content/uploads/woocommerce_uploads/2020/11/2020_Parcours-Fresques-et-Street-Art-ok-koq9yq.pdf","start_date":"2017","tourism":"artwork"}},{"type":"way","id":1138260965,"bounds":{"minlat":50.5936473,"minlon":5.8596644,"maxlat":50.5936895,"maxlon":5.859716},"nodes":[10610520946,10610520947],"geometry":[{"lat":50.5936473,"lon":5.8596644},{"lat":50.5936895,"lon":5.859716}],"tags":{"artist_name":"Polina Stoyanova « Jo Iyaa » (Bulgarie), Natasa Konjevic (Bosnie-Herzégovine), José Carvalho (Portugal) et Julien Delmelen (Belgique)","artwork_type":"mural","name":"Dire Nous","source":"https://www.paysdevesdre.be/wp-content/uploads/woocommerce_uploads/2020/11/2020_Parcours-Fresques-et-Street-Art-ok-koq9yq.pdf","start_date":"2017","tourism":"artwork"}},{"type":"way","id":1138446276,"bounds":{"minlat":50.5942482,"minlon":5.860388,"maxlat":50.5942865,"maxlon":5.8604174},"nodes":[10612348691,10612348692],"geometry":[{"lat":50.5942482,"lon":5.860388},{"lat":50.5942865,"lon":5.8604174}],"tags":{"artist_name":"Muhamed Kafedžić « Muha » (Bosnie-Herzégovine)","artwork_type":"mural","name":"Ceci n’est pas un Magritte","source":"https://www.paysdevesdre.be/wp-content/uploads/woocommerce_uploads/2020/11/2020_Parcours-Fresques-et-Street-Art-ok-koq9yq.pdf","start_date":"2015","tourism":"artwork"}},{"type":"way","id":1138446277,"bounds":{"minlat":50.5942471,"minlon":5.8600469,"maxlat":50.5944602,"maxlon":5.8603722},"nodes":[10612348693,1757324496,10612348694],"geometry":[{"lat":50.5944602,"lon":5.8600469},{"lat":50.5943264,"lon":5.8602438},{"lat":50.5942471,"lon":5.8603722}],"tags":{"artist_name":"Natasa Konjevic (Bosnie-Herzégovine), Polina Stoyanova « Jo Iyaa » (Bulgarie), Davor Mulalic (Bosnie-Herzégovine), Julien Delmelen (Belgique), José Carvalho (Portugal)","artwork_type":"mural","name":"Dire Nous","source":"https://www.paysdevesdre.be/wp-content/uploads/woocommerce_uploads/2020/11/2020_Parcours-Fresques-et-Street-Art-ok-koq9yq.pdf","start_date":"2012","tourism":"artwork"}},{"type":"way","id":1138453868,"bounds":{"minlat":50.5965507,"minlon":5.8716535,"maxlat":50.5965858,"maxlon":5.8716653},"nodes":[10612381302,10612381303],"geometry":[{"lat":50.5965858,"lon":5.8716535},{"lat":50.5965507,"lon":5.8716653}],"tags":{"artist_name":"Jean Lequeu (Belgique)","artwork_type":"mural","name":"La Page","source":"https://www.paysdevesdre.be/wp-content/uploads/woocommerce_uploads/2020/11/2020_Parcours-Fresques-et-Street-Art-ok-koq9yq.pdf","start_date":"1996","tourism":"artwork"}},{"type":"way","id":1138661013,"bounds":{"minlat":50.5976243,"minlon":5.8751013,"maxlat":50.5976596,"maxlon":5.875123},"nodes":[10614112441,10614112442],"geometry":[{"lat":50.5976243,"lon":5.8751013},{"lat":50.5976596,"lon":5.875123}],"tags":{"artist_name":"Philippe Baro (Suisse)","artwork_type":"mural","image":"https://up.picr.de/46477420rp.jpg","name":"Greta Thunberg","note":"https://streetartcities.com/cities/verviers/markers/34324","source":"https://www.paysdevesdre.be/wp-content/uploads/woocommerce_uploads/2020/11/2020_Parcours-Fresques-et-Street-Art-ok-koq9yq.pdf","start_date":"2019","tourism":"artwork","img_thumbnail":"way_1138661013_0.jpg"}},{"type":"way","id":1138762759,"bounds":{"minlat":50.5970181,"minlon":5.8732263,"maxlat":50.5970448,"maxlon":5.8733394},"nodes":[10614915698,10614915699],"geometry":[{"lat":50.5970448,"lon":5.8732263},{"lat":50.5970181,"lon":5.8733394}],"tags":{"artist_name":"Françoise Martin (Belgique) José Carvalho (Portugal)","artwork_type":"mural","name":"Dire Nous","source":"https://www.paysdevesdre.be/wp-content/uploads/woocommerce_uploads/2020/11/2020_Parcours-Fresques-et-Street-Art-ok-koq9yq.pdf","start_date":"2020","tourism":"artwork"}},{"type":"way","id":1144831359,"bounds":{"minlat":50.5974349,"minlon":5.8561113,"maxlat":50.5975711,"maxlon":5.8561644},"nodes":[10655354452,10655354453],"geometry":[{"lat":50.5974349,"lon":5.8561644},{"lat":50.5975711,"lon":5.8561113}],"tags":{"artwork_type":"mural","tourism":"artwork"}},{"type":"way","id":1151330248,"bounds":{"minlat":50.4735621,"minlon":4.1874674,"maxlat":50.4736139,"maxlon":4.1875729},"nodes":[1789592452,10710868930],"geometry":[{"lat":50.4735621,"lon":4.1875729},{"lat":50.4736139,"lon":4.1874674}],"tags":{"artwork_type":"mural","tourism":"artwork"}},{"type":"way","id":1157998567,"bounds":{"minlat":51.3595307,"minlon":4.3122136,"maxlat":51.3596454,"maxlon":4.312249},"nodes":[3742038407,3742038413,7959612198],"geometry":[{"lat":51.3595307,"lon":4.3122136},{"lat":51.3595904,"lon":4.3122294},{"lat":51.3596454,"lon":4.312249}],"tags":{"artist_name":"Djoels","artwork_type":"mural","name":"Billy the Bull","start_date":"2023-03","tourism":"artwork"}},{"type":"way","id":1176896087,"bounds":{"minlat":50.3803424,"minlon":5.2335939,"maxlat":50.3804861,"maxlon":5.2337688},"nodes":[4940824461,4940824475],"geometry":[{"lat":50.3804861,"lon":5.2335939},{"lat":50.3803424,"lon":5.2337688}],"tags":{"artist_name":"Charlotte Bonnans et Jérôme Favre","artwork_type":"mural","description":"Dans le cadre de Sentiers d'Art, un circuit de randonnée sur plusieurs jours.","name":"Sereine contemplation","source":"survey;local knowledge","start_date":"06-2022","tourism":"artwork","website":"https://sentiersdart.be/oeuvres/sereine-contemplation-une-nouvelle-fresque-murale-2022"}},{"type":"way","id":1179942261,"bounds":{"minlat":50.3225229,"minlon":5.1196435,"maxlat":50.3225452,"maxlon":5.1197116},"nodes":[10959132798,10959132799],"geometry":[{"lat":50.3225229,"lon":5.1196435},{"lat":50.3225452,"lon":5.1197116}],"tags":{"artist_name":"Phayam Production (Marina Gutiérrez et Antoine Mathurin)","artwork_type":"mural","description":"A travers leurs créations, les artistes veulent attirer l’attention du public sur les préoccupations actuelles en matière d’écologie. Ils mettent en valeur plusieurs espèces végétales ou animales peu connus ou à défendre, ici le Bubulilla ou Huppe Fascié.","name":"Bubulilla","note":"Se garer à hauteur du 45, Rue du Relais à Emptinne et marcher sur le Ravel vers Ciney. L'oeuvre se trouve à 300m, sous la N4 / Park close to 45, Rue du Relais in Emptinne and walk the Ravel, heading to Ciney, for about 300m. It is under the N4 highway.","start_date":"2022","tourism":"artwork","website":"https://sentiersdart.be/oeuvres/bubulilla-une-nouvelle-fresque-murale-2022"}},{"type":"way","id":1181032621,"bounds":{"minlat":50.4369742,"minlon":5.1205296,"maxlat":50.4372417,"maxlon":5.1206817},"nodes":[4863428832,10968246046,4863428833,10967509457,4863428835],"geometry":[{"lat":50.4372417,"lon":5.1205296},{"lat":50.4371123,"lon":5.1206211},{"lat":50.437058,"lon":5.1206595},{"lat":50.4370491,"lon":5.1206294},{"lat":50.4369742,"lon":5.1206817}],"tags":{"artist_name":"Mr Pee","artwork_type":"mural","description":"Un dialogue avec l'univers de la fanfare, du rythme, de la musique et des instruments comme vecteurs de mouvements et d'une dynamique que l'on peut exprimer graphiquement, et initier des dialogues avec les passants et les habitants.","level":"1","name":"La grande parade","source":"survey;local knowledge;aerial imagery","start_date":"2023-06-10","tourism":"artwork","website":"https://sentiersdart.be/oeuvres/la-grande-parade"}},{"type":"way","id":1181032622,"bounds":{"minlat":50.2995022,"minlon":5.0996276,"maxlat":50.2996741,"maxlon":5.0998165},"nodes":[10968246023,10968246024],"geometry":[{"lat":50.2996741,"lon":5.0996276},{"lat":50.2995022,"lon":5.0998165}],"tags":{"artist_name":"Loren Lefebvre","artwork_type":"mural","description":"Cette fresque colorée représente un trait d’union joyeux entre les différents éléments de la région de Ciney et propose plusieurs clins d’œil aux institutions qui marquent l’identité de la ville.","level":"1","name":"La Bal'Art","start_date":"2023-06-10","tourism":"artwork","website":"https://sentiersdart.be/oeuvres/la-balart"}},{"type":"way","id":1181032623,"bounds":{"minlat":50.3993893,"minlon":5.0467331,"maxlat":50.3994579,"maxlon":5.0468661},"nodes":[10968246042,10968246043,10968246044],"geometry":[{"lat":50.3993893,"lon":5.0468661},{"lat":50.3994579,"lon":5.0468104},{"lat":50.3994373,"lon":5.0467331}],"tags":{"artist_name":"Thyl Seeger","artwork_type":"mural","description":"Thyl Seeger veut interpeller sur la frontière entre l’humain et la nature qui se crée dans nos sociétés.  Pour cela, il choisit de travailler dans une échelle sur-dimensionnée et de mettre en exergue une nature reprenant ses droits.","name":"Symbioses","source":"survey;aerial imagery;local knowledge","start_date":"2023-06-10","tourism":"artwork","website":"https://sentiersdart.be/oeuvres/symbioses"}},{"type":"way","id":1188409545,"bounds":{"minlat":51.8650981,"minlon":4.5553768,"maxlat":51.8655333,"maxlon":4.5573993},"nodes":[10291461860,11035240194,11035240193,11905898657,11035336440,11035240192,11035240191,11035240190],"geometry":[{"lat":51.8650981,"lon":4.5553768},{"lat":51.8651773,"lon":4.556163},{"lat":51.865249,"lon":4.5565153},{"lat":51.8652941,"lon":4.556709},{"lat":51.8653519,"lon":4.5568944},{"lat":51.8653811,"lon":4.5569776},{"lat":51.8655149,"lon":4.5573444},{"lat":51.8655333,"lon":4.5573993}],"tags":{"artist_name":"Marcus Debie","artwork_type":"mural","barrier":"retaining_wall","level":"-1","tourism":"artwork"}},{"type":"way","id":1188409546,"bounds":{"minlat":51.8651499,"minlon":4.5553711,"maxlat":51.8664249,"maxlon":4.5568114},"nodes":[11035240202,11035240201,11035240200,11421007689,11035240199,11080755752,11035240198,11035240197,11035240196],"geometry":[{"lat":51.8664249,"lon":4.5554353},{"lat":51.8662916,"lon":4.5556683},{"lat":51.8661483,"lon":4.555905},{"lat":51.8659805,"lon":4.556114},{"lat":51.8654202,"lon":4.5568114},{"lat":51.8653719,"lon":4.5567737},{"lat":51.8652955,"lon":4.5564926},{"lat":51.8652315,"lon":4.5561163},{"lat":51.8651499,"lon":4.5553711}],"tags":{"artist_name":"Marcus Debie","artwork_type":"mural","barrier":"retaining_wall","level":"-1","tourism":"artwork"}},{"type":"way","id":1188409547,"bounds":{"minlat":51.8654502,"minlon":4.5554862,"maxlat":51.8664663,"maxlon":4.5573477},"nodes":[11035240203,11035240204,11905898656,11905898655,11905898654,11035286705,10291461857,10291461858,10291461871,10291461872,10291461873],"geometry":[{"lat":51.8655777,"lon":4.5573477},{"lat":51.8655414,"lon":4.5572506},{"lat":51.8654796,"lon":4.5570778},{"lat":51.8654502,"lon":4.5569846},{"lat":51.8654515,"lon":4.5569444},{"lat":51.8654621,"lon":4.5569105},{"lat":51.8659519,"lon":4.5563144},{"lat":51.8660528,"lon":4.5561861},{"lat":51.8662054,"lon":4.5559701},{"lat":51.8663207,"lon":4.5557635},{"lat":51.8664663,"lon":4.5554862}],"tags":{"artist_name":"Marcus Debie","artwork_type":"mural","barrier":"retaining_wall","level":"-1","tourism":"artwork"}},{"type":"way","id":1231168205,"bounds":{"minlat":50.6013195,"minlon":5.6321132,"maxlat":50.6013693,"maxlon":5.6322178},"nodes":[9709064140,9709064139],"geometry":[{"lat":50.6013693,"lon":5.6321132},{"lat":50.6013195,"lon":5.6322178}],"tags":{"artist_name":"Anthea Missy","artwork_type":"mural","tourism":"artwork"}},{"type":"way","id":1232660206,"bounds":{"minlat":50.5851733,"minlon":5.846672,"maxlat":50.5851822,"maxlon":5.8468211},"nodes":[1912987442,11434741697],"geometry":[{"lat":50.5851822,"lon":5.8468211},{"lat":50.5851733,"lon":5.846672}],"tags":{"artist_name":"Osmoze","artwork_type":"mural","source":"https://www.crowdin.be/fr/projet-crowdfunding/fresque-monumentale-sur-le-patrimoine-historique-de-verviers;https://www.sudinfo.be/id720156/article/2023-09-28/la-fresque-sur-le-passe-lainier-de-verviers-achevee-elle-participe-redorer","tourism":"artwork"}},{"type":"way","id":1283303262,"bounds":{"minlat":50.7343129,"minlon":4.2379438,"maxlat":50.7343457,"maxlon":4.2380097},"nodes":[4015482792,6552236897],"geometry":[{"lat":50.7343457,"lon":4.2379438},{"lat":50.7343129,"lon":4.2380097}],"tags":{"artist_name":"Alain Welter","artwork_type":"mural","name":"Mother Nature","start_date":"2024-05-13","tourism":"artwork","website":"https://www.halle.be/persruimte/persberichten/europestreetart-halle-hhc-leerlingen-inspireren-reusachtige"}},{"type":"way","id":1283303263,"bounds":{"minlat":50.7342777,"minlon":4.2380573,"maxlat":50.7343187,"maxlon":4.2381394},"nodes":[6552236900,6552236905],"geometry":[{"lat":50.7343187,"lon":4.2380573},{"lat":50.7342777,"lon":4.2381394}],"tags":{"artist_name":"Alain Welter","artwork_type":"mural","image":"https://i.imgur.com/hFOr6iS.jpeg","name":"Mother Nature","start_date":"2024-05-13","tourism":"artwork","website":"https://www.halle.be/persruimte/persberichten/europestreetart-halle-hhc-leerlingen-inspireren-reusachtige","img_thumbnail":"way_1283303263_0.jpg"}},{"type":"way","id":1284211146,"bounds":{"minlat":50.6065624,"minlon":5.8568581,"maxlat":50.6066602,"maxlon":5.8570277},"nodes":[11914001852,11914001853],"geometry":[{"lat":50.6065624,"lon":5.8568581},{"lat":50.6066602,"lon":5.8570277}],"tags":{"artist_name":"Mathilde Leroy","artwork_type":"mural","name":"Barbe Carabin","source":"https://www.lavenir.net/regions/verviers/dison/2024/02/03/la-premiere-fresque-dun-parcours-pour-egayer-la-ville-de-dison-BQXYJMCXPREBFGPMHXVI3ADCGY/","start_date":"2024-03-09","tourism":"artwork"}}]}