{"version":0.6,"generator":"Overpass API 0.7.61.5 4133829e","osm3s":{"timestamp_osm_base":"2024-02-19T09:45:44Z","copyright":"The data included in this document is from www.openstreetmap.org. The data is made available under ODbL."},"elements":[{"type":"node","id":1370813641,"lat":50.9790204,"lon":11.0252504,"tags":{"artwork_type":"mural","tourism":"artwork"}},{"type":"node","id":2954233223,"lat":51.1738592,"lon":11.4244641,"tags":{"artwork_type":"mural","tourism":"artwork"}},{"type":"node","id":2954233224,"lat":51.1733178,"lon":11.4239529,"tags":{"artwork_type":"mural","tourism":"artwork"}},{"type":"node","id":2954233225,"lat":51.1752626,"lon":11.4192087,"tags":{"artwork_type":"mural","tourism":"artwork"}},{"type":"node","id":2954276787,"lat":51.1770761,"lon":11.4206127,"tags":{"artwork_type":"mural","tourism":"artwork"}},{"type":"node","id":5295841439,"lat":51.0030907,"lon":11.3635242,"tags":{"artwork_type":"mural","material":"tiles","tourism":"artwork"}},{"type":"node","id":5340805859,"lat":51.0221238,"lon":11.5091089,"tags":{"addr:housenumber":"4","artist_name":"Christoph Hodgson","artwork_type":"mural","description":"Fassadengemälde","name":"Balkon der Prominenten","operator":"Wohnungssellschaft Apolda mbH","start_date":"2013-09-18","tourism":"artwork","website":"https://wg-apolda.de/apoldaerprominente/"}},{"type":"node","id":5340883227,"lat":51.0218364,"lon":11.5093262,"tags":{"addr:city":"Apolda","addr:housenumber":"7","addr:postcode":"99510","addr:street":"Alexanderstraße","artist_name":"Christoph Hodgson","artwork_type":"mural","description":"gebäudeübergreifendes Fassadengemälde","name":"Blumenmotive von Monet","start_date":"2012-07-09","tourism":"artwork","website":"https://wg-apolda.de/blumenmotive-monet-alexanderstrasse-0"}},{"type":"node","id":5340883228,"lat":51.0219166,"lon":11.5089086,"tags":{"addr:city":"Apolda","addr:housenumber":"6","addr:postcode":"99510","addr:street":"Alexanderstraße","artist_name":"Christoph Hodgson","artwork_type":"mural","description":"gebäudeübergreifendes Fassadengemälde","name":"Blumenmotive von Monet","start_date":"2012-07-09","tourism":"artwork","website":"https://wg-apolda.de/blumenmotive-monet-alexanderstrasse-0"}},{"type":"node","id":5340899190,"lat":51.0329721,"lon":11.5149101,"tags":{"addr:city":"Apolda","addr:housenumber":"27","addr:postcode":"99510","addr:street":"Buttstädter Straße","artist_name":"Christoph Hodgson","artwork_type":"mural","description":"Fassadengemälde","name":"Fassadengestaltung Buttstädter Straße","start_date":"2014-07","tourism":"artwork","website":"https://wg-apolda.de/fassadengestaltung-buttstaedter-strasse-0"}},{"type":"node","id":5658522538,"lat":51.0025978,"lon":11.3629884,"tags":{"artwork_type":"mural","tourism":"artwork"}},{"type":"node","id":6737828651,"lat":50.4191913,"lon":11.9856403,"tags":{"artwork_type":"mural","description":"Sehr schönes Putzschnitt-Wandbild des vogtländischen Künstlers Martin Schmidt. Rund 8 * 8 Meter großes DDR-Kunst-Wandbild an der Stirnseite des Schulgebäudes in 08538 Weischlitz OT Krebes, Kemnitzer Str. 3.","image":"https://commons.wikimedia.org/wiki/File:DDR-Kunst_Kindergarten_Krebes.jpg","tourism":"artwork","img_thumbnail":"node_6737828651_0.jpg"}},{"type":"node","id":6948694973,"lat":50.1157346,"lon":11.0523246,"tags":{"artist_name":"Michael Horn","artwork_type":"mural","start_date":"2015-07-10","tourism":"artwork","url":"https://www.artenschutz-steigerwald.de/de/Projekte/75628"}},{"type":"node","id":6948800444,"lat":50.6016333,"lon":10.5957722,"tags":{"artist_name":"Angelika Beuger","artwork_type":"mural","start_date":"2015","tourism":"artwork","website":"https://www.artenschutz-steigerwald.de/de/Projekte/75383/38/"}},{"type":"node","id":7177219759,"lat":50.9747456,"lon":11.3281252,"tags":{"artist_name":"Oskar Schlemmer","artwork_type":"mural","name":"Figurenfries","start_date":"1923 / 1979","tourism":"artwork"}},{"type":"node","id":8099846878,"lat":51.6465973,"lon":11.7255149,"tags":{"artist_name":"Michael Horn","artwork_type":"mural","start_date":"2020-07-19","tourism":"artwork","url":"https://www.artenschutz-steigerwald.de/de/Projekte/1026894/15/"}},{"type":"node","id":9106293394,"lat":50.0448282,"lon":10.2349475,"tags":{"artwork_type":"mural","name":"Impfbanane","tourism":"artwork"}},{"type":"node","id":9603196647,"lat":51.9413094,"lon":11.2164314,"tags":{"artwork_type":"mural","image":"https://flic.kr/p/2naqcHW","name":"Tarif für die Grönngen Oschersleben Neindorfer Chaussee","tourism":"artwork"}},{"type":"node","id":9700074711,"lat":51.4836345,"lon":11.9663493,"tags":{"artwork_type":"mural","name":"Wandbild","tourism":"artwork"}},{"type":"node","id":9826406201,"lat":50.9008849,"lon":11.5731256,"tags":{"artwork_type":"mural","name":"Eichhörnchen","tourism":"artwork"}},{"type":"node","id":9826406202,"lat":50.9001831,"lon":11.5776877,"tags":{"artwork_type":"mural","tourism":"artwork"}},{"type":"node","id":10787164220,"lat":50.9755767,"lon":10.3358632,"tags":{"artwork_subject":"Railway","artwork_type":"mural","tourism":"artwork"}},{"type":"node","id":10871172467,"lat":50.895877,"lon":10.3023486,"tags":{"artwork_type":"mural","name":"Zwei Katzen","tourism":"artwork"}},{"type":"node","id":10871172489,"lat":50.8930533,"lon":10.2991334,"tags":{"artwork_type":"mural","name":"Bäume","tourism":"artwork"}},{"type":"node","id":10874131841,"lat":50.8834578,"lon":10.4561627,"tags":{"artwork_type":"mural_painting","name":"ARCHE NOAH","tourism":"artwork"}},{"type":"node","id":10879151650,"lat":50.9810493,"lon":10.3141023,"tags":{"artwork_type":"mural","check_date":"2023-05-08","description":"Reproduktion eines Plattencovers der Beatles als Wand-Dekoration - etwa 15 x 10 m","name":"The Beatles","tourism":"artwork"}},{"type":"node","id":10890127153,"lat":50.9961466,"lon":10.2079246,"tags":{"artwork_type":"mural","check_date":"2023-05-12","name":"Bauernhof-Szene","tourism":"artwork"}},{"type":"node","id":11061646569,"lat":50.9133972,"lon":10.2055112,"tags":{"artwork_type":"mural","check_date":"2023-07-22","tourism":"artwork"}},{"type":"node","id":11061646570,"lat":50.9167121,"lon":10.2062883,"tags":{"artwork_type":"mural","check_date":"2023-07-22","image":"https://commons.wikimedia.org/wiki/File:Marksuhl_Bild26.JPG","tourism":"artwork","img_thumbnail":"node_11061646570_0.jpg"}},{"type":"node","id":11075001839,"lat":51.0062708,"lon":10.4927813,"tags":{"artwork_type":"mural","check_date":"2023-07-29","name":"Bäuerliches Motiv","tourism":"artwork"}},{"type":"node","id":11093818966,"lat":50.9732242,"lon":10.3202543,"tags":{"artwork_type":"mural","check_date":"2023-08-06","description":"Martin Luthers Kopf als Blickfang an der Südfassade","name":"Luther","tourism":"artwork"}},{"type":"node","id":11104540640,"lat":51.4701412,"lon":11.9659475,"tags":{"artwork_type":"mural","name":"Wonderful Women Wall","tourism":"artwork"}},{"type":"node","id":11173677310,"lat":50.7225064,"lon":10.4523377,"tags":{"artwork_type":"mural","tourism":"artwork"}},{"type":"node","id":11173677311,"lat":50.7223006,"lon":10.4523283,"tags":{"artwork_type":"mural","tourism":"artwork"}},{"type":"node","id":11173677312,"lat":50.7206557,"lon":10.4500463,"tags":{"artwork_type":"mural","tourism":"artwork"}},{"type":"node","id":11173677313,"lat":50.7216177,"lon":10.4494362,"tags":{"artist_name":"Mariusz Waras - M-city","artwork_type":"mural","tourism":"artwork"}},{"type":"node","id":11173677314,"lat":50.7234236,"lon":10.4527126,"tags":{"artist_name":"Jens Müller - TASSO","artwork_type":"mural","name":"Köpfe der Reformation","tourism":"artwork"}},{"type":"node","id":11174460554,"lat":50.7214643,"lon":10.4541419,"tags":{"artist_name":"Alin Mor","artwork_type":"mural","name":"The Revival","tourism":"artwork"}},{"type":"node","id":11176483761,"lat":50.7191683,"lon":10.4688751,"tags":{"artwork_type":"mural","tourism":"artwork"}},{"type":"node","id":11176483767,"lat":50.7220983,"lon":10.4539693,"tags":{"artist_name":"Falk Lehmann - AKUT","artwork_type":"mural","name":"Magda Brown","tourism":"artwork"}},{"type":"node","id":11176524723,"lat":50.7198577,"lon":10.4707897,"tags":{"artist_name":"Andreas von Chrzanowski - CASE","artwork_type":"mural","name":"Distant Natives","tourism":"artwork"}},{"type":"node","id":11176524724,"lat":50.7199013,"lon":10.4588614,"tags":{"artist_name":"Addam Yekutieli - Know Hope","artwork_type":"mural","name":"The flock of Birds","tourism":"artwork"}},{"type":"node","id":11176527238,"lat":50.7253765,"lon":10.4525501,"tags":{"artist:wikipedia":"Giacomo Bufarini","artist_name":"Giacomo Bufarini \"RUN\"","artwork_type":"mural","name":"A dream in ultramraine","tourism":"artwork"}},{"type":"node","id":11176527243,"lat":50.7200945,"lon":10.4653349,"tags":{"artist_name":"Herakut","artwork_type":"mural","tourism":"artwork"}},{"type":"node","id":11182853992,"lat":50.9747159,"lon":11.0426798,"tags":{"artwork_type":"mural","tourism":"artwork"}},{"type":"node","id":11182853993,"lat":50.9729012,"lon":11.0443996,"tags":{"artwork_type":"mural","tourism":"artwork"}},{"type":"node","id":11182853994,"lat":50.9778586,"lon":11.03032,"tags":{"artwork_type":"mural","tourism":"artwork"}},{"type":"node","id":11182853995,"lat":50.9855361,"lon":11.0340394,"tags":{"artwork_type":"mural","tourism":"artwork"}},{"type":"node","id":11182921591,"lat":50.9931959,"lon":11.033851,"tags":{"artwork_type":"mural","tourism":"artwork"}},{"type":"node","id":11193516902,"lat":50.9805451,"lon":11.0335828,"tags":{"artwork_type":"mural","image":"https://i.imgur.com/acqBNp8.jpg","tourism":"artwork","img_thumbnail":"node_11193516902_0.jpg"}},{"type":"node","id":11193589571,"lat":50.9805405,"lon":11.0334312,"tags":{"artwork_type":"mural","image":"https://i.imgur.com/kmF9bc6.jpg","image:0":"https://i.imgur.com/Uzj8hsG.jpg","tourism":"artwork","img_thumbnail":"node_11193589571_0.jpg"}},{"type":"node","id":11193712357,"lat":50.9757028,"lon":11.0391068,"tags":{"artwork_type":"mural","image":"https://i.imgur.com/ouNAadh.jpg","tourism":"artwork","img_thumbnail":"node_11193712357_0.jpg"}},{"type":"node","id":11241926410,"lat":50.8136727,"lon":10.2374117,"tags":{"artwork_type":"mural","description":"Das Wandbild zeigt auf der Ostfassade des Hauses Steinweg 26 eine bäuerlich gekleidete kniende junge Frau in einem Feld. Die Abbildung erinnert an Abbildungen aus Zeitungen der 1950er Jahre.","name":"Wenn man die Spreu vom Weizen trennt ...","tourism":"artwork"}},{"type":"node","id":11263049075,"lat":51.0778803,"lon":10.3195102,"tags":{"artwork_type":"mural","check_date":"2023-10-14","image":"https://commons.wikimedia.org/wiki/File:Mihla_Bild185.JPG","name":"Idyllische Landschaft","tourism":"artwork","img_thumbnail":"node_11263049075_0.jpg"}},{"type":"node","id":11277148734,"lat":50.9670573,"lon":10.360276,"tags":{"artwork_type":"mural","check_date":"2023-10-20","description":"Vollflächig gestaltete Fassade  des Jugendclubs East End mit dem Vereinslogo und weiteren Grafik-Motiven.","name":"EAST END","tourism":"artwork"}},{"type":"node","id":11283885827,"lat":50.8321884,"lon":10.2873907,"tags":{"artwork_type":"mural","check_date":"2023-10-23","image":"https://commons.wikimedia.org/wiki/File:Gumpelstadt_Bild01.JPG","name":"Naturidylle","tourism":"artwork","img_thumbnail":"node_11283885827_0.jpg"}},{"type":"node","id":11329969159,"lat":51.4814478,"lon":11.966605,"tags":{"artwork_type":"mural","name":"Hallesche Mundart","tourism":"artwork","wikimedia_commons":"File:Dreyhauptstr1 mural.JPG"}},{"type":"node","id":11498494989,"lat":51.7900229,"lon":10.9538451,"tags":{"artist_name":"Hans Gall und Schüler der POS Rudolf Claus","artwork_type":"mural","tourism":"artwork"}},{"type":"way","id":64238645,"bounds":{"minlat":50.6833799,"minlon":11.2642176,"maxlat":50.6834614,"maxlon":11.2643602},"nodes":[791276472,791276625,791276689,791276534,791276472],"geometry":[{"lat":50.6834614,"lon":11.264247},{"lat":50.6834386,"lon":11.2643602},{"lat":50.6833799,"lon":11.2643308},{"lat":50.6834027,"lon":11.2642176},{"lat":50.6834614,"lon":11.264247}],"tags":{"artwork_type":"mural","building":"yes","building:levels":"1","operator":"E.ON","power":"substation","tourism":"artwork"}},{"type":"way","id":93872160,"bounds":{"minlat":50.663506,"minlon":11.5677648,"maxlat":50.663558,"maxlon":11.5678239},"nodes":[707146727,2183269038,707146728,705091139],"geometry":[{"lat":50.663506,"lon":11.5678239},{"lat":50.6635266,"lon":11.5678005},{"lat":50.6635505,"lon":11.5677734},{"lat":50.663558,"lon":11.5677648}],"tags":{"artwork_type":"mural","barrier":"wall","height":"3","tourism":"artwork"}},{"type":"way","id":1206829364,"bounds":{"minlat":51.0050936,"minlon":11.0150925,"maxlat":51.0054699,"maxlon":11.0156705},"nodes":[10223602531,1880694914,2046161284,10223602535,10223602551,887945651,887945630,1913949639,9444872668,2046161281,1913949665,10223602545,10223602532],"geometry":[{"lat":51.005102,"lon":11.0152804},{"lat":51.0050936,"lon":11.0152385},{"lat":51.0051197,"lon":11.0152254},{"lat":51.0052757,"lon":11.0151469},{"lat":51.0053214,"lon":11.0151239},{"lat":51.0053838,"lon":11.0150925},{"lat":51.0054396,"lon":11.0153725},{"lat":51.0054699,"lon":11.0155245},{"lat":51.0052575,"lon":11.0156314},{"lat":51.0052041,"lon":11.0156582},{"lat":51.0051797,"lon":11.0156705},{"lat":51.0051764,"lon":11.0156539},{"lat":51.0051719,"lon":11.0156312}],"tags":{"artwork_type":"mural","tourism":"artwork"}}]}