{"version":0.6,"generator":"Overpass API 0.7.61.5 4133829e","osm3s":{"timestamp_osm_base":"2024-02-19T09:45:44Z","copyright":"The data included in this document is from www.openstreetmap.org. The data is made available under ODbL."},"elements":[{"type":"node","id":774659676,"lat":52.494397,"lon":13.3587074,"tags":{"artist_name":"Gert and Daniel Neuhaus","artwork_type":"mural","name":"Pallasseum","start_date":"2016","tourism":"artwork"}},{"type":"node","id":3391940827,"lat":52.4994581,"lon":13.2884954,"tags":{"artist_name":"Kobe Eins","artwork_type":"mural","tourism":"artwork"}},{"type":"node","id":3609724210,"lat":52.4535708,"lon":13.620825,"tags":{"artwork_type":"mural","tourism":"artwork"}},{"type":"node","id":3609724218,"lat":52.4540617,"lon":13.6208695,"tags":{"artwork_type":"mural","tourism":"artwork"}},{"type":"node","id":3712887288,"lat":52.494378,"lon":13.3622601,"tags":{"artwork_type":"mural","tourism":"artwork","wikidata":"Q113805546"}},{"type":"node","id":3713588210,"lat":52.5052299,"lon":13.3223327,"tags":{"artist_name":"Ute Lindner","artwork_type":"mural","lit":"yes","name":"Through the Looking Glass","tourism":"artwork"}},{"type":"node","id":4066702539,"lat":52.5162765,"lon":13.4938738,"tags":{"artwork_type":"mural","name":"Lichtenberg um 1780","tourism":"artwork"}},{"type":"node","id":4161715190,"lat":52.499731,"lon":13.4229686,"tags":{"addr:city":"Berlin","addr:housenumber":"195","addr:postcode":"10999","addr:street":"Oranienstraße","artist_name":"Victor Ash","artwork_type":"mural","name":"Cosmonaut","start_date":"2007","tourism":"artwork","website":"https://www.victorash.com"}},{"type":"node","id":4213705915,"lat":52.5165098,"lon":13.3803086,"tags":{"artwork_type":"mural","description":"Historische Zitate zur Erinnerung an die Teilung Berlins","level":"-2;-3","tourism":"artwork"}},{"type":"node","id":4329818349,"lat":52.5260652,"lon":13.4007155,"tags":{"artwork_type":"mural","direction":"210","tourism":"artwork"}},{"type":"node","id":4770676793,"lat":52.576849,"lon":13.2769642,"tags":{"artist_name":"The London Police","artwork_type":"mural","note":"Urban Nation - M/9 Colors","start_date":"2016","tourism":"artwork"}},{"type":"node","id":4770676794,"lat":52.5768414,"lon":13.2768432,"tags":{"artist_name":"The London Police","artwork_type":"mural","note":"Urban Nation - M/9 Colors","start_date":"2016","tourism":"artwork"}},{"type":"node","id":4770676795,"lat":52.5773324,"lon":13.2769814,"tags":{"artist_name":"Jim Avignon","artwork_type":"mural","name":"Ballon","note":"Urban Nation - M/9 Colors","start_date":"2020","tourism":"artwork","wikidata":"Q111660935","wikimedia_commons":"Category:Mural (Jim Avignon, ArtPark Tegel)"}},{"type":"node","id":4770676796,"lat":52.5773458,"lon":13.2768567,"tags":{"artist_name":"Jim Avignon","artwork_type":"mural","name":"Ballon","note":"Urban Nation - M/9 Colors","start_date":"2020","tourism":"artwork","wikidata":"Q111660935","wikimedia_commons":"Category:Mural (Jim Avignon, ArtPark Tegel)"}},{"type":"node","id":4770676797,"lat":52.5772846,"lon":13.2757669,"tags":{"artist_name":"Collin van der Sluijs und Super A","artwork_type":"mural","note":"Urban Nation - M/9 Colors","start_date":"2016","tourism":"artwork"}},{"type":"node","id":4770676798,"lat":52.5772752,"lon":13.2756415,"tags":{"artist_name":"Collin van der Sluijs und Super A","artwork_type":"mural","note":"Urban Nation - M/9 Colors","start_date":"2016","tourism":"artwork"}},{"type":"node","id":4770676799,"lat":52.5767776,"lon":13.2757479,"tags":{"artist_name":"Hownosm","artwork_type":"mural","note":"Urban Nation - M/9 Colors","start_date":"2016","tourism":"artwork"}},{"type":"node","id":4770676801,"lat":52.5765816,"lon":13.2725054,"tags":{"artist_name":"Pixel Pancho","artwork_type":"mural","note":"Urban Nation - M/9 Colors","start_date":"2016","tourism":"artwork"}},{"type":"node","id":4770676802,"lat":52.576587,"lon":13.2726322,"tags":{"artist_name":"Pixel Pancho","artwork_type":"mural","note":"Urban Nation - M/9 Colors","start_date":"2016","tourism":"artwork"}},{"type":"node","id":4770676803,"lat":52.5760793,"lon":13.2726062,"tags":{"artist_name":"Fintan Magee","artwork_type":"mural","description":"Summer Of Peace","note":"Urban Nation - M/9 Colors","start_date":"2016","tourism":"artwork"}},{"type":"node","id":4770676804,"lat":52.5760932,"lon":13.2724871,"tags":{"artist_name":"Fintan Magee","artwork_type":"mural","description":"Summer Of Peace","note":"Urban Nation - M/9 Colors","start_date":"2016","tourism":"artwork"}},{"type":"node","id":4770687344,"lat":52.5058794,"lon":13.4121529,"tags":{"artist_name":"Various & Gould","artwork_type":"mural","image":"https://commons.wikimedia.org/wiki/File:Wandmalerei_Heinrich-Heine-Str_73_(Mitte)_Face_Time%26Various_Gould%262015.jpg","name":"Face Time","start_date":"2015","tourism":"artwork","wikidata":"Q121221759","img_thumbnail":"node_4770687344_0.jpg"}},{"type":"node","id":4770687345,"lat":52.5113262,"lon":13.4161827,"tags":{"artist_name":"CASE Maclaim","artwork_type":"mural","image":"File:Graffiti_Berlin.jpg","name":"Unter der Hand","start_date":"2014","tourism":"artwork","wikidata":"Q113578738","wikimedia_commons":"Category:Unter der Hand (Case Maclaim)"}},{"type":"node","id":4878567250,"lat":52.3379078,"lon":13.0977806,"tags":{"artist_name":"street artist","artwork_type":"mural","name":"Milan-Wandgemälde","tourism":"artwork"}},{"type":"node","id":4887636155,"lat":52.3487439,"lon":13.0982841,"tags":{"artist_name":"street art","artwork_type":"mural","name":"Mural Tannenzapfen","tourism":"artwork"}},{"type":"node","id":4887636156,"lat":52.3492901,"lon":13.0994023,"tags":{"artist_name":"street art","artwork_type":"mural","name":"Mural Rehkitz","tourism":"artwork"}},{"type":"node","id":4909155615,"lat":52.5707105,"lon":13.5720542,"tags":{"artist_name":"Lothar Gericke","artwork_type":"mural","name":"Studie zu Goethes Farbenlehre","start_date":"1999","tourism":"artwork","wikidata":"Q119496109","wikimedia_commons":"Category:Studie zu Goethes Farbenlehre (Lothar Gericke)"}},{"type":"node","id":4941891932,"lat":52.5141554,"lon":13.4014435,"tags":{"artist_name":"Walter Womacka","artwork_type":"mural","image":"File:Wandmosaik womacka der mensch das mass aller-dinge.jpg","name":"Der Mensch, das Maß aller Dinge","tourism":"artwork"}},{"type":"node","id":5131978883,"lat":52.5767876,"lon":13.2756004,"tags":{"artist_name":"Hownosm","artwork_type":"mural","note":"Urban Nation - M/9 Colors","start_date":"2016","tourism":"artwork"}},{"type":"node","id":5199808897,"lat":52.3971443,"lon":13.0593109,"tags":{"artist_name":"Kurt-Hermann Kühn","artwork_type":"mural","bldam:criteria":"Einzeldenkmal","description":"Wandgemälde mit Szenen aus dem Spartacusaufstand, dem Bauernkrieg, der franz. Revolution, der März- und der Oktoberrevolution.","heritage":"4","heritage:operator":"bldam","heritage:website":"https://ns.gis-bldam-brandenburg.de/hida4web/view?docId=obj09155224.xml","historic":"exhibit","name":"Erben des Spartacus","ref:bldam":"09155224","start_date":"1974","tourism":"artwork","year_of_construction":"1971..1974"}},{"type":"node","id":5741223563,"lat":52.3951186,"lon":13.0640225,"tags":{"artist_name":"Walter Funcke;Hiltrud Berndt","artwork_type":"mural","bldam:criteria":"Skulptur","height":"1.80","heritage":"4","heritage:operator":"bldam","heritage:website":"https://ns.gis-bldam-brandenburg.de/hida4web/view?docId=obj09156106.xml","material":"bronze","name":"Ziermauern aus Beton","ref:bldam":"09157267","start_date":"1973","tourism":"artwork","wheelchair":"yes","wikimedia_commons":"Category:Ziermauern (Walter Funcke und Hiltrud Berndt, Potsdam)"}},{"type":"node","id":5741223564,"lat":52.3949052,"lon":13.0635729,"tags":{"artist:wikidata":"Q1729973","artist:wikipedia":"de:Karl-Heinz Schamal","artist_name":"Christian Roehl","artwork_type":"mural","bldam:criteria":"Skulptur","height":"1.80","heritage":"4","heritage:operator":"bldam","heritage:website":"https://ns.gis-bldam-brandenburg.de/hida4web/view?docId=obj09156106.xml","image":"https://upload.wikimedia.org/wikipedia/commons/6/6f/Freundschaftsinsel_Potsdam_Skulptur_G%C3%A4rtnerjunge.jpg","material":"bronze","name":"Florales Gitter","ref:bldam":"09157267","start_date":"1972","tourism":"artwork","wheelchair":"yes","img_thumbnail":"node_5741223564_0.jpg"}},{"type":"node","id":5741223565,"lat":52.3950113,"lon":13.0639474,"tags":{"artist_name":"Hedwig Bollhagen","artwork_type":"mural","bldam:criteria":"Skulptur","height":"1.80","heritage":"4","heritage:operator":"bldam","heritage:website":"https://ns.gis-bldam-brandenburg.de/hida4web/view?docId=obj09156106.xml","material":"bronze","name":"Ziermauer (Garten-Freiraumteiler)","ref:bldam":"09157267","start_date":"1973","tourism":"artwork","wheelchair":"yes","wikimedia_commons":"Category:Ziermauer (Hedwig Bollhagen, Potsdam)"}},{"type":"node","id":5741223566,"lat":52.3953651,"lon":13.0640693,"tags":{"artist_name":"Egin-Igor Wrobel","artwork_type":"mural","bldam:criteria":"Skulptur","height":"1.80","heritage":"4","heritage:operator":"bldam","heritage:website":"https://ns.gis-bldam-brandenburg.de/hida4web/view?docId=obj09156106.xml","material":"bronze","name":"Schmuckmauer","ref:bldam":"09157267","start_date":"1973","tourism":"artwork","wheelchair":"yes","wikimedia_commons":"Category:Schmuckmauer (Egon-Igor Wrobel, Potsdam)"}},{"type":"node","id":5776485953,"lat":52.5313942,"lon":13.3429669,"tags":{"artist:wikidata":"Q28406050","artist_name":"Herakut;Onur;Wes21","artwork_subject":"figurative","artwork_type":"mural","image":"File:Wandmalerei Stromstr 36 (Moabi) As long ase you are standing&Onur Wes21 Herakut&2018.jpg","inscription:de":"Solange Du|aufrecht stehst,|stütze die, die|Dich brauchen.","inscription:en":"As long as you are|standing, give a hand|to those who have|fallen.","inscription:tr":"Var olduğun|sürece zor|durumda|olanlara yardum|elini uzat.","start_date":"2018","tourism":"artwork","wheelchair":"yes","wikidata":"Q111108265","wikimedia_commons":"Category:As long as you are standing give at hand to those who have fallen"}},{"type":"node","id":5839518757,"lat":52.5094321,"lon":13.4516825,"tags":{"artist_name":"MTO","artwork_type":"mural","tourism":"artwork","wikidata":"Q111147544","wikimedia_commons":"Category:MTO (Berlin Mural Fest 2018)"}},{"type":"node","id":5993091425,"lat":52.4704899,"lon":13.1020464,"tags":{"artwork_type":"mural","tourism":"artwork"}},{"type":"node","id":6087575021,"lat":52.5502352,"lon":13.484288,"tags":{"artist_name":"Angelika Görner und Heidi Sabelus","artwork_type":"mural","image":"https://commons.wikimedia.org/wiki/File:Orankesee_Berlin_2022-03-05_1.jpg","material":"keramik","name":"Badende","source":"local knowledge;aerial imagery;streetlevel imagery","start_date":"1974","tourism":"artwork","website":"https://www.hörenschönhausen.de/02","wikidata":"Q122190051","img_thumbnail":"node_6087575021_0.jpg"}},{"type":"node","id":6436609291,"lat":52.497066,"lon":13.3644564,"tags":{"artist:wikidata":"Q5203218","artist_name":"D*Face","artwork_type":"mural","image":"https://photos.app.goo.gl/tQAxUEc37kbo9QiJ7","tourism":"artwork","wikidata":"Q111685245","wikimedia_commons":"File:Shepard-Fairey Berlin Bülowstraße.jpg","img_thumbnail":"node_6436609291_0.jpg"}},{"type":"node","id":6436744713,"lat":52.4970796,"lon":13.3642997,"tags":{"artist:wikidata":"Q55519137","artist_name":"Berlin Kidz","artwork_type":"mural","image":"https://photos.app.goo.gl/cJZQ8i2KYjJh2KnM8","tourism":"artwork","wikidata":"Q111701914","img_thumbnail":"node_6436744713_0.jpg"}},{"type":"node","id":6436744714,"lat":52.4970982,"lon":13.3642519,"tags":{"artist:wikidata":"Q28499848","artist_name":"1UP","artwork_type":"mural","image":"https://photos.app.goo.gl/iJVmB2N1n5cAduXu6","tourism":"artwork","wikidata":"Q111701862","img_thumbnail":"node_6436744714_0.jpg"}},{"type":"node","id":6436744715,"lat":52.4971043,"lon":13.3641994,"tags":{"artist:wikidata":"Q111699040","artist_name":"James Bullough","artwork_type":"mural","image":"https://photos.app.goo.gl/1kSEXxT9kdG1oBvw6","tourism":"artwork","wikidata":"Q111699006","img_thumbnail":"node_6436744715_0.jpg"}},{"type":"node","id":6436744716,"lat":52.4971407,"lon":13.3641022,"tags":{"artist_name":"2501","artwork_type":"mural","image":"https://photos.app.goo.gl/DHpnZSkrAjekeZuh9","tourism":"artwork","wikidata":"Q111702701","img_thumbnail":"node_6436744716_0.jpg"}},{"type":"node","id":6436744726,"lat":52.4970449,"lon":13.3645056,"tags":{"artist:wikidata":"Q1332698","artist_name":"Shepard Fairey","artwork_type":"mural","image":"https://photos.app.goo.gl/tQAxUEc37kbo9QiJ7","tourism":"artwork","wikidata":"Q111685279","wikimedia_commons":"File:Shepard-Fairey Berlin Bülowstraße.jpg","img_thumbnail":"node_6436744726_0.jpg"}},{"type":"node","id":6436744727,"lat":52.4970118,"lon":13.3647945,"tags":{"artist_name":"Word to Mother","artwork_type":"mural","image":"https://photos.app.goo.gl/RvJjaeX1WABgK7cX8","tourism":"artwork","wikidata":"Q111686571","img_thumbnail":"node_6436744727_0.jpg"}},{"type":"node","id":6436744728,"lat":52.4970259,"lon":13.3647275,"tags":{"artist_name":"Cyrcle","artwork_type":"mural","image":"https://photos.app.goo.gl/v4yQY2tWwe512knZA","tourism":"artwork","wikidata":"Q111696189","img_thumbnail":"node_6436744728_0.jpg"}},{"type":"node","id":6769516677,"lat":52.4575556,"lon":13.5168341,"tags":{"artist_name":"Leni Schamal","artwork_type":"mural","material":"ceramic","name":"Fassadengestaltung","start_date":"1968","tourism":"artwork"}},{"type":"node","id":6894879149,"lat":52.6592707,"lon":12.3863938,"tags":{"artist_name":"Enrico Schönfeld","artwork_type":"mural","name":"Schleiereulen","tourism":"artwork"}},{"type":"node","id":6896101795,"lat":52.6591634,"lon":12.3542502,"tags":{"artist_name":"360 Art","artwork_type":"mural","name":"Sternenpark Westhavelland - seit 2014","start_date":"2019-08","tourism":"artwork"}},{"type":"node","id":6896101796,"lat":52.6591587,"lon":12.354208,"tags":{"artist_name":"360 Art","artwork_type":"mural","name":"Naturpark Westhavelland / 1998 - 20 Jahre - 2018","start_date":"2019-08","tourism":"artwork"}},{"type":"node","id":6937692185,"lat":52.5013409,"lon":13.388981,"tags":{"artwork_type":"mural","tourism":"artwork","wheelchair":"yes"}},{"type":"node","id":6937692285,"lat":52.5010441,"lon":13.3897331,"tags":{"artist_name":"Jadore Tong","artwork_type":"mural","image":"https://commons.wikimedia.org/wiki/File:Wandmalerei_Wilhelmstr_7_(Kreuz)_Elefant%26Jadore_Tong%262016.jpg","name":"Elefant mit Weltballon","start_date":"2016","tourism":"artwork","wikidata":"Q113137328","wikimedia_commons":"Category:Wandmalerei Elefant Wilhelmstraße 7, Berlin","img_thumbnail":"node_6937692285_0.jpg"}},{"type":"node","id":6937692385,"lat":52.5016297,"lon":13.3891778,"tags":{"artwork_type":"mural","tourism":"artwork"}},{"type":"node","id":6950486087,"lat":52.5034652,"lon":13.3048257,"tags":{"artist_name":"Alfalfa aka Nicolás Sánchez","artwork_type":"mural","name":"Göttin","tourism":"artwork","wikidata":"Q111588399"}},{"type":"node","id":6950486088,"lat":52.5041358,"lon":13.3035214,"tags":{"artist_name":"Herakut","artwork_type":"mural","name":"See me","start_date":"2019-11","tourism":"artwork"}},{"type":"node","id":6952483870,"lat":52.5768961,"lon":13.2738995,"tags":{"artist_name":"Bustart","artwork_type":"mural","name":"Departure","start_date":"2020","tourism":"artwork","wikidata":"Q111657937","wikimedia_commons":"Category:Departure (Bustart)"}},{"type":"node","id":6952483871,"lat":52.5768891,"lon":13.2737441,"tags":{"artist_name":"Bustart","artwork_type":"mural","name":"Departure","start_date":"2020","tourism":"artwork","wikidata":"Q111657937","wikimedia_commons":"Category:Departure (Bustart)"}},{"type":"node","id":6952483872,"lat":52.5763893,"lon":13.2738677,"tags":{"artist_name":"Tankpetrol & Queenkong","artwork_type":"mural","name":"2268miles & Luchadora Pachamama","start_date":"2019-07","tourism":"artwork"}},{"type":"node","id":6952483873,"lat":52.5764019,"lon":13.273724,"tags":{"artist_name":"Tankpetrol & Queenkong","artwork_type":"mural","name":"2268miles & Luchadora Pachamama","start_date":"2019-07","tourism":"artwork"}},{"type":"node","id":6966490134,"lat":52.5333877,"lon":13.3273084,"tags":{"artist_name":"Herakut","artwork_type":"mural","image":"https://photos.app.goo.gl/PXNLMVnABAvjkZtw6","tourism":"artwork","img_thumbnail":"node_6966490134_0.jpg"}},{"type":"node","id":7008507353,"lat":53.9684508,"lon":12.7055684,"tags":{"artist_name":"Art-EFX","artwork_type":"mural","motive":"Tante-Emma-Laden","mural:type":"graffiti","source":"http://www.trafoturm.eu/deutschland/meckpomm/rostock/gnoien/","start_date":"2012","tourism":"artwork"}},{"type":"node","id":7635972890,"lat":52.3086212,"lon":13.2307726,"tags":{"artwork_type":"mural","name":"Geschichte der Nachrichtenübermittlung","start_date":"1981","tourism":"artwork","wikidata":"Q92203185"}},{"type":"node","id":7815197793,"lat":52.4968671,"lon":13.2399286,"tags":{"artwork_type":"mural","tourism":"artwork"}},{"type":"node","id":7815197795,"lat":52.4980674,"lon":13.2404674,"tags":{"artwork_type":"mural","tourism":"artwork"}},{"type":"node","id":7857667985,"lat":52.5038479,"lon":13.4428096,"tags":{"alt_name":"Der Bruderkuss","artist_name":"Dmitri Wrubel","artwork_type":"mural","image":"https://photos.app.goo.gl/rqym46vPNnPB6ch1A","name":"Mein Gott, hilf mir, diese tödliche Liebe zu überleben","name:ru":"Господи! Помоги мне выжить среди этой смертной любви","tourism":"artwork","url":"https://www.eastsidegalleryexhibition.com/artworks/vrubel-mein-gott-hilf-mir-diese-toedliche-liebe-zu-ueberleben/","wikidata":"Q2410932","wikimedia_commons":"File:Bundesarchiv B 145 Bild-F088809-0038, Berlin, East Side Gallery.jpg","img_thumbnail":"node_7857667985_0.jpg"}},{"type":"node","id":8091450449,"lat":52.7528373,"lon":13.2265492,"tags":{"artwork_type":"mural","tourism":"artwork"}},{"type":"node","id":8557151345,"lat":52.5001083,"lon":13.4408629,"tags":{"artist_name":"Os Gêmeos","artwork_type":"mural","name":"Yellow Man","start_date":"2005","tourism":"artwork"}},{"type":"node","id":8557281793,"lat":52.5035898,"lon":13.438027,"tags":{"artist_name":"Blu","artwork_type":"mural","start_date":"2010","tourism":"artwork"}},{"type":"node","id":8557281794,"lat":52.5417525,"lon":13.4407424,"tags":{"artist_name":"Herakut","artwork_type":"mural","image":"https://commons.wikimedia.org/wiki/File:Wandmalerei_Greifswalder_Str_87_(Prenz)_Wenn_ich_w%C3%BCsste%26Herakut%262015.jpg","name":"Wenn ich wüsste dass..","start_date":"2016","tourism":"artwork","wikidata":"Q122150040","img_thumbnail":"node_8557281794_0.jpg"}},{"type":"node","id":8557281795,"lat":52.529627,"lon":13.4591012,"tags":{"artist_name":"Ricky Lee Gordon","artwork_type":"mural","name":"Die Sonne wird im Ozean versinken","start_date":"2017","tourism":"artwork","wikidata":"Q113817159","wikimedia_commons":"File:Mural Die Sonne wird im Ozean versinken by Ricky Lee Gordon in Berlin-Prenzlauer Berg.jpg"}},{"type":"node","id":8557281796,"lat":52.5075512,"lon":13.4512104,"tags":{"artist_name":"Low Bros","artwork_type":"mural","name":"Check Your Privilege","start_date":"2020","tourism":"artwork"}},{"type":"node","id":8557323491,"lat":52.5073752,"lon":13.4544431,"tags":{"artist_name":"Lake","artwork_type":"mural","tourism":"artwork"}},{"type":"node","id":8631318558,"lat":52.5284099,"lon":13.4257003,"tags":{"artist_name":"Tristan Eaton","artwork_type":"mural","name":"Attack of the 50 Foot Socialite","start_date":"2015","tourism":"artwork","wikidata":"Q113563086","wikimedia_commons":"Category:Attack of the 50 Foot Socialite (Tristan Eaton)"}},{"type":"node","id":8631541708,"lat":52.5110152,"lon":13.427794,"tags":{"artist_name":"Cranio","artwork_type":"mural","image":"https://photos.app.goo.gl/fHF54XVgT9PbvDUY7","name":"The Blue Indian","tourism":"artwork","img_thumbnail":"node_8631541708_0.jpg"}},{"type":"node","id":8631541709,"lat":52.5113689,"lon":13.4271994,"tags":{"artist_name":"WENU","artwork_type":"mural","name":"No Title","start_date":"2016","tourism":"artwork"}},{"type":"node","id":8631541710,"lat":52.5112498,"lon":13.4271977,"tags":{"artist:wikidata":"Q2395268","artist_name":"TASSO","artwork_type":"mural","image":"https://photos.app.goo.gl/iFermshcfq7QnEAy7","start_date":"2018","tourism":"artwork","wikidata":"Q111204693","wikimedia_commons":"Category:Tasso (Berlin Mural Fest 2018)","img_thumbnail":"node_8631541710_0.jpg"}},{"type":"node","id":8631546850,"lat":52.5047247,"lon":13.4305689,"tags":{"artist_name":"TANK","artwork_type":"mural","name":"Lady With Bird","start_date":"2018","tourism":"artwork","wikidata":"Q111154861","wikimedia_commons":"Category:Tank (Berlin Mural Fest 2018)"}},{"type":"node","id":8631556763,"lat":52.5181054,"lon":13.4570485,"tags":{"artist_name":"Liebig 34","artwork_type":"mural","description":"Großflächiges Graffiti an der Brandmauer des im Jahr 2020 unter Protesten geräumten  ehemaligen selbstorgansierten anarcha-queer-feministischen Wohnprojektes.","image":"https://commons.wikimedia.org/wiki/File:Liebigstra%C3%9Fe_34_in_Berlin_(Nordseite).jpg","inscription":"SMASH THE STATE. MASTURBATE","name":"Smash The State","tourism":"artwork","img_thumbnail":"node_8631556763_0.jpg"}},{"type":"node","id":8632312861,"lat":52.5221956,"lon":13.3253662,"tags":{"artwork_type":"mural","tourism":"artwork"}},{"type":"node","id":8641523335,"lat":52.5086313,"lon":13.4494763,"tags":{"artist_name":"Pase, Dr.Drax, Akte One, Kobe","artwork_type":"mural","name":"Swiss Made","tourism":"artwork","wikidata":"Q111083172","wikimedia_commons":"Category:Swiss Made (Mural)"}},{"type":"node","id":8660507740,"lat":52.5328822,"lon":13.4832135,"tags":{"artist_name":"James Bullough, Addison Karl","artwork_type":"mural","name":"Totem","start_date":"2014","tourism":"artwork","wikidata":"Q113817400","wikimedia_commons":"Category:Totem (James Bullough, Addison Karl)"}},{"type":"node","id":8978078504,"lat":52.5010358,"lon":13.3922323,"tags":{"artist_name":"PichiAvo","artwork_type":"mural","description":"Wandmalerei anläßlich des Berlin-Mural-Festes 2019.","image":"https://commons.wikimedia.org/wiki/File:Wandmalerei_Friedrichstr_9_(Kreuz)_Mural%26PichiAvo%262019.jpg","start_date":"2019","tourism":"artwork","wikidata":"Q111035373","wikimedia_commons":"Category:PichiAvo (Berlin Mural Fest 2019)","img_thumbnail":"node_8978078504_0.jpg"}},{"type":"node","id":9000743900,"lat":52.501003,"lon":13.3916907,"tags":{"artist_name":"Aryz","artwork_type":"mural","description":"Wandmalerei anläßlich des Berlin-Mural-Festes 2019.","image":"https://commons.wikimedia.org/wiki/File:Wandmalerei_Friedrichstr_9_(Kreuz)_Mural%26Aryz%262019.jpg","start_date":"2019","tourism":"artwork","wikidata":"Q111036858","wikimedia_commons":"Category:Aryz (Berlin Mural Fest 2019)","img_thumbnail":"node_9000743900_0.jpg"}},{"type":"node","id":9024702240,"lat":52.5061413,"lon":13.340758,"tags":{"artwork_type":"mural","name":"Polacanthus","tourism":"artwork"}},{"type":"node","id":9024702251,"lat":52.5061163,"lon":13.3407596,"tags":{"artwork_type":"mural","name":"Ammoniten","tourism":"artwork"}},{"type":"node","id":9084230055,"lat":52.686729,"lon":13.2822985,"tags":{"artist_name":"Alexander Dik","artwork_type":"mural","name":"Elements of Yellow","tourism":"artwork"}},{"type":"node","id":9084230056,"lat":52.6865143,"lon":13.2820209,"tags":{"artist_name":"Zâine Brockmeyer-Barbosa","artwork_type":"mural","name":"Poetisches Weltbild I_22","tourism":"artwork"}},{"type":"node","id":9106180670,"lat":52.5000937,"lon":13.4414733,"tags":{"artwork_type":"mural","tourism":"artwork"}},{"type":"node","id":9355813964,"lat":52.4389839,"lon":13.2147126,"tags":{"artwork_type":"mural","tourism":"artwork"}},{"type":"node","id":9489963716,"lat":52.5194432,"lon":13.3066678,"tags":{"artwork_type":"mural","image":"https://photos.app.goo.gl/XL2qFjo765pcwWhC8","tourism":"artwork","img_thumbnail":"node_9489963716_0.jpg"}},{"type":"node","id":9678342002,"lat":52.57097,"lon":13.3691865,"tags":{"artwork_type":"mural","inscription":"Märkische Scholle 1959","note":"befindet sich an der Wand","tourism":"artwork"}},{"type":"node","id":9681279205,"lat":52.5147086,"lon":13.2993699,"tags":{"artist_name":"Esher","artwork_type":"mural","note":"befindet sich an der Wand","tourism":"artwork","wikidata":"Q116984066"}},{"type":"node","id":9699879638,"lat":52.5121871,"lon":13.2968584,"tags":{"artist_name":"Paul Blankenburg","artwork_type":"mural","start_date":"1980","tourism":"artwork","wikidata":"Q117066764"}},{"type":"node","id":9699883150,"lat":52.486063,"lon":13.3016489,"tags":{"artwork_type":"mural","name":"Stadtbad Wilmersdorf","tourism":"artwork"}},{"type":"node","id":9724574957,"lat":52.5637893,"lon":13.3780417,"tags":{"artwork_type":"mural","tourism":"artwork"}},{"type":"node","id":9724619629,"lat":52.5744555,"lon":13.3697586,"tags":{"artwork_type":"mural","tourism":"artwork"}},{"type":"node","id":9727708371,"lat":52.5644939,"lon":13.3737422,"tags":{"artwork_type":"mural","tourism":"artwork"}},{"type":"node","id":9727746197,"lat":52.5645422,"lon":13.3743553,"tags":{"artwork_type":"mural","tourism":"artwork"}},{"type":"node","id":9779465803,"lat":52.5150258,"lon":13.4497529,"tags":{"artist:wikidata":"Q5350827","artist:wikipedia":"de:El_Bocho","artist_name":"El Bocho","artwork_type":"mural","image":"https://elbocho.net/wp-content/uploads/2020/05/Mural-el-bocho.jpg","name":"Augen in der Großstadt","source":"https://elbocho.net/2020/05/23/mural-berlin/","start_date":"2020-05-23","tourism":"artwork","wikidata":"Q111086618","wikimedia_commons":"Category:Portrait (El Bocho)","img_thumbnail":"node_9779465803_0.jpg"}},{"type":"node","id":9801466645,"lat":52.5073492,"lon":13.2886318,"tags":{"artist_name":"Gert Neuhaus","artwork_type":"mural","name":"Palmengiebel Hotel Seehof","start_date":"2017","tourism":"artwork","wikidata":"Q118220936"}},{"type":"node","id":9816602433,"lat":52.553194,"lon":13.3862597,"tags":{"artwork_type":"mural","tourism":"artwork"}},{"type":"node","id":9864554608,"lat":52.5631113,"lon":13.3720181,"tags":{"artwork_type":"mural","tourism":"artwork"}},{"type":"node","id":9911533969,"lat":52.6862349,"lon":13.2816597,"tags":{"artist_name":"Urs Jaeggi","artwork_type":"mural","name":"einer und andere","tourism":"artwork"}},{"type":"node","id":9911533970,"lat":52.6864793,"lon":13.2819756,"tags":{"artist_name":"Eberhard Lenk","artwork_type":"mural","name":"Die offene Gesellschaft","tourism":"artwork"}},{"type":"node","id":9911533971,"lat":52.6863996,"lon":13.2818725,"tags":{"artist_name":"Hannah Maier und Mitschüler/innen der Regine-Hildebrandt-Gesamtschule","artwork_type":"mural","name":"Landschaft","tourism":"artwork"}},{"type":"node","id":9988977350,"lat":52.497271,"lon":13.311421,"tags":{"artwork_type":"mural","tourism":"artwork"}},{"type":"node","id":9992564707,"lat":52.5334039,"lon":13.417902,"tags":{"artwork_type":"mural","tourism":"artwork"}},{"type":"node","id":10001315676,"lat":52.5123683,"lon":13.259609,"tags":{"artwork_type":"mural","source":"survey","tourism":"artwork"}},{"type":"node","id":10016857951,"lat":52.5729965,"lon":13.364639,"tags":{"artwork_type":"mural","material":"concrete","source":"survey","tourism":"artwork"}},{"type":"node","id":10038588909,"lat":52.4855608,"lon":13.3385762,"tags":{"artwork_type":"mural","description":"Stadtwappen Meran","tourism":"artwork"}},{"type":"node","id":10048567653,"lat":52.4965641,"lon":13.4242119,"tags":{"artist_name":"Smug","artwork_type":"mural","description":"Wandmalerei anläßlich des Berlin-Mural-Festes 2019.","image":"https://commons.wikimedia.org/wiki/File:Berlin_Mural_Fest_2019_Smug_Berlin_2v2.jpg","start_date":"2019","tourism":"artwork","wikidata":"Q111033403","wikimedia_commons":"Category:Smug (Berlin Mural Fest 2019)","img_thumbnail":"node_10048567653_0.jpg"}},{"type":"node","id":10257638948,"lat":52.5052811,"lon":13.3184192,"tags":{"artist_name":"Ben Wagin und weitere Künstler*Innen","artwork_type":"mural","name":"Weltbaum 2","tourism":"artwork","wikidata":"Q115683127"}},{"type":"node","id":10834438255,"lat":52.5115564,"lon":13.4267882,"tags":{"artwork_type":"mural","tourism":"artwork","wikidata":"Q111218995","wikimedia_commons":"Category:Akte One & Cren (Berlin Mural Fest 2018)"}},{"type":"node","id":10834438256,"lat":52.5117496,"lon":13.426466,"tags":{"artwork_type":"mural","image":"https://photos.app.goo.gl/YzPkrPVCa3m8gbrAA","tourism":"artwork","wikidata":"Q111206886","wikimedia_commons":"Category:Isakov (Berlin Mural Fest 2018)","img_thumbnail":"node_10834438256_0.jpg"}},{"type":"node","id":10834454445,"lat":52.5092741,"lon":13.4650504,"tags":{"artist:wikidata":"Q105720614","artist_name":"Michelle Tombolini","artwork_type":"mural","image":"File:2476 Berlin.jpg","name":"Butterfly","start_date":"2015","tourism":"artwork","wikidata":"Q105720639","wikimedia_commons":"Category:Indelible Marks Project - Butterfly - Berlin"}},{"type":"node","id":10834469812,"lat":52.5114994,"lon":13.4269596,"tags":{"artwork_type":"mural","image":"https://photos.app.goo.gl/gdQhLaqugTSJhJjX7","tourism":"artwork","wikidata":"Q111142059","img_thumbnail":"node_10834469812_0.jpg"}},{"type":"node","id":10977214292,"lat":52.569616,"lon":13.5725967,"tags":{"artist_name":"Lothar Gericke","artwork_type":"mural","name":"Komposition mit Wolken","start_date":"1999","tourism":"artwork","wikidata":"Q108744032"}},{"type":"node","id":10978938701,"lat":52.5663966,"lon":13.5792545,"tags":{"artist_name":"Adam Kurtz","artwork_type":"mural","name":"Welt von morgen","start_date":"1987","tourism":"artwork","wikidata":"Q108862017","wikimedia_commons":"Category:Welt von morgen (Adam Kurtz)"}},{"type":"node","id":11018631637,"lat":52.5453083,"lon":13.5521008,"tags":{"artist_name":"Walter Womacka","artwork_type":"mural","check_date":"2023-07-1","image":"https://commons.wikimedia.org/wiki/File:Mural_Arbeit_f%C3%BCr_das_Gl%C3%BCck_des_Menschen_Walter_Womacka_Berlin.jpg","name":"Arbeit für das Glück des Menschen","start_date":"1989-11-3","tourism":"artwork","wikidata":"Q110277864","wikimedia_commons":"Category:Arbeit für das Glück des Menschen (Walter Womacka)","img_thumbnail":"node_11018631637_0.jpg"}},{"type":"node","id":11018701590,"lat":52.5458201,"lon":13.5543273,"tags":{"artist_name":"Walter Womacka","artwork_type":"mural","check_date":"2023-07-1","image":"https://commons.wikimedia.org/wiki/File:Wall_mosaic_Marzahner_Promenade_45_Berlin-Marzahn.jpg","name":"Frieden","start_date":"1988-11-9","tourism":"artwork","wikidata":"Q110265541","wikimedia_commons":"Category:Peace (Walter Womacka)","img_thumbnail":"node_11018701590_0.jpg"}},{"type":"node","id":11061610412,"lat":52.5101225,"lon":13.4979349,"tags":{"artist_name":"Tanja K., Anne Bengard, Sebastian G., Beatsen, Ismail Schuhmacher","artwork_type":"mural","description":"Gedenkmural an der Bahnhofsmauer zur Erinnerung  an Opfer rechter und rassistischer Gewalt.","image":"https://commons.wikimedia.org/wiki/File:Mural_Niemand_ist_vergessen_Eugeniu_Botnari_Eugeniu-Botnari-Platz_Berlin-Lichtenberg_12.jpg","name":"Niemand ist vergessen","start_date":"2023-07","tourism":"artwork","wikidata":"Q120791415","img_thumbnail":"node_11061610412_0.jpg"}},{"type":"node","id":11091112819,"lat":52.5304408,"lon":13.5433351,"tags":{"artist_name":"OKUDA","artwork_type":"mural","description":"Wandmalerei von OKUDA anläßlich des Berlin-Mural-Festes 2019.","image":"https://commons.wikimedia.org/wiki/File:Mural_Okuda_San_Miguel_Berlin-Marzahn_1v3.jpg","name":"Modern Family","start_date":"2019","tourism":"artwork","wikidata":"Q108197542","wikimedia_commons":"Category:Modern Family (Okuda San Miguel)","img_thumbnail":"node_11091112819_0.jpg"}},{"type":"node","id":11091253120,"lat":52.5465088,"lon":13.5906354,"tags":{"artist_name":"extraweg & Die Dixons","artwork_type":"mural","description":"Wandmalerei anläßlich des Berlin-Mural-Festes 2019.","image":"https://commons.wikimedia.org/wiki/File:Berlin_Mural_Fest_2019_extraweg_%26_Die_Dixons_Berlin-Hellersdorf_2v3.jpg","start_date":"2019","tourism":"artwork","wikidata":"Q111015692","img_thumbnail":"node_11091253120_0.jpg"}},{"type":"node","id":11091253169,"lat":52.5474596,"lon":13.5898894,"tags":{"artist_name":"Boogie","artwork_type":"mural","description":"Wandmalerei anläßlich des Berlin-Mural-Festes 2019.","image":"https://commons.wikimedia.org/wiki/File:Berlin_Mural_Fest_2019_Boogie_Berlin-Hellersdorf_1v2.jpg","name":"Boogie Down Berlin","start_date":"2019","tourism":"artwork","wikidata":"Q111016250","img_thumbnail":"node_11091253169_0.jpg"}},{"type":"node","id":11091253644,"lat":52.5469926,"lon":13.5908118,"tags":{"artist_name":"MadC","artwork_type":"mural","description":"Wandmalerei anläßlich des Berlin-Mural-Festes 2019.","image":"https://commons.wikimedia.org/wiki/File:Berlin_Mural_Fest_2019_MadC_Berlin-Hellersdorf_1v3.jpg","start_date":"2019","tourism":"artwork","wikidata":"Q111016108","img_thumbnail":"node_11091253644_0.jpg"}},{"type":"node","id":11091253660,"lat":52.5327408,"lon":13.5377998,"tags":{"artwork_type":"mural","description":"Wandmalerei anläßlich des Berlin-Mural-Festes 2019.","image":"https://commons.wikimedia.org/wiki/File:Berlin_Mural_Fest_2019_1UP_Berlin-Marzahn_3v3.jpg","name":"1UP","start_date":"2019","tourism":"artwork","wikidata":"Q111016555","img_thumbnail":"node_11091253660_0.jpg"}},{"type":"node","id":11091261881,"lat":52.548096,"lon":13.5901234,"tags":{"artist_name":"Victor Ash","artwork_type":"mural","description":"Wandmalerei anläßlich des Berlin-Mural-Festes 2019.","image":"https://commons.wikimedia.org/wiki/File:Berlin_Mural_Fest_2019_Victor_Ash_Berlin-Hellersdorf_1v2.jpg","name":"The Dream","start_date":"2019","tourism":"artwork","wikidata":"Q111016491","img_thumbnail":"node_11091261881_0.jpg"}},{"type":"node","id":11091265743,"lat":52.5327482,"lon":13.5387661,"tags":{"artist_name":"Akut","artwork_type":"mural","description":"Wandmalerei anläßlich des Berlin-Mural-Festes 2019.","image":"https://commons.wikimedia.org/wiki/File:Berlin_Mural_Fest_2019_Akut_Berlin-Marzahn_1v2.jpg","start_date":"2019","tourism":"artwork","wikidata":"Q111017272","img_thumbnail":"node_11091265743_0.jpg"}},{"type":"node","id":11091283574,"lat":52.5326998,"lon":13.5389462,"tags":{"artist_name":"Adry del Rocio","artwork_type":"mural","description":"Wandmalerei anläßlich des Berlin-Mural-Festes 2019.","image":"https://commons.wikimedia.org/wiki/File:Berlin_Mural_Fest_2019_Adry_del_Rocio_Berlin-Marzahn_2v2.jpg","name":"Zuhause ist wo das Herz ist","start_date":"2019","tourism":"artwork","wikidata":"Q111017097","img_thumbnail":"node_11091283574_0.jpg"}},{"type":"node","id":11126104676,"lat":52.6865777,"lon":13.2821029,"tags":{"artist_name":"Manfred Zoller","artwork_type":"mural","name":"Hannes Küpper Iron Man","tourism":"artwork"}},{"type":"node","id":11179614647,"lat":52.5117504,"lon":13.4891793,"tags":{"artist_name":"Christian Awe","artwork_type":"mural","check_date":"2023-09-09","image":"https://commons.wikimedia.org/wiki/File:Mural_Lichtenberg_Christian_Awe_Frankfurter_Allee_192_Berlin-Lichtenberg_04.jpg","image:0":"https://photos.app.goo.gl/ttxNKKJ6p7iRqKub8","name":"Lichtenberg","start_date":"2012","tourism":"artwork","wikidata":"Q122375222","wikimedia_commons":"Category:Lichtenberg (Christian Awe)","img_thumbnail":"node_11179614647_0.jpg"}},{"type":"node","id":11235909931,"lat":52.5036712,"lon":13.3618363,"tags":{"alt_name":"Fuck Walls, Dig Tunnels","artist_name":"Nomad Clan","artwork_type":"mural","name":"Fuck Walls","start_date":"2017","tourism":"artwork","wikidata":"Q122923363","wikimedia_commons":"File:Wandmalerei Lützowstr 80 (Tierg) Fuck walls dig tunnels&Nomad Clan&2017.jpg"}},{"type":"node","id":11237877264,"lat":52.566693,"lon":13.5164813,"tags":{"artist_name":"Künstlerkollektiv KLUB7","artwork_type":"mural","image":"https://commons.wikimedia.org/wiki/File:Mural_Aufbruch_in_neue_Welten_Berlin_3v3.jpg","name":"Aufbruch in neue Welten","start_date":"2015","tourism":"artwork","wikidata":"Q108477782","wikimedia_commons":"Category:Aufbruch in neue Welten (Mural)","img_thumbnail":"node_11237877264_0.jpg"}},{"type":"node","id":11241817841,"lat":52.5498285,"lon":13.5490161,"tags":{"artist:wikidata":"Q43055636","artist_name":"Haralampi G. Oroschakoff","artwork_type":"mural","image":"https://commons.wikimedia.org/wiki/File:Mural_M%C3%A4rkische_Allee_Raoul-Wallenberg-Stra%C3%9Fe_Berlin_2v2.jpg","name":"Polis","start_date":"1997","tourism":"artwork","wikidata":"Q111235750","wikimedia_commons":"Category:Mural (Märkische Allee 226)","img_thumbnail":"node_11241817841_0.jpg"}},{"type":"node","id":11246991687,"lat":52.5117128,"lon":13.5017465,"tags":{"artwork_type":"mural","image":"https://photos.app.goo.gl/kkyrKqLd4AzxHPXr8","name":"Nicaraguanisches Dorf – Monimbó 1978","tourism":"artwork","wikidata":"Q31839059","wikipedia":"de:Nicaraguanisches Dorf – Monimbó 1978","img_thumbnail":"node_11246991687_0.jpg"}},{"type":"node","id":11246991696,"lat":52.5102567,"lon":13.5080665,"tags":{"artwork_type":"mural","image":"https://photos.app.goo.gl/nNK4zDq9Hyyq7FPj8","name":"Rauch dein Obst","tourism":"artwork","img_thumbnail":"node_11246991696_0.jpg"}},{"type":"node","id":11247029688,"lat":52.5025599,"lon":13.510029,"tags":{"artwork_type":"mural","image":"https://photos.app.goo.gl/V4DTDTZXSiqQHpJn6","tourism":"artwork","img_thumbnail":"node_11247029688_0.jpg"}},{"type":"node","id":11249087145,"lat":52.5046613,"lon":13.321804,"tags":{"artwork_type":"mural","description":"Mural mit Mario Götze als Motiv im Auftrag von Nike.","image":"https://photos.app.goo.gl/hkMzs7xjn8xWGM8H9","tourism":"artwork","wikidata":"Q123167293","wikimedia_commons":"File:Wandmalerei Knesebeckstr 26 (Charl) Riskier alles.jpg","img_thumbnail":"node_11249087145_0.jpg"}},{"type":"node","id":11249087207,"lat":52.4970099,"lon":13.3646549,"tags":{"artwork_type":"mural","image":"https://photos.app.goo.gl/TAWibf9d5u7eGnsw6","tourism":"artwork","img_thumbnail":"node_11249087207_0.jpg"}},{"type":"node","id":11249087208,"lat":52.4970885,"lon":13.3642712,"tags":{"artwork_type":"mural","image":"https://photos.app.goo.gl/ft5jLnwwkSpq1jB26","tourism":"artwork","img_thumbnail":"node_11249087208_0.jpg"}},{"type":"node","id":11249087213,"lat":52.5003569,"lon":13.3754456,"tags":{"artwork_type":"mural","image":"https://photos.app.goo.gl/nJ2rieAkXSvyXK148","tourism":"artwork","img_thumbnail":"node_11249087213_0.jpg"}},{"type":"node","id":11249087226,"lat":52.4985168,"lon":13.3825545,"tags":{"artwork_type":"mural","image":"https://photos.app.goo.gl/LbPvGzR2PmcYQhof8","tourism":"artwork","img_thumbnail":"node_11249087226_0.jpg"}},{"type":"node","id":11249087233,"lat":52.4985899,"lon":13.4167587,"tags":{"artwork_type":"mural","image":"https://photos.app.goo.gl/ZCVCGRTBP5dsjPeo8","tourism":"artwork","img_thumbnail":"node_11249087233_0.jpg"}},{"type":"node","id":11249087234,"lat":52.4984875,"lon":13.4167198,"tags":{"artwork_type":"mural","image":"https://photos.app.goo.gl/WnHKJ9VHwkzf3JZU9","tourism":"artwork","img_thumbnail":"node_11249087234_0.jpg"}},{"type":"node","id":11249087235,"lat":52.4984291,"lon":13.4167837,"tags":{"artwork_type":"mural","image":"https://photos.app.goo.gl/MiQoYdMBtVQLve2e6","tourism":"artwork","img_thumbnail":"node_11249087235_0.jpg"}},{"type":"node","id":11249247974,"lat":52.5214437,"lon":13.3326958,"tags":{"artwork_type":"mural","image":"https://photos.app.goo.gl/A6n6jq7KZSMvdEEL7","tourism":"artwork","img_thumbnail":"node_11249247974_0.jpg"}},{"type":"node","id":11261182174,"lat":52.5113819,"lon":13.427157,"tags":{"artwork_type":"mural","image":"https://photos.app.goo.gl/yTbUGqFpaTwJ8bas5","tourism":"artwork","img_thumbnail":"node_11261182174_0.jpg"}},{"type":"node","id":11261182175,"lat":52.5113868,"lon":13.4270629,"tags":{"artwork_type":"mural","covered":"yes","image":"https://photos.app.goo.gl/Dsub1gyNU7SZnL926","tourism":"artwork","img_thumbnail":"node_11261182175_0.jpg"}},{"type":"node","id":11261182176,"lat":52.5112496,"lon":13.4269043,"tags":{"artwork_type":"mural","image":"https://photos.app.goo.gl/2y7hEbVJjr3vmeMc8","tourism":"artwork","img_thumbnail":"node_11261182176_0.jpg"}},{"type":"node","id":11261182177,"lat":52.5114556,"lon":13.4266431,"tags":{"artwork_type":"mural","image":"https://photos.app.goo.gl/6QBnhkbKXmcEors88","tourism":"artwork","img_thumbnail":"node_11261182177_0.jpg"}},{"type":"node","id":11261182178,"lat":52.5116259,"lon":13.4263674,"tags":{"artwork_type":"mural","image":"https://photos.app.goo.gl/Gm3DvYHQ9uM1TcY18","tourism":"artwork","img_thumbnail":"node_11261182178_0.jpg"}},{"type":"node","id":11261182180,"lat":52.5111817,"lon":13.4268775,"tags":{"artwork_type":"mural","image":"https://photos.app.goo.gl/JeskFzHQFxHMeY9eA","tourism":"artwork","img_thumbnail":"node_11261182180_0.jpg"}},{"type":"node","id":11261182181,"lat":52.5111661,"lon":13.4270169,"tags":{"artwork_type":"mural","image":"https://photos.app.goo.gl/L4kujX2KTui3JqBw6","tourism":"artwork","img_thumbnail":"node_11261182181_0.jpg"}},{"type":"node","id":11261182183,"lat":52.5098225,"lon":13.4305264,"tags":{"artwork_type":"mural","image":"https://photos.app.goo.gl/PhZ4vPTmKQjTPi6x8","tourism":"artwork","img_thumbnail":"node_11261182183_0.jpg"}},{"type":"node","id":11261182201,"lat":52.5091663,"lon":13.4312518,"tags":{"artist_name":"Alexandre Farto alias Vhils","artwork_type":"mural","image":"https://photos.app.goo.gl/KMPqT5VRr3Q9qEuS8","name":"Go Forth","tourism":"artwork","url":"https://youtu.be/W_zADU6IkxY?si=el0KT64dWnsmTNhw","img_thumbnail":"node_11261182201_0.jpg"}},{"type":"node","id":11262731864,"lat":52.5016028,"lon":13.4429739,"tags":{"artwork_type":"mural","image":"https://photos.app.goo.gl/UZsKYr1Z7WphBKzo8","tourism":"artwork","img_thumbnail":"node_11262731864_0.jpg"}},{"type":"node","id":11262731884,"lat":52.5031111,"lon":13.4391039,"tags":{"artist:wikidata":"Q104864369","artist_name":"Fin DAC","artwork_type":"mural","image":"https://photos.app.goo.gl/asv45527v6KNJ7SK7","name":"Engeika","start_date":"2019","tourism":"artwork","wikidata":"Q123225243","wikimedia_commons":"File:Wandmalerei Köpenicker Str 7a (Kreuz) Engeika&Fin Dac&2019.jpg","img_thumbnail":"node_11262731884_0.jpg"}},{"type":"node","id":11262731885,"lat":52.5040447,"lon":13.4354908,"tags":{"artist:wikidata":"Q111441407","artist_name":"Eme Freethinker","artwork_type":"mural","image":"https://photos.app.goo.gl/NCfWTketqKm4936N7","name":"Greenpeace: \"In Memory Of Hiroshima And Nagasaki For A World Without Nuclear Weapons\"","start_date":"2020","tourism":"artwork","wikidata":"Q123226720","wikimedia_commons":"File:Wandmalerei Köpenicker Str 175 (Kreuz) In Memory of Hiroshima and Nagasaki&Eme Freethinker&2020.jpg","img_thumbnail":"node_11262731885_0.jpg"}},{"type":"node","id":11262731891,"lat":52.5386851,"lon":13.3538344,"tags":{"artwork_type":"mural","image":"https://photos.app.goo.gl/DcUkx1Z88sucUxgr9","tourism":"artwork","img_thumbnail":"node_11262731891_0.jpg"}},{"type":"node","id":11267845618,"lat":52.5270739,"lon":13.3878146,"tags":{"artist_name":"Akut, Case Maclaim, Tasso, Rusk","artwork_type":"mural","name":"fishing for diamonds","start_date":"2009-12","tourism":"artwork","wikidata":"Q123083053","wikimedia_commons":"File:Wandmalerei Torstr 230 (Mitte) Maclain&2009.jpg"}},{"type":"node","id":11282821201,"lat":52.503872,"lon":13.4294006,"tags":{"artist_name":"HUARIU","artwork_type":"mural","image":"https://pixelfed.de/storage/m/_v2/615797448648714432/f1538e3aa-7b3151/eKkfdxotOvC4/iE8Cbh1B22E77191fhwVAUs56Dfl3KMBsXHsrMP7.jpg","name":"A Wise Man","source":"https://mastodon.online/@AmiW/111279701120151248","tourism":"artwork","img_thumbnail":"node_11282821201_0.jpg"}},{"type":"node","id":11330527140,"lat":52.4987365,"lon":13.4006982,"tags":{"artist_name":"El Bocho","artwork_type":"mural","image":"https://pixelfed.de/storage/m/_v2/615797448648714432/bf4779419-8cf74f/fPcjkH7OHM78/bloicLMAjNeszXvDoe2QwtwtXfiOsF9vjcxVo5Bb.jpg","name":"Erkenntnis","source":"https://mastodon.online/@AmiW/111367524506321599","tourism":"artwork","img_thumbnail":"node_11330527140_0.jpg"}},{"type":"node","id":11350377512,"lat":52.5438371,"lon":13.3780485,"tags":{"artwork_type":"mural","tourism":"artwork"}},{"type":"node","id":11372732757,"lat":52.3818233,"lon":13.0841809,"tags":{"artwork_type":"mural","tourism":"artwork"}},{"type":"node","id":11375835878,"lat":52.5259355,"lon":13.3902007,"tags":{"artist:wikidata":"Q123286879","artist_name":"Benzi Brofman","artwork_type":"mural","description":"Mural zur Erinnerung an die im Oktober 2023 in Israel von Hamas-Kommandos verschleppten Geiseln.","image":"File:Mural Bring them home Benzi Auguststraße 92 Berlin-Mitte 04.jpg","name":"Bring them home","start_date":"2023-11-23","tourism":"artwork","wikidata":"Q123541615","wikimedia_commons":"Category:Bring them Home (Benzi, Berlin-Mitte)"}},{"type":"node","id":11377699469,"lat":52.5271882,"lon":13.3933689,"tags":{"artist:wikidata":"Q123554408","artist_name":"Wanda Stang","artwork_type":"mural","image":"File:Mural Wanda Stang Tucholskystraße 44 Berlin-Mitte 01.jpg","start_date":"2021","tourism":"artwork","wikidata":"Q123555370","wikimedia_commons":"Category:Mural Tucholskystraße 44 (Wanda Stang)"}},{"type":"node","id":11377880374,"lat":52.5241365,"lon":13.399612,"tags":{"artist_name":"Svenja Teichert","artwork_type":"mural","description":"Eine von mehreren Peace Walls des Projekts  \"Young Minds Build Bridges\" der Non-Profit Organisation CITYarts in verschiedenen Städten weltweit.","image":"File:Mosaik Große Hamburger Straße 25 Berlin-Mitte.jpg 5.670 × 3.185;5,03 MB","name":"Peace Wall","name:de":"Friedensmauer","name:en":"Peace Wall","start_date":"2013-09","tourism":"artwork","wikidata":"Q123555741","wikimedia_commons":"Category:CITYarts Berlin Peace Wall"}},{"type":"node","id":11382505511,"lat":52.5704677,"lon":13.4100813,"tags":{"artist:wikidata":"Q15436732","artist_name":"Dieter Gantz","artwork_type":"mural","name":"Pankower Marktleben","start_date":"1987","tourism":"artwork","wikidata":"Q116695284","wikimedia_commons":"File:Murals Berliner Str 1 (Panko) Pankow market life Dieter Gantz 1987.jpg"}},{"type":"node","id":11418698088,"lat":52.554607,"lon":13.5643807,"tags":{"artist:wikidata":"Q33896446","artist_name":"Frank Beutel","artwork_type":"mural","name":"Tanz","start_date":"2009","tourism":"artwork","website":"https://www.fb55.de/Frank_Beutel/wand/tanz.html","wikidata":"Q123822967","wikimedia_commons":"File:Mural Tanzen in Marzahn Mehrower Allee 46 Berlin-Marzahn.jpg"}},{"type":"node","id":11462822537,"lat":52.547735,"lon":13.4139352,"tags":{"artist:wikidata":"Q112409485","artist_name":"Elliot O'Donnell","artwork_type":"mural","name":"Suia","start_date":"2016","tourism":"artwork","wikidata":"Q123905593","wikimedia_commons":"File:Wandmalerei Stargarder Str 82 (Prenz) Suia&Askew one&2016.jpg"}},{"type":"node","id":11584831860,"lat":52.4977753,"lon":13.5209577,"tags":{"artist_name":"1010","artwork_type":"mural","name":"Tropfen und Ringe","start_date":"2017-07","tourism":"artwork","wikidata":"Q124424353","wikimedia_commons":"File:Wandmalerei Erich-Kurz-Str 9 (Frife) Tropfen und Ringe&1010&2017.jpg"}},{"type":"node","id":11585279664,"lat":52.5085501,"lon":13.519895,"tags":{"artist_name":"ZEBO","artwork_type":"mural","name":"Eine Frage der Haltung","start_date":"2019-09-13","tourism":"artwork","wikidata":"Q124425529","wikimedia_commons":"File:Wandmalerei Am Tierpark 3 (Frife) Eine Frage der Haltung&Zebu&2019.jpg"}},{"type":"node","id":11639056687,"lat":52.5288723,"lon":13.4030144,"tags":{"artwork_type":"mural","tourism":"artwork"}},{"type":"way","id":23046549,"bounds":{"minlat":52.557069,"minlon":13.5543265,"maxlat":52.557239,"maxlon":13.5544791},"nodes":[938458931,9939643671],"geometry":[{"lat":52.557069,"lon":13.5543265},{"lat":52.557239,"lon":13.5544791}],"tags":{"artwork_type":"mural","covered":"yes","description:de":"Großflächige Graffitis","level":"-1","lit":"yes","tourism":"artwork"}},{"type":"way","id":30573668,"bounds":{"minlat":52.4030449,"minlon":13.0729916,"maxlat":52.4032575,"maxlon":13.0733311},"nodes":[337858361,298144974,337858331,337858335,337858347,1851760497,337858365,337858361],"geometry":[{"lat":52.4031334,"lon":13.0729916},{"lat":52.4032575,"lon":13.0731219},{"lat":52.4032294,"lon":13.0731938},{"lat":52.4032129,"lon":13.0731765},{"lat":52.4031918,"lon":13.0732304},{"lat":52.4031524,"lon":13.0733311},{"lat":52.4030449,"lon":13.0732181},{"lat":52.4031334,"lon":13.0729916}],"tags":{"architect":"Wolfhardt Focke","artist_name":"KlebeBande","artwork:start_date":"2021-09-29","artwork_type":"mural","building":"industrial","building:colour":"red","building:levels":"2","building:material":"plaster","name":"Kesselhaus","roof:material":"tar_paper","roof:shape":"flat","tourism":"artwork"}},{"type":"way","id":59470539,"bounds":{"minlat":52.550386,"minlon":13.5473159,"maxlat":52.5507472,"maxlon":13.5485175},"nodes":[248677215,9887557374,534346749,737620412,248677120],"geometry":[{"lat":52.550386,"lon":13.5485175},{"lat":52.5503996,"lon":13.548472},{"lat":52.5506132,"lon":13.5477554},{"lat":52.55068,"lon":13.5475377},{"lat":52.5507472,"lon":13.5473159}],"tags":{"artist_name":"0815 Industries","artwork_type":"mural","description:de":"Großflächige Graffitis","highway":"footway","layer":"-2","level":"-1","lit":"24/7","smoothness":"good","surface":"asphalt","tourism":"artwork","tunnel":"yes"}},{"type":"way","id":309196103,"bounds":{"minlat":52.5449012,"minlon":12.3430617,"maxlat":52.5449163,"maxlon":12.3430866},"nodes":[3145256853,3145256854,3145256855,3145256856,3145256857,3145256858,3145256859,3145256860,3145256842,3145256843,3145256846,3145256847,3145256848,3145256849,3145256850,3145256851,3145256852,3145256844,3145256845,3145256853],"geometry":[{"lat":52.5449012,"lon":12.3430736},{"lat":52.5449017,"lon":12.3430696},{"lat":52.544903,"lon":12.3430661},{"lat":52.5449049,"lon":12.3430634},{"lat":52.5449072,"lon":12.3430619},{"lat":52.5449097,"lon":12.3430617},{"lat":52.5449121,"lon":12.3430629},{"lat":52.5449141,"lon":12.3430652},{"lat":52.5449156,"lon":12.3430685},{"lat":52.5449163,"lon":12.3430725},{"lat":52.5449163,"lon":12.3430766},{"lat":52.5449154,"lon":12.3430805},{"lat":52.5449137,"lon":12.3430836},{"lat":52.5449116,"lon":12.3430857},{"lat":52.5449091,"lon":12.3430866},{"lat":52.5449067,"lon":12.3430861},{"lat":52.5449044,"lon":12.3430843},{"lat":52.5449026,"lon":12.3430814},{"lat":52.5449015,"lon":12.3430777},{"lat":52.5449012,"lon":12.3430736}],"tags":{"addr:city":"Premnitz","addr:country":"DE","addr:postcode":"14727","addr:street":"Straße der Freundschaft","artwork_type":"mural","building":"yes","building:levels":"1","height":"3 m","tourism":"artwork"}},{"type":"way","id":309196104,"bounds":{"minlat":52.544717,"minlon":12.3472499,"maxlat":52.5447326,"maxlon":12.3472755},"nodes":[3145256873,3145256874,3145256875,3145256876,3145256877,3145256878,3145256879,3145256861,3145256862,3145256865,3145256866,3145256867,3145256868,3145256869,3145256870,3145256871,3145256872,3145256863,3145256864,3145256873],"geometry":[{"lat":52.5447173,"lon":12.347266},{"lat":52.544717,"lon":12.3472618},{"lat":52.5447176,"lon":12.3472576},{"lat":52.544719,"lon":12.347254},{"lat":52.5447211,"lon":12.3472514},{"lat":52.5447235,"lon":12.3472499},{"lat":52.5447261,"lon":12.3472499},{"lat":52.5447286,"lon":12.3472513},{"lat":52.5447306,"lon":12.3472539},{"lat":52.544732,"lon":12.3472574},{"lat":52.5447326,"lon":12.3472615},{"lat":52.5447324,"lon":12.3472657},{"lat":52.5447314,"lon":12.3472696},{"lat":52.5447297,"lon":12.3472727},{"lat":52.5447275,"lon":12.3472748},{"lat":52.544725,"lon":12.3472755},{"lat":52.5447224,"lon":12.3472749},{"lat":52.5447202,"lon":12.347273},{"lat":52.5447184,"lon":12.3472699},{"lat":52.5447173,"lon":12.347266}],"tags":{"artwork_type":"mural","building":"yes","building:levels":"1","height":"3 m","tourism":"artwork"}},{"type":"way","id":334059745,"bounds":{"minlat":52.5311001,"minlon":12.3378569,"maxlat":52.5311157,"maxlon":12.3378825},"nodes":[3411409304,3411409305,3411409306,3411409307,3411409308,3411409309,3411409310,3411409311,3411409312,3411409313,3411409314,3411409315,3411409316,3411409317,3411409318,3411409319,3411409320,3411409321,3411409322,3411409304],"geometry":[{"lat":52.5311004,"lon":12.337873},{"lat":52.5311001,"lon":12.3378688},{"lat":52.5311007,"lon":12.3378646},{"lat":52.5311021,"lon":12.337861},{"lat":52.5311042,"lon":12.3378584},{"lat":52.5311066,"lon":12.3378569},{"lat":52.5311092,"lon":12.3378569},{"lat":52.5311117,"lon":12.3378583},{"lat":52.5311137,"lon":12.3378609},{"lat":52.5311151,"lon":12.3378644},{"lat":52.5311157,"lon":12.3378685},{"lat":52.5311155,"lon":12.3378727},{"lat":52.5311145,"lon":12.3378766},{"lat":52.5311128,"lon":12.3378797},{"lat":52.5311106,"lon":12.3378818},{"lat":52.5311081,"lon":12.3378825},{"lat":52.5311055,"lon":12.3378819},{"lat":52.5311033,"lon":12.33788},{"lat":52.5311015,"lon":12.3378769},{"lat":52.5311004,"lon":12.337873}],"tags":{"artwork_type":"mural","building":"yes","building:levels":"1","height":"3 m","tourism":"artwork"}},{"type":"way","id":334088804,"bounds":{"minlat":52.5293574,"minlon":12.3419022,"maxlat":52.529373,"maxlon":12.3419278},"nodes":[3411780776,3411780777,3411780778,3411780779,3411780780,3411780781,3411780782,3411780783,3411780784,3411780785,3411780786,3411780787,3411780788,3411780789,3411780790,3411780791,3411780792,3411783993,3411783994,3411780776],"geometry":[{"lat":52.5293577,"lon":12.3419184},{"lat":52.5293574,"lon":12.3419142},{"lat":52.529358,"lon":12.34191},{"lat":52.5293593,"lon":12.3419064},{"lat":52.5293613,"lon":12.3419038},{"lat":52.5293638,"lon":12.3419023},{"lat":52.5293663,"lon":12.3419022},{"lat":52.5293688,"lon":12.3419035},{"lat":52.5293709,"lon":12.341906},{"lat":52.5293723,"lon":12.3419095},{"lat":52.529373,"lon":12.3419135},{"lat":52.5293729,"lon":12.3419178},{"lat":52.5293719,"lon":12.3419217},{"lat":52.5293702,"lon":12.3419249},{"lat":52.529368,"lon":12.341927},{"lat":52.5293654,"lon":12.3419278},{"lat":52.5293629,"lon":12.3419272},{"lat":52.5293606,"lon":12.3419253},{"lat":52.5293588,"lon":12.3419222},{"lat":52.5293577,"lon":12.3419184}],"tags":{"artwork_type":"mural","building":"yes","building:levels":"1","height":"3 m","tourism":"artwork"}},{"type":"way","id":355358374,"bounds":{"minlat":52.4547666,"minlon":13.6209329,"maxlat":52.4547909,"maxlon":13.6209689},"nodes":[3609724230,3609724229,3609724228,3609724226],"geometry":[{"lat":52.4547909,"lon":13.6209329},{"lat":52.4547842,"lon":13.6209559},{"lat":52.454778,"lon":13.6209655},{"lat":52.4547666,"lon":13.6209689}],"tags":{"artist_name":"Erwin Damerow","artwork_type":"mural","barrier":"wall","name":"Elemente des kindlichen Spiels","tourism":"artwork","wikidata":"Q111149284"}},{"type":"way","id":356358686,"bounds":{"minlat":52.4710501,"minlon":13.7854865,"maxlat":52.4711052,"maxlon":13.7855783},"nodes":[3618200185,3618200187,3618200186,3618200184,3618200185],"geometry":[{"lat":52.4710773,"lon":13.7854865},{"lat":52.4711052,"lon":13.7855402},{"lat":52.471078,"lon":13.7855783},{"lat":52.4710501,"lon":13.7855246},{"lat":52.4710773,"lon":13.7854865}],"tags":{"artwork_type":"mural","building":"transformer","mural":"tram","name":"TrSt Kirche","operator":"e.dis","power":"transformer","tourism":"artwork"}},{"type":"way","id":413862544,"bounds":{"minlat":52.5095266,"minlon":13.383587,"maxlat":52.5096454,"maxlon":13.3841852},"nodes":[4150930831,4150930863],"geometry":[{"lat":52.5095266,"lon":13.383587},{"lat":52.5096454,"lon":13.3841852}],"tags":{"artist_name":"Max Lingner","artwork_type":"mural","name":"Aufbau der Republik","start_date":"1950","tourism":"artwork"}},{"type":"way","id":421851733,"bounds":{"minlat":52.5188677,"minlon":13.3759512,"maxlat":52.5189301,"maxlon":13.3762586},"nodes":[4215915940,4215915939,4215914852,4215914853,4215915940],"geometry":[{"lat":52.5188683,"lon":13.3762586},{"lat":52.5188677,"lon":13.3759515},{"lat":52.5189295,"lon":13.3759512},{"lat":52.5189301,"lon":13.3762583},{"lat":52.5188683,"lon":13.3762586}],"tags":{"artist_name":"Hans Haacke","artwork_type":"mural","name":"Der Bevölkerung","start_date":"2000-09-12","tourism":"artwork","wikidata":"Q1192518","wikipedia":"de:Der Bevölkerung"}},{"type":"way","id":500213319,"bounds":{"minlat":52.5501016,"minlon":13.5482785,"maxlat":52.5502331,"maxlon":13.5483882},"nodes":[249675573,9887557372,9887557370],"geometry":[{"lat":52.5501016,"lon":13.5482785},{"lat":52.5501886,"lon":13.5483505},{"lat":52.5502331,"lon":13.5483882}],"tags":{"artist_name":"0815 Industries","artwork_type":"mural","description:de":"Großflächige Graffitis","highway":"footway","incline":"down","lit":"24/7","ramp":"yes","smoothness":"good","surface":"paving_stones","tourism":"artwork"}},{"type":"way","id":673906411,"bounds":{"minlat":52.5293344,"minlon":12.3341306,"maxlat":52.5293495,"maxlon":12.3341555},"nodes":[6311080999,6311081000,6311081001,6311081002,6311081003,6311081004,6311081005,6311081006,6311081007,6311081008,6311081009,6311081010,6311081011,6311081012,6311081013,6311081014,6311081015,6311081016,6311081017,6311080999],"geometry":[{"lat":52.5293344,"lon":12.3341425},{"lat":52.5293349,"lon":12.3341385},{"lat":52.5293362,"lon":12.334135},{"lat":52.5293381,"lon":12.3341323},{"lat":52.5293404,"lon":12.3341308},{"lat":52.5293429,"lon":12.3341306},{"lat":52.5293453,"lon":12.3341318},{"lat":52.5293473,"lon":12.3341341},{"lat":52.5293488,"lon":12.3341374},{"lat":52.5293495,"lon":12.3341414},{"lat":52.5293495,"lon":12.3341455},{"lat":52.5293486,"lon":12.3341494},{"lat":52.5293469,"lon":12.3341525},{"lat":52.5293448,"lon":12.3341546},{"lat":52.5293423,"lon":12.3341555},{"lat":52.5293399,"lon":12.334155},{"lat":52.5293376,"lon":12.3341532},{"lat":52.5293358,"lon":12.3341503},{"lat":52.5293347,"lon":12.3341466},{"lat":52.5293344,"lon":12.3341425}],"tags":{"addr:city":"Premnitz","addr:country":"DE","addr:postcode":"14727","addr:street":"Alte Hauptstraße","artwork_type":"mural","building":"yes","building:levels":"1","height":"3 m","tourism":"artwork"}},{"type":"way","id":690296444,"bounds":{"minlat":52.5013073,"minlon":13.4874895,"maxlat":52.5013758,"maxlon":13.4875734},"nodes":[6123892836,6123892833],"geometry":[{"lat":52.5013758,"lon":13.4874895},{"lat":52.5013073,"lon":13.4875734}],"tags":{"artwork_type":"mural","description":"Zilles Kiez Wandgraffiti","tourism":"artwork"}},{"type":"way","id":690296445,"bounds":{"minlat":52.5011963,"minlon":13.48762,"maxlat":52.5012723,"maxlon":13.4877133},"nodes":[3868399883,3868399905],"geometry":[{"lat":52.5011963,"lon":13.4877133},{"lat":52.5012723,"lon":13.48762}],"tags":{"artwork_type":"mural","description":"Zilles Kiez Wandgraffiti","tourism":"artwork"}},{"type":"way","id":1078531573,"bounds":{"minlat":52.5502331,"minlon":13.5483882,"maxlat":52.550386,"maxlon":13.5485175},"nodes":[9887557370,248677215],"geometry":[{"lat":52.5502331,"lon":13.5483882},{"lat":52.550386,"lon":13.5485175}],"tags":{"artist_name":"0815 Industries","artwork_type":"mural","description:de":"Großflächige Graffitis","handrail":"yes","highway":"steps","incline":"down","level":"0;-1","lit":"24/7","ramp":"separate","step_count":"36","surface":"concrete","tactile_paving":"no","tactile_writing:braille:de":"yes","tactile_writing:embossed_printed_letters:de":"yes","tourism":"artwork"}},{"type":"way","id":1078531574,"bounds":{"minlat":52.5501886,"minlon":13.5483049,"maxlat":52.5502027,"maxlon":13.5483505},"nodes":[9887557372,9887557373],"geometry":[{"lat":52.5501886,"lon":13.5483505},{"lat":52.5502027,"lon":13.5483049}],"tags":{"artist_name":"0815 Industries","artwork_type":"mural","description:de":"Großflächige Graffitis","highway":"footway","incline":"down","lit":"24/7","ramp":"yes","smoothness":"good","surface":"paving_stones","tourism":"artwork"}},{"type":"way","id":1109760770,"bounds":{"minlat":52.5277994,"minlon":13.7873156,"maxlat":52.5278471,"maxlon":13.7873271},"nodes":[10152528085,10152528086],"geometry":[{"lat":52.5278471,"lon":13.7873156},{"lat":52.5277994,"lon":13.7873271}],"tags":{"artwork_type":"mural","level":"0","tourism":"artwork"}},{"type":"way","id":1109760771,"bounds":{"minlat":52.5275639,"minlon":13.7873271,"maxlat":52.5277994,"maxlon":13.7873775},"nodes":[10152528086,10152528087],"geometry":[{"lat":52.5277994,"lon":13.7873271},{"lat":52.5275639,"lon":13.7873775}],"tags":{"artwork_type":"mural","level":"0","tourism":"artwork","website":"www.pffft.de"}},{"type":"way","id":1109760772,"bounds":{"minlat":52.5274819,"minlon":13.7873775,"maxlat":52.5275598,"maxlon":13.7873951},"nodes":[10152528088,10152528089],"geometry":[{"lat":52.5275598,"lon":13.7873775},{"lat":52.5274819,"lon":13.7873951}],"tags":{"artwork_type":"mural","level":"0","tourism":"artwork"}},{"type":"way","id":1154866062,"bounds":{"minlat":52.5241366,"minlon":13.4114668,"maxlat":52.5243384,"maxlon":13.4121439},"nodes":[256898165,256898166,3203555976],"geometry":[{"lat":52.5243384,"lon":13.4121439},{"lat":52.5241366,"lon":13.4118845},{"lat":52.5243365,"lon":13.4114668}],"tags":{"artist_name":"Willi Neubert","artwork_type":"mural","level":"2","material":"enamel","name":"Die Presse als Organisator","start_date":"1973","tourism":"artwork","wikidata":"Q110057332","wikimedia_commons":"File:Pressecafé Berlin.jpg"}},{"type":"way","id":1245840097,"bounds":{"minlat":52.5534348,"minlon":13.5568758,"maxlat":52.5535606,"maxlon":13.5572576},"nodes":[11581972315,11581972314],"geometry":[{"lat":52.5535606,"lon":13.5568758},{"lat":52.5534348,"lon":13.5572576}],"tags":{"artwork_type":"mural","name":"Turnhalle mit Sportpiktogrammen","tourism":"artwork","wikidata":"Q123921053"}},{"type":"relation","id":5486529,"bounds":{"minlat":52.5210324,"minlon":13.4160533,"maxlat":52.5214394,"maxlon":13.4166332},"members":[{"type":"way","ref":369264914,"role":"outer","geometry":[{"lat":52.5211168,"lon":13.4160533},{"lat":52.5214394,"lon":13.4164509},{"lat":52.521351,"lon":13.4166332},{"lat":52.5211477,"lon":13.4163793},{"lat":52.5211321,"lon":13.4163597},{"lat":52.5210463,"lon":13.4162519},{"lat":52.5210324,"lon":13.4162345},{"lat":52.5211168,"lon":13.4160533}]},{"type":"way","ref":24273222,"role":"inner","geometry":[{"lat":52.5213514,"lon":13.4166312},{"lat":52.5210463,"lon":13.4162519},{"lat":52.5210336,"lon":13.4162343},{"lat":52.5210743,"lon":13.4161468},{"lat":52.521117,"lon":13.4160552},{"lat":52.5214382,"lon":13.4164511},{"lat":52.5213514,"lon":13.4166312}]}],"tags":{"alt_name":"Bauchbinde","artist_name":"Walter Womacka","artwork_type":"mural","building:colour":"multiple","building:material":"tiles","building:part":"yes","description":"Mosaikfries","flickr":"https://www.flickr.com/photos/37174512@N03/48985511632","height":"18","min_height":"11","name":"Unser Leben","note":"Frieshöhe 7 m bedeckt Teile der 3. und die ganze 4. Etage","start_date":"1964","tourism":"artwork","type":"multipolygon","wikidata":"Q95571931"}}]}