{"version":0.6,"generator":"Overpass API 0.7.58.5 b0c4acbb","osm3s":{"timestamp_osm_base":"2022-08-22T19:40:39Z","copyright":"The data included in this document is from www.openstreetmap.org. The data is made available under ODbL."},"elements":[{"type":"node","id":2136008787,"lat":50.4530541,"lon":3.9576197,"tags":{"artist_name":"Oli-B","artwork_type":"mural","name":"L'Escapade","tourism":"artwork"}},{"type":"node","id":2393656424,"lat":50.5271501,"lon":3.1717475,"tags":{"addr:city":"Templeuve-en-Pévèle","addr:postcode":"59242","addr:street":"Rue de Roubaix","artist_name":"PRZYGODZSKY","artwork_type":"mural","name":"Le Forgeron","tourism":"artwork","website":"http://www.ville-templeuve.fr/culturepatrim/culturepatrim_fresques.htm"}},{"type":"node","id":2393656425,"lat":50.5311656,"lon":3.1752853,"tags":{"addr:city":"Templeuve-en-Pévèle","addr:postcode":"59242","addr:street":"Avenue George Baratte","artist_name":"Alter Ego","artwork_type":"mural","name":"Templeuve","start_date":"2006","tourism":"artwork","website":"http://www.ville-templeuve.fr/culturepatrim/culturepatrim_fresques.htm"}},{"type":"node","id":5073700065,"lat":50.6270776,"lon":3.1268053,"tags":{"artist_name":"Nicole Cormier","artwork_type":"mural","name":"Soleil levant","tourism":"artwork"}},{"type":"node","id":5073700066,"lat":50.6270137,"lon":3.1281182,"tags":{"artist_name":"Raoul Ubac","artwork_type":"mural","name":"Sans titre","tourism":"artwork","website":"http://bsa.biblio.univ-lille3.fr/blog/2010/11/raoul-ubac-a-lille3/"}},{"type":"node","id":5073700067,"lat":50.6276058,"lon":3.1278621,"tags":{"artist_name":"Raoul Ubac","artwork_type":"mural","name":"Sans titre","tourism":"artwork","website":"http://bsa.biblio.univ-lille3.fr/blog/2010/11/raoul-ubac-a-lille3/"}},{"type":"node","id":5083536023,"lat":50.6564244,"lon":3.5959706,"tags":{"artwork_type":"mural","name":"Rond-point des Fourmis","name:fr":"Rond-point des Fourmis","tourism":"artwork"}},{"type":"node","id":5213297228,"lat":50.8550117,"lon":2.8217111,"tags":{"artwork_type":"mural","name":"Monseigneur Six","subject:wikidata":"Q2178013","tourism":"artwork"}},{"type":"node","id":5335031976,"lat":50.9481704,"lon":3.135698,"tags":{"artist_name":"David Walker","artwork_type":"mural","mapillary":"rKsUj5h0H8bDQppFusvZUQ","tourism":"artwork"}},{"type":"node","id":5335083736,"lat":50.9461737,"lon":3.1365047,"tags":{"artwork_type":"mural","mapillary":"GZbA6q3cryusb74R1_dZOw","tourism":"artwork"}},{"type":"node","id":5427027765,"lat":50.8123221,"lon":3.0763058,"tags":{"artwork_type":"mural","description":"Mural painting 't zwijntje","tourism":"artwork"}},{"type":"node","id":5427126265,"lat":50.8099833,"lon":3.0795079,"tags":{"artwork_type":"mural","description":"glas kunst in de gevel van de woning","tourism":"artwork"}},{"type":"node","id":5428997405,"lat":50.8148075,"lon":3.0594541,"tags":{"artwork_type":"mural","description":" (nazar: \"boze oog\", en boncuğu: amulet). In het volksgeloof hebben mensen met helderblauwe ogen een ongelukbrengende blik. Een evenzeer 'blauw oog' wordt geacht als tegenmiddel te werken en de boze blik af te wenden.","description_1":"Glaswerk aan de gevell van een woning","name":"Nazar Boncuğu","tourism":"artwork"}},{"type":"node","id":5435347751,"lat":50.8126401,"lon":3.0761443,"tags":{"addr:city":"Geluwe","addr:housenumber":"33","addr:postcode":"8940","addr:street":"Beselarestraat","artwork_type":"mural","description":"Deurrisaliet uitlopend op afgeschuind fronton met opschrift \"Wetenschap - Arbeid - Kunst - Gemeenteschool\"","source":"https://inventaris.onroerenderfgoed.be/erfgoedobjecten/32949","tourism":"artwork"}},{"type":"node","id":5451539317,"lat":51.105752,"lon":3.4423432,"tags":{"artist_name":"Smates","artwork_type":"mural","image":"https://commons.wikimedia.org/wiki/File:Frieslandcampina_in_Aalter_-_2020.jpg","tourism":"artwork","img_thumbnail":"node_5451539317_0.jpg"}},{"type":"node","id":5469362595,"lat":50.9490932,"lon":3.1377604,"tags":{"artist_name":"Denis Meyers","artwork_type":"mural","name":"Jean-Pierre Monsere Wereldkampioen","tourism":"artwork"}},{"type":"node","id":5610236414,"lat":50.9460666,"lon":3.1320952,"tags":{"artwork_type":"mural","mapillary":"0XgrbeqgAB1tkC5Pr1M1ig","tourism":"artwork"}},{"type":"node","id":5627058285,"lat":50.9465423,"lon":3.140731,"tags":{"artwork_type":"mural","tourism":"artwork"}},{"type":"node","id":5635092041,"lat":51.212799,"lon":3.2206554,"tags":{"artwork_type":"mural","tourism":"artwork"}},{"type":"node","id":5635092042,"lat":51.2126894,"lon":3.220519,"tags":{"artwork_type":"mural","tourism":"artwork"}},{"type":"node","id":5866263689,"lat":50.8410097,"lon":3.1653181,"tags":{"artist_name":"Nils Westergard","artwork_type":"mural","name":"Julie met de Rozen","tourism":"artwork"}},{"type":"node","id":6241937234,"lat":50.3249407,"lon":3.3924919,"tags":{"artwork_type":"mural","tourism":"artwork"}},{"type":"node","id":6472144037,"lat":50.5596523,"lon":3.4254908,"tags":{"artist_name":"Edmond Dubrunfaut","artwork_type":"mural_painting","name":"A la rencontre des chemins et des hommes.","tourism":"artwork"}},{"type":"node","id":6528168225,"lat":50.6271977,"lon":3.0698879,"tags":{"artist_name":"Hervé Di Rosa","artwork_type":"mural","name":"Le Peuple René débarque à Saint-Sauveur","start_date":"2017-08","tourism":"artwork"}},{"type":"node","id":6656456333,"lat":50.6184922,"lon":3.1337358,"tags":{"artist_name":"Jean-Pierre FAIVRE","artwork_type":"mural","description":"Fresque murale en peinture acrylique, inspirée du poème de Paul Verlaine. Vous pouvez voir une autre fresque de Jean-Pierre Faivre à l'intérieur de l'école Jacques Prévert.","name":"Colombine des fêtes galantes","start_date":"1983","tourism":"artwork"}},{"type":"node","id":6658619129,"lat":50.6157552,"lon":3.1287646,"tags":{"artist_name":"Françoise BAILLEUL","artwork_type":"mural","description":"Commande de France Télécom. Peinture sur armoire téléphonique.","name":"Cirque","start_date":"1994","tourism":"artwork"}},{"type":"node","id":6658619130,"lat":50.6197819,"lon":3.1323813,"tags":{"artist_name":"Bénédicte VILLETTE","artwork_type":"mural","description":"Commande de France Télécom. Peinture sur armoire téléphonique","name":"La Tendresse","start_date":"1994","tourism":"artwork"}},{"type":"node","id":6658619133,"lat":50.6191886,"lon":3.1307856,"tags":{"artist_name":"Brigitte DENOYELLE BURIE","artwork_type":"mural","description":"Métro Hôtel-de-Ville : Mosaïque","name":"Décoration murale","start_date":"1983","tourism":"artwork"}},{"type":"node","id":6750528566,"lat":51.0568297,"lon":3.7271787,"tags":{"artist:wikidata":"Q21901266","artist_name":"Hyuro","artwork_type":"mural","start_date":"2019","tourism":"artwork"}},{"type":"node","id":6768759597,"lat":51.0062169,"lon":3.8843566,"tags":{"artist_name":"Caz’n en Wim Finck","artwork_type":"mural","name":"Kermismuur","source":"https://www.hln.be/in-de-buurt/wetteren/kermismuur-officieel-ingehuldigd-bij-start-wetteren-kermis~a9f8eaae/","tourism":"artwork","wheelchair":"yes"}},{"type":"node","id":7089233301,"lat":50.4521844,"lon":3.9514124,"tags":{"artist_name":"Cualtzin Tlalticpac","artwork_type":"mural","name":"Belleza sobre la tierra","start_date":"2015","tourism":"artwork"}},{"type":"node","id":7637320260,"lat":51.035859,"lon":3.7233723,"tags":{"artist_name":"ROA","artwork_type":"mural","tourism":"artwork"}},{"type":"node","id":7770432567,"lat":51.2176305,"lon":3.188256,"tags":{"artwork_type":"mural","image":"https://i.imgur.com/ONpxaoK.jpg","tourism":"artwork","img_thumbnail":"node_7770432567_0.jpg"}},{"type":"node","id":7770442538,"lat":51.2170257,"lon":3.1883097,"tags":{"artwork_type":"mural","image":"https://i.imgur.com/d10OYWu.jpg","tourism":"artwork","img_thumbnail":"node_7770442538_0.jpg"}},{"type":"node","id":7770816716,"lat":51.2039223,"lon":3.2196379,"tags":{"artist_name":"Stan Slabbinck","artwork_type":"mural","image":"https://i.imgur.com/531do0W.jpg","image:0":"https://i.imgur.com/VjgIEbP.jpg","tourism":"artwork","img_thumbnail":"node_7770816716_0.jpg"}},{"type":"node","id":7829510625,"lat":51.2038977,"lon":2.9133096,"tags":{"addr:housenumber":"2","addr:street":"Brugstraat","artist_name":"chris lowyck","artwork_type":"mural","image":"https://share.icloud.com/photos/0V2lmLj9JC9C5n2Z1GN6mlVGQ#Oostende","tourism":"artwork"}},{"type":"node","id":7966664678,"lat":51.209337,"lon":3.2321611,"tags":{"artist_name":"Wietse","artwork_type":"mural","image":"https://i.imgur.com/Yh7sQxm.jpg","tourism":"artwork","website":"http://thebridges.be/","img_thumbnail":"node_7966664678_0.jpg"}},{"type":"node","id":7968711773,"lat":51.2081994,"lon":3.236458,"tags":{"artist_name":"Kitsune Idene","artwork_type":"mural","image":"https://i.imgur.com/OLGv9wc.jpg","tourism":"artwork","website":"http://thebridges.be/","img_thumbnail":"node_7968711773_0.jpg"}},{"type":"node","id":7969752899,"lat":51.446509,"lon":3.5747917,"tags":{"artist_name":"kevin Zuidweg","artwork_type":"mural","image":"https://images.mapillary.com/qHJcmrJAaHMbmq3nlfjqxW/thumb-2048.jpg","mapillary":"https://www.mapillary.com/map/im/qHJcmrJAaHMbmq3nlfjqxW","start_date":"2017","tourism":"artwork"}},{"type":"node","id":7969752903,"lat":51.4448087,"lon":3.5705149,"tags":{"artwork_type":"mural","description":"https://photos.app.goo.gl/6fQWi81zycJvBMqg9","image":"https://images.mapillary.com/sNPRASFhVBu5bhOmnhdAmf/thumb-2048.jpg","mapillary":"https://www.mapillary.com/map/im/sNPRASFhVBu5bhOmnhdAmf","tourism":"artwork"}},{"type":"node","id":7969752950,"lat":51.4450885,"lon":3.5674741,"tags":{"artwork_type":"mural","description":"https://photos.app.goo.gl/SEVsEH8s5o1RacQaA","image":"https://images.mapillary.com/WHEMpEilpzLXERXXZipITp/thumb-2048.jpg","mapillary":"https://www.mapillary.com/map/im/WHEMpEilpzLXERXXZipITp","tourism":"artwork"}},{"type":"node","id":8088983741,"lat":51.2265403,"lon":2.9178882,"tags":{"artist_name":"Helen Bur","artwork_type":"mural","name":"Arno","tourism":"artwork"}},{"type":"node","id":8184398734,"lat":51.0588206,"lon":3.7018776,"tags":{"artist_name":"Aäron Willem","artwork_type":"mural","image":"https://i.imgur.com/O8DWcDZ.jpg","tourism":"artwork","img_thumbnail":"node_8184398734_0.jpg"}},{"type":"node","id":8320807422,"lat":50.4366601,"lon":3.9231896,"tags":{"artist_name":"Spear","artwork_type":"mural","name":"Van Gogh","tourism":"artwork"}},{"type":"node","id":8412236427,"lat":50.7905376,"lon":3.1985544,"tags":{"artist_name":"Resto","artwork_type":"mural","name":"Patatje","tourism":"artwork"}},{"type":"node","id":8412251785,"lat":50.7857885,"lon":3.1621648,"tags":{"artist_name":"Dirk Steppe","artwork_type":"mural","name":"Ode aan Breugel","tourism":"artwork"}},{"type":"node","id":8412324094,"lat":50.8423097,"lon":3.2036901,"tags":{"artist_name":"Joachim Lambrechts","artwork_type":"mural","name":"De Dromer","tourism":"artwork"}},{"type":"node","id":8564149434,"lat":51.0594005,"lon":3.7219512,"tags":{"artwork_type":"mural","image":"https://i.imgur.com/tdOBBXq.jpg","tourism":"artwork","img_thumbnail":"node_8564149434_0.jpg"}},{"type":"node","id":8586219040,"lat":51.0471695,"lon":3.7554338,"tags":{"artist_name":"Andreas Welin","artwork_type":"mural","name":"De voorbijganger","tourism":"artwork"}},{"type":"node","id":8722197905,"lat":50.4771443,"lon":3.9538536,"tags":{"artist_name":"Jan Is De Man","artwork_subject":"figurative","artwork_type":"mural","name":"Les Armes de Nimy","start_date":"2020-04","tourism":"artwork","website":"https://janisdeman.com/portfolio/belgie-les-armes-de-nimy/"}},{"type":"node","id":8846757260,"lat":50.452129,"lon":3.9539016,"tags":{"artist_name":"Farm Prod","artwork_subject":"figurative","artwork_type":"mural","start_date":"2020-07-24","tourism":"artwork","website":"https://mons.streetartcities.com/artworks/oeuvre-de-farm-prod-29682"}},{"type":"node","id":8846779373,"lat":50.4520723,"lon":3.9540687,"tags":{"artist_name":"Hell’o","artwork_subject":"figurative","artwork_type":"mural","start_date":"2020-07-09","tourism":"artwork","website":"https://mons.streetartcities.com/artworks/29421"}},{"type":"node","id":8900656551,"lat":50.3326669,"lon":3.4853866,"tags":{"artwork_type":"mural","image":"https://lvdneng.rosselcdn.net/sites/default/files/dpistyles_v2/ena_16_9_extra_big/2020/01/22/node_698848/45095373/public/2020/01/22/B9722307429Z.1_20200122154611_000%2BGAOFBIUG2.1-0.jpg?itok=RQFYsTmX1579855838","name":"Simpson","tourism":"artwork","img_thumbnail":"node_8900656551_0.jpg"}},{"type":"node","id":8901904359,"lat":51.2343987,"lon":2.9196237,"tags":{"artwork_type":"mural","tourism":"artwork"}},{"type":"node","id":8903581775,"lat":51.2342658,"lon":2.9192117,"tags":{"artwork_type":"mural","image":"https://i.imgur.com/VX7Vkhu.jpg","tourism":"artwork","img_thumbnail":"node_8903581775_0.jpg"}},{"type":"node","id":8904028346,"lat":51.2339232,"lon":2.9168272,"tags":{"artist_name":"Jaune","artwork_type":"mural","tourism":"artwork"}},{"type":"node","id":8904048102,"lat":51.2339395,"lon":2.9172704,"tags":{"artwork_type":"mural","image":"https://i.imgur.com/wy1qllh.jpg","tourism":"artwork","img_thumbnail":"node_8904048102_0.jpg"}},{"type":"node","id":8904112079,"lat":51.2317231,"lon":2.9159613,"tags":{"artwork_type":"mural","image":"https://i.imgur.com/oOvLKRo.jpg","tourism":"artwork","img_thumbnail":"node_8904112079_0.jpg"}},{"type":"node","id":8936556150,"lat":50.4479196,"lon":3.8842271,"tags":{"artist_name":"Noir Artist","artwork_subject":"figurative","artwork_type":"mural","name":"Made in Jemappes","start_date":"2021-07","tourism":"artwork"}},{"type":"node","id":8957453130,"lat":51.028128,"lon":3.7569863,"tags":{"artist_name":"Fred & Waf Alosta","artwork_type":"mural","tourism":"artwork","website":"https://cultuur.stad.gent/nl/street-art/fred-waf-alosta"}},{"type":"node","id":9006404017,"lat":50.4733934,"lon":3.9067393,"tags":{"artist_name":"Dynam","artwork_type":"mural","start_date":"2021-08","tourism":"artwork"}},{"type":"node","id":9127319618,"lat":51.1090144,"lon":3.3147319,"tags":{"artist_name":"Monja Duponcheel","artwork_type":"mural","name":"Bulnas Campa","start_date":"2020","tourism":"artwork","wikimedia_commons":"File:Bulnas Campa (Aanwijs, Bulskampveld).jpg"}},{"type":"node","id":9193444699,"lat":51.2137869,"lon":3.2315469,"tags":{"artist_name":"Sammy Slabbinck","artwork_type":"mural","image":"https://i.imgur.com/lH5ON2R.jpg","tourism":"artwork","img_thumbnail":"node_9193444699_0.jpg"}},{"type":"node","id":9337532546,"lat":51.2147858,"lon":3.2251203,"tags":{"artwork_type":"mural","image":"https://i.imgur.com/gzg5lHv.jpg","tourism":"artwork","img_thumbnail":"node_9337532546_0.jpg"}},{"type":"node","id":9428779258,"lat":50.4508982,"lon":3.9474384,"tags":{"artwork_subject":"Cybèle et Poliade","artwork_type":"mural","tourism":"artwork"}},{"type":"node","id":9463705612,"lat":50.4589345,"lon":3.9555802,"tags":{"artwork_type":"mural","tourism":"artwork"}},{"type":"node","id":9502982647,"lat":50.453093,"lon":3.9498985,"tags":{"artwork_type":"mural","tourism":"artwork"}},{"type":"node","id":9515038764,"lat":50.4883885,"lon":3.9645117,"tags":{"artwork_type":"mural","tourism":"artwork"}},{"type":"node","id":9692585624,"lat":50.6907928,"lon":3.1622169,"tags":{"artist_name":"Dr Colors","artwork_type":"mural","tourism":"artwork"}},{"type":"node","id":9847026079,"lat":50.4522512,"lon":3.9496791,"tags":{"artist_name":"Hilda Palafox (alias Poni)","artwork_type":"mural","start_date":"2022-06","tourism":"artwork"}},{"type":"node","id":9864235347,"lat":50.3955393,"lon":3.9879429,"tags":{"artist_name":"Piotr Szlachta","artwork_type":"mural","start_date":"2022-07","tourism":"artwork"}},{"type":"node","id":9937403058,"lat":51.067304,"lon":3.7277605,"tags":{"artwork_type":"mural","image":"https://photos.app.goo.gl/HikHzbtSPmegWPXd8","tourism":"artwork","img_thumbnail":"node_9937403058_0.jpg"}},{"type":"way","id":252676758,"bounds":{"minlat":50.382031,"minlon":3.0884773,"maxlat":50.3834576,"maxlon":3.0889861},"nodes":[2587111887,2587111886],"geometry":[{"lat":50.3834576,"lon":3.0884773},{"lat":50.382031,"lon":3.0889861}],"tags":{"artwork_type":"mural","name":"Fresque","source":"survey","tourism":"artwork"}},{"type":"way","id":307726206,"bounds":{"minlat":50.7029241,"minlon":3.2128208,"maxlat":50.7029847,"maxlon":3.2129102},"nodes":[872364500,872152333],"geometry":[{"lat":50.7029847,"lon":3.2129102},{"lat":50.7029241,"lon":3.2128208}],"tags":{"artwork_type":"mural","tourism":"artwork"}},{"type":"way","id":360551907,"bounds":{"minlat":50.6263623,"minlon":3.0200945,"maxlat":50.6268615,"maxlon":3.0240037},"nodes":[475573225,6470414995,6472862515,6472862516,3645001769,3650725836,3645001770,3650725839,7360066173,3645001771,3645001772],"geometry":[{"lat":50.6266025,"lon":3.0200945},{"lat":50.6265457,"lon":3.0205492},{"lat":50.6265273,"lon":3.0206966},{"lat":50.6264947,"lon":3.0209385},{"lat":50.6263955,"lon":3.0217486},{"lat":50.6263623,"lon":3.0217583},{"lat":50.6264519,"lon":3.0222897},{"lat":50.6266266,"lon":3.0231148},{"lat":50.6266888,"lon":3.0233576},{"lat":50.6268164,"lon":3.0238554},{"lat":50.6268615,"lon":3.0240037}],"tags":{"artwork_type":"mural","barrier":"wall","height":"2","tourism":"artwork"}},{"type":"way","id":361857185,"bounds":{"minlat":51.495064,"minlon":3.8912217,"maxlat":51.495176,"maxlon":3.8912366},"nodes":[3662745964,3662745962],"geometry":[{"lat":51.495176,"lon":3.8912217},{"lat":51.495064,"lon":3.8912366}],"tags":{"artist_name":"Marcel Thelen","artwork_type":"mural","description":"Beschildering op de hele zijmuur van flat","start_date":"2015","tourism":"artwork"}},{"type":"way","id":361857187,"bounds":{"minlat":51.4950201,"minlon":3.8903631,"maxlat":51.4951324,"maxlon":3.8903773},"nodes":[3662745963,3662745961],"geometry":[{"lat":51.4951324,"lon":3.8903631},{"lat":51.4950201,"lon":3.8903773}],"tags":{"artist_name":"Stefan Thelen","artwork_type":"mural","description":"Duif op de hele zijmuur van flat","name":"Duif","start_date":"2015","tourism":"artwork"}},{"type":"way","id":427191296,"bounds":{"minlat":51.3308356,"minlon":3.497953,"maxlat":51.3308777,"maxlon":3.4979575},"nodes":[2762826805,2762827127,2762827207],"geometry":[{"lat":51.3308356,"lon":3.4979532},{"lat":51.3308584,"lon":3.4979575},{"lat":51.3308777,"lon":3.497953}],"tags":{"artist_name":"Johnny Beerens","artwork_type":"mural","name":"De Bron","name:en":"The Source","tourism":"artwork","wikidata":"Q1852464","wikipedia":"nl:Johnny Beerens"}},{"type":"way","id":545928886,"bounds":{"minlat":50.6549974,"minlon":3.399792,"maxlat":50.6550095,"maxlon":3.3999323},"nodes":[5276236286,5276236287],"geometry":[{"lat":50.6549974,"lon":3.3999323},{"lat":50.6550095,"lon":3.399792}],"tags":{"artist_name":"Géo Libbrecht","artwork_type":"mural","name":"Du haut du Mont Saint-Aubert","start_date":"1971","tourism":"artwork"}},{"type":"way","id":547146159,"bounds":{"minlat":51.2148562,"minlon":3.220277,"maxlat":51.2152196,"maxlon":3.2206356},"nodes":[5286733038,5286733039,5286733040,5286733041,5286733038],"geometry":[{"lat":51.2151904,"lon":3.220277},{"lat":51.2152196,"lon":3.2205415},{"lat":51.2148854,"lon":3.2206356},{"lat":51.2148562,"lon":3.2203712},{"lat":51.2151904,"lon":3.220277}],"tags":{"area":"yes","artwork_type":"mural","name":"Wereldkaart","name:en":"World Map","name:nl":"Wereldkaart","subject":"Wereld","subject:wikidata":"Q16502","tourism":"artwork"}},{"type":"way","id":749248107,"bounds":{"minlat":50.7003882,"minlon":2.7761495,"maxlat":50.7004112,"maxlon":2.7763285},"nodes":[977933925,977917152,977940064],"geometry":[{"lat":50.7004112,"lon":2.7761495},{"lat":50.7003923,"lon":2.7763072},{"lat":50.7003882,"lon":2.7763285}],"tags":{"artwork_type":"mural","tourism":"artwork"}},{"type":"way","id":760741954,"bounds":{"minlat":50.5746554,"minlon":2.9368224,"maxlat":50.574668,"maxlon":2.9368497},"nodes":[7106661599,7106661600],"geometry":[{"lat":50.5746554,"lon":2.9368224},{"lat":50.574668,"lon":2.9368497}],"tags":{"artwork_type":"mural","historic":"memorial","name":"Nico","operator":"Nicolas Forever","tourism":"artwork","website":"https://www.facebook.com/nicolasforever1710/"}},{"type":"way","id":969223206,"bounds":{"minlat":50.9590665,"minlon":3.4874509,"maxlat":50.9591094,"maxlon":3.4875012},"nodes":[8968343641,8968343640],"geometry":[{"lat":50.9591094,"lon":3.4875012},{"lat":50.9590665,"lon":3.4874509}],"tags":{"artist_name":"Gerard Reve","artwork_type":"mural","barrier":"wall","name":"Credo","start_date":"2011","tourism":"artwork"}},{"type":"way","id":1067633501,"bounds":{"minlat":51.2157867,"minlon":3.2227875,"maxlat":51.2158024,"maxlon":3.2228306},"nodes":[4983696462,9801928922,9801928921],"geometry":[{"lat":51.2158024,"lon":3.2227875},{"lat":51.2157958,"lon":3.2228057},{"lat":51.2157867,"lon":3.2228306}],"tags":{"artwork_type":"mural","image":"https://i.imgur.com/eWgYjeB.jpg","tourism":"artwork","img_thumbnail":"way_1067633501_0.jpg"}}]}