{"version":0.6,"generator":"Overpass API 0.7.59.4 36d058c8","osm3s":{"timestamp_osm_base":"2023-03-26T14:13:39Z","copyright":"The data included in this document is from www.openstreetmap.org. The data is made available under ODbL."},"elements":[{"type":"node","id":816353626,"lat":49.233074,"lon":6.9973444,"tags":{"artist:wikidata":"Q29973088","artist:wikipedia":"de:Carsten Gliese","artist_name":"Carsten Gliese","artwork_type":"mural","name":"Der Parasit","start_date":"2010","tourism":"artwork","website":"http://www.saarbruecken.de/de/kultur/kunstraum_saarbruecken/kunst_im_oeffentlichen_raum/der_parasit"}},{"type":"node","id":1322459121,"lat":48.0174388,"lon":7.8365526,"tags":{"artist_name":"Tom Brane","artwork_type":"mural","name":"City of Freiburg","start_date":"2020","tourism":"artwork","wikidata":"Q113080941","wikimedia_commons":"Category:City of Freiburg (Tom Brane)"}},{"type":"node","id":1814886318,"lat":48.6811008,"lon":6.154419,"tags":{"artwork_type":"mural","description":"École de Musique","tourism":"artwork"}},{"type":"node","id":2289425802,"lat":49.3500513,"lon":7.1864184,"tags":{"artist_name":"PEETA;Manuel di Rita","artwork_type":"mural","start_date":"2020","tourism":"artwork"}},{"type":"node","id":2408168251,"lat":49.9806525,"lon":7.82762,"tags":{"alt_name":"Steckenschlääferklamm","artwork_type":"mural","name":"Steckeschlääferklamm","tourism":"artwork","website":"http://www.binger-wald.com/wiki/steckenschlaafer-klamm"}},{"type":"node","id":2590181572,"lat":49.4448786,"lon":7.7697216,"tags":{"artwork_type":"mural","tourism":"artwork"}},{"type":"node","id":3731352980,"lat":49.3177017,"lon":6.675131,"tags":{"artwork_type":"mural","material":"stone","name":"3 Kapuziner Figuren","start_date":"1901","tourism":"artwork"}},{"type":"node","id":4535093524,"lat":48.776757,"lon":6.1375956,"tags":{"artist_name":"Osmoz","artwork_type":"mural","name":"Astérix et les condés","tourism":"artwork"}},{"type":"node","id":4535093525,"lat":48.7768867,"lon":6.1374857,"tags":{"artist_name":"Abys et Osmoz","artwork_type":"mural","name":"Breaking Bad","tourism":"artwork"}},{"type":"node","id":4589694068,"lat":48.6887924,"lon":6.1791409,"tags":{"artist_name":"David Walker","artwork_type":"mural","name":"Julia","network":"Art dans Nancy","source":"survey","start_date":"2015-06","tourism":"artwork"}},{"type":"node","id":4866671199,"lat":49.4402521,"lon":7.7756711,"tags":{"artwork_type":"mural","description":"Nur in der Nacht beim Straßenlampenlicht sichtbar","tourism":"artwork"}},{"type":"node","id":4876803512,"lat":49.4404449,"lon":7.7761975,"tags":{"artwork_type":"mural","tourism":"artwork"}},{"type":"node","id":5137458223,"lat":48.2833821,"lon":6.9509473,"tags":{"artist_name":"Vera Primavera","artwork_type":"mural","mapillary":"134841061993534","support":"wall","tourism":"artwork"}},{"type":"node","id":5137499424,"lat":48.2830216,"lon":6.9604278,"tags":{"artist_name":"Mantra","artwork_type":"mural","mapillary":"253795516193672","name":"La renaissance du phénix","start_date":"2016-06","support":"wall","tourism":"artwork"}},{"type":"node","id":5137539124,"lat":48.2863235,"lon":6.9495815,"tags":{"artist_name":"Julien Raynaud","artwork_type":"mural","mapillary":"278623620593987","name":"Le baiser","support":"wall","tourism":"artwork"}},{"type":"node","id":5143942222,"lat":48.2814258,"lon":6.9561884,"tags":{"artist_name":"Mantra","artwork_type":"mural","mapillary":"534298061064636","support":"wall","tourism":"artwork"}},{"type":"node","id":5218494718,"lat":49.2327231,"lon":6.9993171,"tags":{"addr:city":"Saarbrücken","addr:housenumber":"11","addr:postcode":"66111","addr:street":"Bleichstraße","artist_name":"Alexey Luka","artwork_type":"mural","contact:website":"https://artwalk.saarland/de/alexey-luka","description":"Urban ArtWalk #1","name":"One Short Story","network":"Urban ArtWalk","ref":"1","tourism":"artwork"}},{"type":"node","id":5218494719,"lat":49.2359793,"lon":6.9939049,"tags":{"addr:city":"Saarbrücken","addr:housenumber":"52","addr:postcode":"66111","addr:street":"Bahnhofstraße","artist_name":"Sen2","artwork_type":"mural","contact:website":"https://artwalk.saarland/de/sen2-wall-1","description":"Urban ArtWalk #8","name":"Broadway","network":"Urban ArtWalk","ref":"8","tourism":"artwork"}},{"type":"node","id":5218494720,"lat":49.2363176,"lon":6.9944896,"tags":{"addr:city":"Saarbrücken","addr:housenumber":"15","addr:postcode":"66111","addr:street":"Futterstraße","artist_name":"ConeTheWeird","artwork_subject":"figurative","artwork_type":"mural","contact:website":"https://artwalk.saarland/de/cone-the-weird","description":"Urban ArtWalk #7","name":"The Antonymy/Die Antonomy","network":"Urban ArtWalk","ref":"7","start_date":"2017","tourism":"artwork"}},{"type":"node","id":5218501921,"lat":49.2363442,"lon":6.9931798,"tags":{"artist_name":"Smash137","artwork_type":"mural","contact:website":"https://artwalk.saarland/de/smash-137","description":"Urban ArtWalk #3","layer":"1","name":"Unmoral Mural","network":"Urban ArtWalk","ref":"3","tourism":"artwork","wheelchair":"yes"}},{"type":"node","id":5218501922,"lat":49.2365133,"lon":6.9930146,"tags":{"addr:city":"Saarbrücken","addr:housenumber":"62-64","addr:postcode":"66111","addr:street":"Bahnhofstraße","artist_name":"Sowat;Lek","artwork_type":"mural","contact:website":"https://artwalk.saarland/de/sowat-und-lek","description":"Urban ArtWalk #2","layer":"1","name":"Saarbroken","network":"Urban ArtWalk","ref":"2","start_date":"2017","tourism":"artwork","wheelchair":"yes"}},{"type":"node","id":5218501923,"lat":49.2350636,"lon":6.9988407,"tags":{"addr:city":"Saarbrücken","addr:housenumber":"16","addr:postcode":"66111","addr:street":"Nassauerstraße","artist:wikidata":"Q76446647","artist_name":"Aryz","artwork_type":"mural","contact:website":"https://artwalk.saarland/de/aryz","description":"Urban ArtWalk #4","name":"Untitled","network":"Urban ArtWalk","ref":"4","start_date":"2017","tourism":"artwork"}},{"type":"node","id":5218501924,"lat":49.236154,"lon":6.9988268,"tags":{"addr:city":"Saarbrücken","addr:housenumber":"21","addr:postcode":"66111","addr:street":"Försterstraße","artist:wikidata":"Q20713848;","artist_name":"Remi Rough;LX.One","artwork_type":"mural","contact:website":"https://artwalk.saarland/de/remi-rough-und-lx-one","description":"Urban ArtWalk #5","name":"Theo is looking at the window","network":"Urban ArtWalk","ref":"5","tourism":"artwork"}},{"type":"node","id":5218501925,"lat":49.2300242,"lon":6.9974664,"tags":{"addr:city":"Saarbrücken","addr:housenumber":"1","addr:postcode":"66111","addr:street":"Bismarckstraße","artist:wikidata":"Q2145754","artist_name":"Reso","artwork_type":"mural","contact:website":"https://artwalk.saarland/de/reso","description":"Urban ArtWalk #11","name":"Out of this world","network":"Urban ArtWalk","ref":"11","tourism":"artwork"}},{"type":"node","id":5218501926,"lat":49.230309,"lon":7.0049116,"tags":{"addr:city":"Saarbrücken","addr:country":"DE","addr:housenumber":"62","addr:postcode":"66121","addr:street":"Mainzer Straße","artist:wikidata":"Q17011742","artist_name":"Fintan Magee","artwork_type":"mural","contact:website":"https://artwalk.saarland/de/finten-magee","description":"Urban ArtWalk #12","name":"Boyhood","network":"Urban ArtWalk","ref":"12","tourism":"artwork","wheelchair":"yes","wikimedia_commons":"File:20171027Mainzer Strasse.jpg"}},{"type":"node","id":5218501927,"lat":49.2276692,"lon":7.0182772,"tags":{"addr:city":"Saarbrücken","addr:housenumber":"62","addr:postcode":"66121","addr:street":"Mainzer Straße","artist_name":"Raks;Laune","artwork_type":"mural","contact:website":"https://artwalk.saarland/de/raks-und-laune","description":"Urban ArtWalk #10","name":"Die Suche","network":"Urban ArtWalk","ref":"10","tourism":"artwork"}},{"type":"node","id":5586100046,"lat":49.6058042,"lon":7.9437174,"tags":{"artist_name":"Carmen Stahlschmidt","artwork_type":"mural","description":"Keltischer Skulpturenweg","name":"Lachsschwarm","ref":"11","tourism":"artwork"}},{"type":"node","id":5737007023,"lat":48.2642485,"lon":7.7230299,"tags":{"artwork_type":"mural","tourism":"artwork","wheelchair":"yes"}},{"type":"node","id":5737132759,"lat":49.2294085,"lon":6.9930133,"tags":{"addr:housenumber":"9","addr:street":"Spichererbergstraße","artist:wikidata":"Q15110006","artist_name":"MadC","artwork_type":"mural","contact:website":"https://artwalk.saarland/de/madc","description":"Urban ArtWalk #13","name":"Strasse","network":"Urban ArtWalk","ref":"13","tourism":"artwork"}},{"type":"node","id":5848413515,"lat":49.6896794,"lon":6.0305968,"tags":{"artwork_type":"mural","tourism":"artwork"}},{"type":"node","id":5916785335,"lat":48.6833245,"lon":6.1966926,"tags":{"artist_name":"Kogaone","artwork_type":"mural","network":"Art dans Nancy","source":"survey;GrandNancy Orthophotographie 2016","start_date":"2022-06-18","tourism":"artwork"}},{"type":"node","id":5916785336,"lat":48.6953483,"lon":6.1897342,"tags":{"artist_name":"Jef Aerosol","artwork_type":"mural","name":"Stan","network":"Art dans Nancy","source":"survey;GrandNancy Orthophotographie 2016","start_date":"2016","tourism":"artwork"}},{"type":"node","id":5931379195,"lat":48.9596001,"lon":7.3348491,"tags":{"artwork_type":"mural","name":"Médaillon Jeanne d'Arc","source":"Club vosgien Soucht","tourism":"artwork"}},{"type":"node","id":6111683507,"lat":49.2296742,"lon":7.0090443,"tags":{"artist_name":"David Emanuel Kaps","artwork_subject":"figurative","artwork_type":"mural","colour":"lightblue;yellow;brown;orange","man_made":"street_cabinet","manufacturer":"Geyer","ref":"4718","tourism":"artwork","utility":"power"}},{"type":"node","id":6122325123,"lat":49.2308945,"lon":7.0031136,"tags":{"artist_name":"Clara Stolzenberger","artwork_type":"mural","colour":"white","man_made":"street_cabinet","manufacturer":"Siemens","tourism":"artwork"}},{"type":"node","id":6175989596,"lat":49.2314245,"lon":7.0008217,"tags":{"artist_name":"Lara Weiler","artwork_type":"mural","colour":"pink;red;gray","man_made":"street_cabinet","manufacturer":"Stewing Kunststoffbetrieb GmbH","model":"KVz 82","tourism":"artwork","utility":"telecom"}},{"type":"node","id":6365775431,"lat":49.2296234,"lon":7.009367,"tags":{"artist_name":"David Emanuel Kaps","artwork_type":"mural","colour":"green;yellow;orange","man_made":"street_cabinet","manufacturer":"Siemens","noname":"yes","tourism":"artwork"}},{"type":"node","id":6565038862,"lat":49.2337343,"lon":6.984292,"tags":{"addr:city":"Saarbrücken","addr:country":"DE","addr:housenumber":"29","addr:postcode":"66117","addr:street":"Stengelstraße","artist:wikidata":"Q15814628;Q15849329","artist_name":"Heiko Zahlmann;Stohead","artwork_type":"mural","contact:website":"https://artwalk.saarland/de/heiko-zahlmann-und-stohead","description":"Urban ArtWalk #6","name":"Mapped 66117","network":"Urban ArtWalk","ref":"6","tourism":"artwork"}},{"type":"node","id":6596414693,"lat":48.682132,"lon":6.1917325,"tags":{"artist_name":"Vhils","artwork_type":"mural","network":"Art dans Nancy","source":"knowledge;GrandNancy Orthophotographie 2016","start_date":"2019","tourism":"artwork"}},{"type":"node","id":6771509180,"lat":48.684949,"lon":6.1923156,"tags":{"artist_name":"Jace","artwork_type":"mural","network":"Art dans Nancy","source":"knowledge","start_date":"2019","tourism":"artwork"}},{"type":"node","id":6950725893,"lat":48.6656614,"lon":6.171613,"tags":{"artwork_type":"mural","name":"Résidence Les Ardennes","tourism":"artwork"}},{"type":"node","id":6969404359,"lat":48.6874508,"lon":6.1781118,"tags":{"artist_name":"Momo","artwork_type":"mural","network":"Art dans Nancy","source":"survey","start_date":"2019","tourism":"artwork"}},{"type":"node","id":7058565169,"lat":49.2337158,"lon":7.0004258,"tags":{"artist_name":"Simon Hinsberger","artwork_type":"mural","colour":"gray;dimgray;yellow","man_made":"street_cabinet","manufacturer":"Geyer","operator":"Stadtwerke Saarbrücken","tourism":"artwork"}},{"type":"node","id":7058565170,"lat":49.2337238,"lon":7.0004336,"tags":{"artist_name":"Simon Hinsberger","artwork_type":"mural","colour":"gray;dimgray;yellow","man_made":"street_cabinet","manufacturer":"Geyer","operator":"Stadtwerke Saarbrücken","ref":"4138","tourism":"artwork","utility":"power"}},{"type":"node","id":7062631725,"lat":48.6923724,"lon":6.1849523,"tags":{"artist_name":"Erris Huigens et Gysbert Zijlstra","artwork_type":"mural","network":"Art dans Nancy","source":"knowledge","start_date":"2019-12-15","tourism":"artwork"}},{"type":"node","id":7112443018,"lat":48.005461,"lon":7.8350268,"tags":{"artist_name":"Innerfields","artwork_type":"mural","name":"Sympathy","start_date":"2019","tourism":"artwork","wikidata":"Q116478130"}},{"type":"node","id":7278039698,"lat":48.7526052,"lon":6.1689305,"tags":{"artwork_type":"mural","description":"Mosaïque réalisées par les enfants de Bouxières-aux-Dames","start_date":"2006","tourism":"artwork"}},{"type":"node","id":7415489805,"lat":49.7437504,"lon":6.5968166,"tags":{"artwork_type":"mural","name":"Felsrelief am Echternacher Berg","tourism":"artwork","website":"https://kulturdb.de/einobjekt.php?id=40888"}},{"type":"node","id":7551946852,"lat":49.6135106,"lon":6.1374986,"tags":{"artist:wikidata":"Q567547","artist_name":"Ian Hamilton Finlay","artwork_type":"mural","material":"stone","name":"Ripple","start_date":"2001","tourism":"artwork"}},{"type":"node","id":7608770028,"lat":48.6886326,"lon":6.1788676,"tags":{"artist_name":"Bordalo II","artwork_type":"mural","name":"Les 3 ours polaires","network":"Art dans Nancy","source":"knowledge","start_date":"2020-02","tourism":"artwork"}},{"type":"node","id":7847155789,"lat":48.8145296,"lon":7.7847845,"tags":{"artwork_type":"mural","name":"Mosaique","name:de":"Mosaik","tourism":"artwork"}},{"type":"node","id":7850525844,"lat":49.2395861,"lon":6.9157438,"tags":{"artist_name":"Yann Biehl","artwork_type":"mural","colour":"gray","man_made":"street_cabinet","manufacturer":"Krone","operator":"Post","tourism":"artwork"}},{"type":"node","id":7850525847,"lat":49.2395847,"lon":6.915759,"tags":{"artist_name":"Yann Biehl","artwork_type":"mural","colour":"gray","man_made":"street_cabinet","manufacturer":"Sichert Berlin","model":"KVz 83","operator":"Post","street_cabinet":"telecom","tourism":"artwork"}},{"type":"node","id":7850525850,"lat":49.2395874,"lon":6.9157309,"tags":{"artist_name":"Yann Biehl","artwork_type":"mural","colour":"gray","man_made":"street_cabinet","manufacturer":"Geyer","ref":"6061","street_cabinet":"power","tourism":"artwork"}},{"type":"node","id":7862521654,"lat":49.2289641,"lon":6.9909745,"tags":{"addr:city":"Saarbrücken","addr:country":"DE","addr:housenumber":"57","addr:postcode":"66117","addr:street":"Trillerweg","artist_name":"Sen2","artwork_type":"mural","contact:website":"https://artwalk.saarland/de/sen2-wall-2","description":"Urban ArtWalk #9","name":"New York, New York","network":"Urban ArtWalk","ref":"9","tourism":"artwork"}},{"type":"node","id":7873744632,"lat":49.2419684,"lon":6.9908958,"tags":{"artist:wikidata":"Q2145754","artist_name":"Reso","artwork_type":"mural","tourism":"artwork"}},{"type":"node","id":8022422826,"lat":49.6124717,"lon":6.1297988,"tags":{"artist_name":"André Ménard/Spike","artwork_subject":"abstract","artwork_type":"mural","start_date":"1986;2014","tourism":"artwork"}},{"type":"node","id":8094806640,"lat":48.6612158,"lon":6.182708,"tags":{"artist_name":"Romain Froquet","artwork_type":"mural","source":"knowledge","start_date":"2020","tourism":"artwork"}},{"type":"node","id":8174053272,"lat":48.6841893,"lon":6.1787853,"tags":{"artwork_type":"mural","name":"Bière de Dombasle","tourism":"artwork"}},{"type":"node","id":8271129287,"lat":49.8778782,"lon":7.7616252,"tags":{"artist_name":"Michael Horn","artwork_type":"mural","tourism":"artwork"}},{"type":"node","id":8504108523,"lat":48.6837406,"lon":6.1805285,"tags":{"artwork_type":"mural","tourism":"artwork"}},{"type":"node","id":8504108570,"lat":48.683787,"lon":6.1804856,"tags":{"artwork_type":"mural","tourism":"artwork"}},{"type":"node","id":8545075896,"lat":49.3177345,"lon":6.675109,"tags":{"artwork_type":"mural","material":"stone","tourism":"artwork"}},{"type":"node","id":8545075897,"lat":49.3177083,"lon":6.6752176,"tags":{"artwork_type":"mural","material":"stone","start_date":"1879","tourism":"artwork"}},{"type":"node","id":8554119622,"lat":48.2685114,"lon":7.7226339,"tags":{"artwork_type":"mural","tourism":"artwork"}},{"type":"node","id":8807748022,"lat":49.3513045,"lon":7.1754579,"tags":{"artist:wikidata":"Q18762189","artist_name":"Hendrik Beikirch","artwork_subject":"figurative","artwork_type":"mural","name":"E Hiddemann","start_date":"2019","subject":"Bodo Lutze","tourism":"artwork","wikimedia_commons":"Category:Hendrik Beikirch (Neunkirchen)"}},{"type":"node","id":8843376521,"lat":49.2209724,"lon":6.9630992,"tags":{"artist":"Saskia Kassell;Paul Grodhues;Pascal Herth;Lucien Schmidt-Berteau;Leon Strack;Tarik Yilmaz","artwork_subject":"mountaineer","artwork_type":"mural","height":"43","start_date":"2020","tourism":"artwork","width":"10"}},{"type":"node","id":9002519066,"lat":49.3709108,"lon":7.1290489,"tags":{"artist:wikidata":"Q18762189","artist_name":"Hendrik Beikirch","artwork_type":"mural","subject":"Walter Bernstein","subject:wikidata":"Q1553194","tourism":"artwork"}},{"type":"node","id":9002563722,"lat":49.2827864,"lon":7.0365869,"tags":{"artist":"Joni Majer","artwork_type":"mural","tourism":"artwork"}},{"type":"node","id":9546101910,"lat":48.1671485,"lon":7.2958793,"tags":{"artwork_type":"mural","tourism":"artwork"}},{"type":"node","id":9552786255,"lat":48.1694874,"lon":7.3052386,"tags":{"artwork_type":"mural","tourism":"artwork"}},{"type":"node","id":9568105506,"lat":48.6676385,"lon":6.170557,"tags":{"artist_name":"Françoise Schrepfer-Malaprade","artwork_type":"mural","description":"La sieste est une mosaïque en terre cuite émaillée, installée en 1973 sur la façade du gymnase qui fait face groupe Scolaire du Charmois. Deux couleurs ont été utilisées pour façonner l’œuvre : le blanc et le rouge cardinal. Elle présente des formes abst…","image":"https://www.vandoeuvre.fr/wp-content/uploads/2022/03/la-sieste-2.jpg","name":"La sieste","note":"Materiaux Terre cuite","ref":"4","start_date":"1973","tourism":"artwork","website":"https://www.vandoeuvre.fr/bien-etre/culture/354-km-parcours-artistique#la-sieste","img_thumbnail":"node_9568105506_0.jpg"}},{"type":"node","id":9635518483,"lat":48.8145675,"lon":7.7919107,"tags":{"artwork_type":"mural","name":"Trompe l'oeil Sugg","tourism":"artwork"}},{"type":"node","id":9696041469,"lat":49.2548785,"lon":7.0437657,"tags":{"artist_name":"Liselotte Netz-Paulik","artwork_type":"mural","height":"2.80","ref":"24","start_date":"1962","support":"wall","tourism":"artwork","width":"20.00"}},{"type":"node","id":9792745170,"lat":48.6839824,"lon":6.1764506,"tags":{"artwork_type":"mural","tourism":"artwork"}},{"type":"node","id":9799596520,"lat":49.249801,"lon":6.8475202,"tags":{"artist:wikidata":"Q18762189","artist_name":"Hendrik Beikirch","artwork_type":"mural","subject":"Kaya Urhan","tourism":"artwork"}},{"type":"node","id":9800454391,"lat":49.2410925,"lon":6.9466406,"tags":{"artist_name":"David Kaps","artwork_type":"mural","tourism":"artwork"}},{"type":"node","id":9800467552,"lat":49.2448426,"lon":6.9428736,"tags":{"artist_name":"Pascale Bohl","artwork_type":"mural","name":"Menschenmenge","tourism":"artwork"}},{"type":"node","id":9859052385,"lat":48.6865335,"lon":6.1682282,"tags":{"artwork_subject":"ancienne publicité","artwork_type":"mural","tourism":"artwork"}},{"type":"node","id":9870547234,"lat":48.6773873,"lon":6.1862166,"tags":{"artist_name":"Rodes","artwork_type":"mural","name":"Fabul'eau","source":"knowledge","tourism":"artwork"}},{"type":"node","id":9890089604,"lat":49.2545518,"lon":7.0438473,"tags":{"artwork_type":"mural","support":"wall","tourism":"artwork"}},{"type":"node","id":9912991307,"lat":49.2309975,"lon":6.9922251,"tags":{"artist:wikidata":"Q60826119","artwork_type":"mural","name":"Phönix aus der Asche","tourism":"artwork","url:kunstlexikon_saar":"https://institut-aktuelle-kunst.de/kunstlexikon/saarbruecken-st-johann-kaster-wandgestaltung-33965"}},{"type":"node","id":10003009871,"lat":49.2546684,"lon":7.0425533,"tags":{"artwork_type":"mural","tourism":"artwork"}},{"type":"node","id":10172202990,"lat":49.2315042,"lon":6.9755827,"tags":{"artist_name":"Gabriele Eickhoff","artwork_subject":"figurative","artwork_type":"mural","colour":"black;white","noname":"yes","start_date":"1989","tourism":"artwork"}},{"type":"way","id":472713878,"bounds":{"minlat":49.1998634,"minlon":7.0111785,"maxlat":49.2000474,"maxlon":7.0118906},"nodes":[4669130335,4669130336,4669130333,4669130337,4669130338,4669130339,4669130334,4669130340,4669130341,4669130342],"geometry":[{"lat":49.1998634,"lon":7.0111785},{"lat":49.1999204,"lon":7.0111798},{"lat":49.1999528,"lon":7.0111959},{"lat":49.1999843,"lon":7.0112335},{"lat":49.2000229,"lon":7.0113005},{"lat":49.2000413,"lon":7.0113689},{"lat":49.2000474,"lon":7.0114414},{"lat":49.2000422,"lon":7.0115352},{"lat":49.200029,"lon":7.0117002},{"lat":49.200015,"lon":7.0118906}],"tags":{"artist_name":"Tobias Silber","artwork_type":"mural","barrier":"retaining_wall","tourism":"artwork"}},{"type":"way","id":607210611,"bounds":{"minlat":48.1500512,"minlon":7.7428212,"maxlat":48.1500646,"maxlon":7.7429668},"nodes":[5755163524,5755163523],"geometry":[{"lat":48.1500512,"lon":7.7428212},{"lat":48.1500646,"lon":7.7429668}],"tags":{"artwork_type":"mural","barrier":"wall","image":"File:Mosaike in Unterführung Üsenbergstraße, Riegel am Kaiserstuhl.jpg","layer":"0","tourism":"artwork"}},{"type":"way","id":626732957,"bounds":{"minlat":48.690219,"minlon":6.180178,"maxlat":48.6907168,"maxlon":6.1805395},"nodes":[5916700447,8364655338,2656587723],"geometry":[{"lat":48.6907168,"lon":6.180178},{"lat":48.690676,"lon":6.1802077},{"lat":48.690219,"lon":6.1805395}],"tags":{"artist_name":"Sabina Lang;Daniel Baumann","artwork_type":"mural","name":"Street Painting #8","network":"Art dans Nancy","source":"survey;GrandNancy Orthographie 2016","start_date":"2015","tourism":"artwork"}},{"type":"way","id":626732958,"bounds":{"minlat":48.6893827,"minlon":6.1806139,"maxlat":48.6901279,"maxlon":6.1811504},"nodes":[5899506335,5916700448],"geometry":[{"lat":48.6901279,"lon":6.1806139},{"lat":48.6893827,"lon":6.1811504}],"tags":{"artist_name":"Sabina Lang;Daniel Baumann","artwork_type":"mural","name":"Street Painting #8","network":"Art dans Nancy","source":"survey;GrandNancy Orthographie 2016","start_date":"2015","tourism":"artwork"}},{"type":"way","id":899337612,"bounds":{"minlat":48.7273386,"minlon":7.7094991,"maxlat":48.7273551,"maxlon":7.7095926},"nodes":[924334123,924369793],"geometry":[{"lat":48.7273551,"lon":7.7094991},{"lat":48.7273386,"lon":7.7095926}],"tags":{"artwork_type":"mural","tourism":"artwork"}},{"type":"way","id":1007356165,"bounds":{"minlat":48.4206608,"minlon":7.6472279,"maxlat":48.4206992,"maxlon":7.6473102},"nodes":[9293482465,9293482466,9293482467,9293482468],"geometry":[{"lat":48.4206992,"lon":7.6472279},{"lat":48.4206952,"lon":7.6472644},{"lat":48.4206729,"lon":7.6472777},{"lat":48.4206608,"lon":7.6473102}],"tags":{"artwork_type":"mural","tourism":"artwork"}},{"type":"way","id":1007356166,"bounds":{"minlat":48.4207188,"minlon":7.647239,"maxlat":48.4207498,"maxlon":7.6473234},"nodes":[9293482469,9293482470,9293482471,9293482472,9293482473],"geometry":[{"lat":48.4207249,"lon":7.647239},{"lat":48.4207188,"lon":7.6472644},{"lat":48.4207309,"lon":7.6472848},{"lat":48.4207424,"lon":7.6473041},{"lat":48.4207498,"lon":7.6473234}],"tags":{"artwork_type":"mural","tourism":"artwork"}},{"type":"way","id":1060396481,"bounds":{"minlat":49.2488288,"minlon":6.9085637,"maxlat":49.2495564,"maxlon":6.9089975},"nodes":[9742437102,9742437101,9742437100,9742437099],"geometry":[{"lat":49.2488288,"lon":6.9085637},{"lat":49.2491773,"lon":6.9087288},{"lat":49.2493312,"lon":6.9088415},{"lat":49.2495564,"lon":6.9089975}],"tags":{"artist_name":"Lars George;Sven Trittschack","artwork_subject":"figurative","artwork_type":"mural","barrier":"retaining_wall","material":"concrete","name":"Der Schienenweg im Frommersbachtal mit dem Geislauterner Dampfwagen","start_date":"2021","tourism":"artwork"}},{"type":"relation","id":14227428,"bounds":{"minlat":49.2300413,"minlon":6.998076,"maxlat":49.2308007,"maxlon":6.9992603},"members":[{"type":"way","ref":861201694,"role":"inner","geometry":[{"lat":49.2301099,"lon":6.9988775},{"lat":49.2301559,"lon":6.9989009},{"lat":49.2302128,"lon":6.9986386},{"lat":49.2301668,"lon":6.9986152},{"lat":49.2301099,"lon":6.9988775}]},{"type":"way","ref":1067554603,"role":"outer","geometry":[{"lat":49.2308007,"lon":6.9981555},{"lat":49.2307106,"lon":6.9986327},{"lat":49.2305409,"lon":6.9985446},{"lat":49.2305016,"lon":6.9987244},{"lat":49.2304531,"lon":6.9986994},{"lat":49.2303967,"lon":6.9986703},{"lat":49.2303872,"lon":6.9987119},{"lat":49.2303597,"lon":6.9988329},{"lat":49.2302909,"lon":6.9987968},{"lat":49.2302767,"lon":6.9988592},{"lat":49.2301855,"lon":6.9992603},{"lat":49.2301527,"lon":6.9992434},{"lat":49.2301202,"lon":6.9992266},{"lat":49.2301433,"lon":6.9991215},{"lat":49.2300413,"lon":6.999069},{"lat":49.2301013,"lon":6.9987957},{"lat":49.2300665,"lon":6.9987778},{"lat":49.2301215,"lon":6.9985272},{"lat":49.2302339,"lon":6.9985851},{"lat":49.2302602,"lon":6.9985987},{"lat":49.2302789,"lon":6.9985094},{"lat":49.2303023,"lon":6.9983978},{"lat":49.2303099,"lon":6.9983613},{"lat":49.2303158,"lon":6.9983333},{"lat":49.2303367,"lon":6.9982335},{"lat":49.2304431,"lon":6.9982884},{"lat":49.2305513,"lon":6.9983425},{"lat":49.2305805,"lon":6.9983571},{"lat":49.2306002,"lon":6.9982707},{"lat":49.2306447,"lon":6.998076},{"lat":49.2308007,"lon":6.9981555}]}],"tags":{"artist:wikidata":"Q1744655","artist_name":"Michael Riedel","artwork_type":"mural","highway":"pedestrian","name":"Museum","tourism":"artwork","type":"multipolygon"}}]}