{"version":0.6,"generator":"Overpass API 0.7.59 e21c39fe","osm3s":{"timestamp_osm_base":"2022-11-15T13:07:54Z","copyright":"The data included in this document is from www.openstreetmap.org. The data is made available under ODbL."},"elements":[{"type":"node","id":924166638,"lat":48.8319987,"lon":2.3603119,"tags":{"artist_name":"Cryptik","artwork_type":"mural","name":"Untitled","tourism":"artwork","website":"https://www.boulevardparis13.com/project/cryptikuntitled/"}},{"type":"node","id":1217118922,"lat":48.8491443,"lon":2.4742461,"tags":{"artist_name":"Anne-Marie Latremolière","artwork_type":"mural","name":"D'abord continuer, ensuite commencer","tourism":"artwork"}},{"type":"node","id":2401757291,"lat":48.8480182,"lon":2.4768299,"tags":{"artwork_type":"mural","name":"Nul si recouvert grue tigre","tourism":"artwork","wheelchair":"limited"}},{"type":"node","id":2401872181,"lat":48.8488841,"lon":2.4763227,"tags":{"artwork_type":"mural","name":"Vol des cigognes","tourism":"artwork","wheelchair":"no"}},{"type":"node","id":2401873744,"lat":48.8488534,"lon":2.4766947,"tags":{"artwork_type":"mural","name":"Équilibre sur une main","tourism":"artwork","wheelchair":"no"}},{"type":"node","id":2401873939,"lat":48.849116,"lon":2.4764463,"tags":{"artwork_type":"mural","name":"Rhinocéros bleu","tourism":"artwork","wheelchair":"no"}},{"type":"node","id":2401874192,"lat":48.8492073,"lon":2.476187,"tags":{"artwork_type":"mural","name":"Séance photo d'oiseau","tourism":"artwork","wheelchair":"no"}},{"type":"node","id":2435297261,"lat":48.7916119,"lon":2.3885259,"tags":{"artwork_type":"mural","name":"Street Art","tourism":"artwork"}},{"type":"node","id":2435297265,"lat":48.7906282,"lon":2.3890615,"tags":{"artwork_type":"mural","name":"Street Art","tourism":"artwork"}},{"type":"node","id":2435323698,"lat":48.7933393,"lon":2.3960812,"tags":{"artwork_type":"mural","tourism":"artwork"}},{"type":"node","id":2572918511,"lat":48.9145148,"lon":2.2284925,"tags":{"artwork_type":"mural","tourism":"artwork"}},{"type":"node","id":2659871682,"lat":48.8013456,"lon":2.3789682,"tags":{"artwork_type":"mural","tourism":"artwork"}},{"type":"node","id":2940272801,"lat":48.8592935,"lon":2.3509403,"tags":{"artist_name":"Jef Aérosol","artwork_type":"mural","name":"Chuuuttt !!!","start_date":"2011","tourism":"artwork"}},{"type":"node","id":3048689348,"lat":48.7910119,"lon":2.284428,"tags":{"artwork_type":"mural","tourism":"artwork"}},{"type":"node","id":3110056711,"lat":49.8590939,"lon":2.8321954,"tags":{"artist_name":"Armand Langlois","artwork_type":"mural","layer":"-1","length":"60 m","start_date":"2006","tourism":"artwork"}},{"type":"node","id":3778123219,"lat":48.8445081,"lon":2.3563066,"tags":{"artist_name":"Angela Detanico et Rafael Lain","artwork_type":"mural","name":"Ceinture de Feu","tourism":"artwork","wikidata":"Q3207118","wikipedia":"fr:La Ceinture de feu"}},{"type":"node","id":4044428611,"lat":48.8848146,"lon":2.3385192,"tags":{"artist_name":"Frédéric Baron, Claire Kito","artwork_type":"mural","email":"contact@lesjetaime.com","name":"Le mur des je t'aime","name:cs":"Zeď lásky","name:en":"The Wall of Love","name:es":"El Muro del Amor","name:ko":"사랑벽","name:ru":"Стена любви","name:zh":"愛牆","tourism":"artwork","website":"http://www.lesjetaime.com/","wikidata":"Q10860702","wikipedia":"fr:Mur des je t'aime"}},{"type":"node","id":4376170093,"lat":48.8329558,"lon":2.363772,"tags":{"artist_name":"Obey (Shepard Fairey)","artwork_type":"mural","name":"Rise Above Rebel","tourism":"artwork","website":"https://www.boulevardparis13.com/project/rise-above-rebel/"}},{"type":"node","id":4376170094,"lat":48.8305229,"lon":2.3615666,"tags":{"artist_name":"Vhils","artwork_type":"mural","name":"Bob Dylan","tourism":"artwork","website":"https://www.boulevardparis13.com/project/untitled-2/"}},{"type":"node","id":4376182292,"lat":48.8211868,"lon":2.364542,"tags":{"artist_name":"STeW","artwork_type":"mural","name":"Héron bleuté","name:en":"Blue Heron","tourism":"artwork","website":"http://stewearth.com/outdoor/heron-bleute/"}},{"type":"node","id":4376620092,"lat":48.8347527,"lon":2.3573837,"tags":{"artist_name":"M-City","artwork_type":"mural","name":"M-CITY 288","tourism":"artwork","website":"https://www.boulevardparis13.com/project/m-city-288/"}},{"type":"node","id":4376621093,"lat":48.8348679,"lon":2.3618703,"tags":{"artist_name":"Jana & JS","artwork_type":"mural","name":"Fresque des photographes","tourism":"artwork","website":"https://www.boulevardparis13.com/project/jana-js/"}},{"type":"node","id":4376631490,"lat":48.8171229,"lon":2.3604756,"tags":{"addr:city":"Paris","addr:postcode":"75013","addr:street":"Avenue de la Porte d'Italie","artist_name":"Sainer","artwork_type":"mural","name":"High Hopes","tourism":"artwork","website":"https://www.boulevardparis13.com/project/high-hopes/"}},{"type":"node","id":4384812213,"lat":48.8285616,"lon":2.3766786,"tags":{"artist_name":"Zag Sia","artwork_type":"mural","tourism":"artwork"}},{"type":"node","id":4526195748,"lat":48.8507839,"lon":2.3343794,"tags":{"artwork_type":"mural","author":"Eugène Delacroix","indoor":"yes","level":"1","name":"La Lutte de Jacob avec l'Ange","start_date":"1861","tourism":"artwork","wikidata":"Q3837491","wikipedia":"fr:La Lutte de Jacob avec l'Ange (Delacroix)"}},{"type":"node","id":5293745257,"lat":48.8266538,"lon":2.3523636,"tags":{"artist_name":"Jace","artwork_type":"mural","name":"Gouzou : Mario","start_date":"2015","tourism":"artwork"}},{"type":"node","id":5298265129,"lat":48.8378217,"lon":2.3337785,"tags":{"addr:city":"Paris","addr:postcode":"75014","addr:street":"Avenue Denfert-Rochereau","artist_name":"Jace","artwork_type":"mural","fixme":"en place ?","name":"Gouzou guitariste","start_date":"2017","tourism":"artwork"}},{"type":"node","id":5334880993,"lat":48.8282058,"lon":2.3676704,"tags":{"artwork_subject":"Plan du 13e","artwork_type":"mural","tourism":"artwork"}},{"type":"node","id":5636722028,"lat":48.8507795,"lon":2.334298,"tags":{"artwork_type":"mural","author":"Eugène Delacroix","indoor":"yes","level":"1","name":"Héliodore chassé du temple","start_date":"1861","tourism":"artwork"}},{"type":"node","id":5889162636,"lat":48.7905349,"lon":2.3845737,"tags":{"artist_name":"Corneille","artwork_type":"mural","description":"Parcours L'Art dans la Ville","name":"Peinture Murale","start_date":"1977","tourism":"artwork"}},{"type":"node","id":5936341564,"lat":48.8922684,"lon":2.2391249,"tags":{"artwork_type":"mural","level":"-2","tourism":"artwork"}},{"type":"node","id":6285424086,"lat":48.8278266,"lon":2.3817186,"tags":{"artist_name":"Bordalo II","artwork_subject":"abstract","artwork_type":"mural","name":"Mouse Lemur","tourism":"artwork"}},{"type":"node","id":6378760287,"lat":49.8906369,"lon":2.3136709,"tags":{"artwork_type":"mural","mapillary":"4116403245076688","support":"wall","tourism":"artwork"}},{"type":"node","id":6771819655,"lat":48.8316479,"lon":2.3661073,"tags":{"addr:housenumber":"60","addr:street":"Rue Jeanne d'Arc","artist_name":"Obey (Shepard Fairey)","artwork_type":"mural","name":"Delicate Balance","tourism":"artwork","website":"https://www.boulevardparis13.com/project/delicate-balance/"}},{"type":"node","id":6895241786,"lat":48.8326953,"lon":2.3625389,"tags":{"artist_name":"C215","artwork_type":"mural","name":"Le Chat","tourism":"artwork"}},{"type":"node","id":6895241787,"lat":48.8343883,"lon":2.3671839,"tags":{"artist_name":"INTI","artwork_type":"mural","name":"La Madre Secular 2","tourism":"artwork","website":"https://www.boulevardparis13.com/project/la-madre-secular-2/"}},{"type":"node","id":6895247085,"lat":48.8326446,"lon":2.3628203,"tags":{"artist_name":"Obey (Shepard Fairey)","artwork_type":"mural","name":"Liberté, Égalité, Fraternité","tourism":"artwork"}},{"type":"node","id":6895247086,"lat":48.8256337,"lon":2.3784237,"tags":{"artist:wikipedia":"en:Tristan Eaton","artist_name":"Tristan Eaton","artwork_type":"mural","name":"The Revolution will be Trivialized","name:it":"The Revolution will be Trivialized","tourism":"artwork"}},{"type":"node","id":6944525728,"lat":48.8263332,"lon":2.3747761,"tags":{"artwork_type":"mural","tourism":"artwork"}},{"type":"node","id":6949620731,"lat":48.8127796,"lon":2.3047074,"tags":{"artist_name":"Alfred Janniot","artwork_subject":"figurative","artwork_type":"mural","name":"Dessin, Architecture, Construction","tourism":"artwork"}},{"type":"node","id":6969276365,"lat":48.8485802,"lon":2.4769954,"tags":{"artwork_type":"mural","name":"Femme qui saute","tourism":"artwork","wheelchair":"no"}},{"type":"node","id":6969544432,"lat":48.8493264,"lon":2.4736752,"tags":{"artwork_type":"mural","tourism":"artwork"}},{"type":"node","id":6969544433,"lat":48.8492455,"lon":2.4738885,"tags":{"artwork_type":"mural","tourism":"artwork"}},{"type":"node","id":6969544435,"lat":48.8491877,"lon":2.4742707,"tags":{"artist_name":"Made","artwork_type":"mural","name":"Je suis... j'avance","tourism":"artwork"}},{"type":"node","id":6969655136,"lat":48.8491713,"lon":2.4742614,"tags":{"artist_name":"Olivier Darne","artwork_type":"mural","name":"Nous sommes demain, hier est passé","tourism":"artwork"}},{"type":"node","id":6969659867,"lat":48.8496194,"lon":2.4737959,"tags":{"artist_name":"Michel Quarez","artwork_type":"mural","name":"Té Où ?","tourism":"artwork"}},{"type":"node","id":6997588005,"lat":49.2604327,"lon":2.4555384,"tags":{"artwork_type":"mural","tourism":"artwork"}},{"type":"node","id":7140848335,"lat":48.8768341,"lon":2.3724769,"tags":{"artwork_type":"mural","tourism":"artwork"}},{"type":"node","id":7243679048,"lat":48.8264812,"lon":2.3599277,"tags":{"artist_name":"C215","artwork_type":"mural","start_date":"2019","tourism":"artwork"}},{"type":"node","id":7243679049,"lat":48.8589018,"lon":2.3704309,"tags":{"artist_name":"C215","artwork_type":"mural","name":"Je Suis Charlie","tourism":"artwork"}},{"type":"node","id":7379770808,"lat":48.6361058,"lon":2.5466468,"tags":{"artist_name":"Agostino Iacurci","artwork_type":"mural","description":"La réalisation pour Lieusaint explore le concept de « coexistence » entre les êtres humains (l'architecture de la maison), le monde naturel (les plantes) le monde animal (les chiens) en une clé domestique","name":"L'escalier","tourism":"artwork"}},{"type":"node","id":7379770809,"lat":48.6302598,"lon":2.5539747,"tags":{"artist_name":"David Walker","artwork_type":"mural","name":"Yuli","tourism":"artwork"}},{"type":"node","id":7379770810,"lat":48.635175,"lon":2.5477582,"tags":{"artist_name":"TWOONE","artwork_type":"mural","name":"Pas d'Hivernage","tourism":"artwork"}},{"type":"node","id":7379834259,"lat":48.6275014,"lon":2.5903368,"tags":{"artist_name":"L7Matrix","artwork_type":"mural","name":"La Bergeronnette Colorée","tourism":"artwork"}},{"type":"node","id":7379834260,"lat":48.6280722,"lon":2.5522407,"tags":{"artist_name":"ZMOGK","artwork_type":"mural","name":"Butterflies","tourism":"artwork"}},{"type":"node","id":7415816946,"lat":48.7955747,"lon":2.384391,"tags":{"artist_name":"Norman Dilworth","artwork_type":"mural_painting","description":"Parcours  L'Art dans la Ville","name":"Orbite","start_date":"2010","tourism":"artwork"}},{"type":"node","id":7431483158,"lat":48.7948142,"lon":2.3854502,"tags":{"artist_name":"Maëlle Labussière","artwork_type":"mural","description":"Parcours  L'Art dans la Ville","name":"Le mètre","tourism":"artwork"}},{"type":"node","id":7441008925,"lat":48.832999,"lon":2.3634026,"tags":{"artist_name":"Maye","artwork_type":"mural","name":"Étang de Thau","tourism":"artwork","website":"https://www.boulevardparis13.com/project/mayeetang-de-thau/"}},{"type":"node","id":7459375626,"lat":48.8292032,"lon":2.380501,"tags":{"artist:wikipedia":"fr:Roa_(artiste)","artist_name":"Roa","artwork_subject":"figurative","artwork_type":"mural","name":"Squelette de Chat","tourism":"artwork","website":"https://www.boulevardparis13.com/project/roauntitled/"}},{"type":"node","id":7459375627,"lat":48.8333846,"lon":2.3627429,"tags":{"artist_name":"ADD FUEL","artwork_type":"mural","name":"Unfaded","tourism":"artwork","website":"https://www.addfuel.com/work/murals/unfaded/"}},{"type":"node","id":7459375628,"lat":48.8324022,"lon":2.361714,"tags":{"artist_name":"D*Face","artwork_type":"mural","name":"Turn Coat","tourism":"artwork","website":"https://www.boulevardparis13.com/project/streets-dface-turn-coat-paris/"}},{"type":"node","id":7459375629,"lat":48.8335908,"lon":2.362039,"tags":{"artist_name":"D*Face","artwork_type":"mural","name":"Love won't tear us appart","start_date":"2017","tourism":"artwork","website":"https://www.boulevardparis13.com/project/dfacelove-wont-tear-us-appart/"}},{"type":"node","id":7459375631,"lat":48.8342648,"lon":2.3644838,"tags":{"artist_name":"Untitled","artwork_type":"mural","name":"David de la Mano","tourism":"artwork","website":"https://www.boulevardparis13.com/project/untitled/"}},{"type":"node","id":7459375632,"lat":48.829858,"lon":2.3669836,"tags":{"artist_name":"INTI","artwork_type":"mural","name":"Sudaka","tourism":"artwork","website":"https://www.boulevardparis13.com/project/untitled-3/"}},{"type":"node","id":7470453082,"lat":48.832931,"lon":2.363223,"tags":{"artist_name":"ADD FUEL","artwork_type":"mural","name":"Envolvente","tourism":"artwork","website":"http://www.boulevardparis13.com/project/addfuelenvolvente/"}},{"type":"node","id":7470453083,"lat":48.8323218,"lon":2.3594337,"tags":{"artist_name":"DALeast","artwork_type":"mural","name":"Untitled","tourism":"artwork","website":"https://www.boulevardparis13.com/project/daleastuntitled154-bd-vincent-auriol/"}},{"type":"node","id":7470463885,"lat":48.8320569,"lon":2.3605644,"tags":{"artist_name":"Hush","artwork_type":"mural","name":"Untitled","tourism":"artwork"}},{"type":"node","id":7470463886,"lat":48.8340439,"lon":2.3631494,"tags":{"artist_name":"Faile","artwork_type":"mural","name":"Et j'ai retenu mon souffle","tourism":"artwork","website":"https://www.boulevardparis13.com/project/retenu-mon-souffle/"}},{"type":"node","id":7470463887,"lat":48.8337223,"lon":2.3614703,"tags":{"artist_name":"BTOY","artwork_type":"mural","name":"Evelyn Nesbit","tourism":"artwork","website":"https://www.boulevardparis13.com/project/evelyn-nesbit/"}},{"type":"node","id":7470463888,"lat":48.8342011,"lon":2.3627815,"tags":{"artist_name":"Seth","artwork_type":"mural","name":"Gamin de Paris","name:en":"Enter the Vortex","tourism":"artwork","website":"https://www.boulevardparis13.com/project/sethuntitled/"}},{"type":"node","id":7470463889,"lat":48.8218014,"lon":2.364219,"tags":{"artist_name":"Pantónio","artwork_type":"mural","name":"North","tourism":"artwork"}},{"type":"node","id":7470463890,"lat":48.8341431,"lon":2.3668383,"tags":{"artist_name":"Conor Harrington","artwork_type":"mural","name":"Etreinte et lutte","tourism":"artwork","website":"https://www.boulevardparis13.com/project/conor-harrington-etreinte-et-lutte/"}},{"type":"node","id":7470463891,"lat":48.834002,"lon":2.3666587,"tags":{"artist_name":"Pantónio","artwork_type":"mural","name":"Fragile Agile","tourism":"artwork","website":"https://www.boulevardparis13.com/project/pantoniofragile-agile/"}},{"type":"node","id":7470463892,"lat":48.831897,"lon":2.3606226,"tags":{"artist_name":"Hownosm","artwork_type":"mural","name":"Sun Daze","tourism":"artwork","website":"http://www.boulevardparis13.com/project/hownosm-sun-daze/"}},{"type":"node","id":7475556926,"lat":48.8566198,"lon":2.4767484,"tags":{"artist_name":"Maurice Cardon","artwork_type":"mural","name":"Les Abeilles","tourism":"artwork","wikidata":"Q93102113"}},{"type":"node","id":7475894217,"lat":48.8465165,"lon":2.4761402,"tags":{"artist_name":"Nemo","artwork_type":"mural","name":"Sans titre","tourism":"artwork"}},{"type":"node","id":7610231078,"lat":48.8938308,"lon":2.409354,"tags":{"artist_name":"Pboy","artwork_type":"mural","tourism":"artwork"}},{"type":"node","id":7641036071,"lat":48.8337887,"lon":2.3617829,"tags":{"artist_name":"ST4","artwork_type":"mural","name":"Untitled","tourism":"artwork"}},{"type":"node","id":7659450754,"lat":48.8725187,"lon":2.3668628,"tags":{"artwork_type":"mural","name":"Ceci n'est pas une ordonnance","tourism":"artwork"}},{"type":"node","id":7777736102,"lat":48.8438415,"lon":2.344878,"tags":{"artist:wikipedia":"fr:C215_(artiste)","artist_name":"C215","artwork_type":"mural","name":"Fresque Marie Curie","tourism":"artwork"}},{"type":"node","id":7820416675,"lat":49.2191078,"lon":3.998549,"tags":{"artist_name":"PRO 176","artwork_type":"mural","name":"Fresque de PRO 176","tourism":"artwork"}},{"type":"node","id":7820457373,"lat":49.2192992,"lon":3.9867704,"tags":{"artist_name":"Onie Jackson","artwork_type":"mural","name":"La Marianne","tourism":"artwork"}},{"type":"node","id":7822562987,"lat":49.2188612,"lon":3.9856102,"tags":{"artist_name":"Joan Miró","artwork_type":"mural","tourism":"artwork"}},{"type":"node","id":7883714885,"lat":48.8821662,"lon":2.3514146,"tags":{"artist:wikipedia":"fr:Vhils","artist_name":"Vhils","artwork_type":"mural","construction_year":"2019","name":"Scratching the Surface","tourism":"artwork"}},{"type":"node","id":7884344586,"lat":48.9313706,"lon":2.042729,"tags":{"artist_name":"Tim Zdey","artwork_type":"mural","name":"Fresque Combin'air","start_date":"2020-09-07","tourism":"artwork"}},{"type":"node","id":8016004918,"lat":48.8181728,"lon":2.3235027,"tags":{"artist_name":"Fabio Riéty","artwork_type":"mural","tourism":"artwork"}},{"type":"node","id":8068585693,"lat":48.6832294,"lon":2.1711141,"tags":{"artist_name":"Lucce","artwork_type":"mural","tourism":"artwork","website":"http://www.paris-saclay.com/fileadmin/documents/2.Vivre_ici/Culture/Programme_Space_web.pdf"}},{"type":"node","id":8105157361,"lat":48.8328817,"lon":2.3279672,"tags":{"artwork_subject":"Agnès Varda","artwork_type":"mural","name":"Agnes V.","tourism":"artwork"}},{"type":"node","id":8121110452,"lat":48.8255746,"lon":2.3799813,"tags":{"artist_name":"Bordalo II","artwork_type":"mural","source":"survey 2021","tourism":"artwork"}},{"type":"node","id":8140101312,"lat":48.8793827,"lon":2.4008982,"tags":{"artist_name":"Boa Mistura","artwork_type":"mural_painting","name":"Rencontre","tourism":"artwork","year":"2020"}},{"type":"node","id":8163738154,"lat":48.8920861,"lon":2.4097296,"tags":{"artist_name":"Dourone","artwork_type":"mural","name":"Marine","tourism":"artwork","year":"2019"}},{"type":"node","id":8168842279,"lat":48.8893075,"lon":2.3880064,"tags":{"artist_name":"DaCruz - Skio","artwork_type":"mural","name":"Fier comme un paon","tourism":"artwork","year":"2019"}},{"type":"node","id":8168842280,"lat":48.889824,"lon":2.3830574,"tags":{"artist_name":"Vinie","artwork_type":"mural","tourism":"artwork","year":"2019"}},{"type":"node","id":8184420378,"lat":48.8752731,"lon":2.3537849,"tags":{"artist_name":"Philippe Baudelocque","artwork_type":"mural","name":"Panthère Cosmique","start_date":"05/2016","tourism":"artwork"}},{"type":"node","id":8205219138,"lat":48.8757937,"lon":2.3606013,"tags":{"artwork_type":"mural","tourism":"artwork"}},{"type":"node","id":8256992399,"lat":48.8344129,"lon":2.3772569,"tags":{"artwork_type":"mural","tourism":"artwork"}},{"type":"node","id":8354592785,"lat":48.6499698,"lon":2.3740098,"tags":{"artwork_type":"mural","name":"Fresque","note":"Fresque mosaïque (visages d'enfants)","tourism":"artwork"}},{"type":"node","id":8354594261,"lat":48.6479558,"lon":2.3476695,"tags":{"artwork_type":"mural","name":"Mosaique","note":"Mosaïque collective (habitants du quartier + collégiens) ; inspirée de \"Femme asdise dans un jardin\" de Pablo Picasso","tourism":"artwork"}},{"type":"node","id":8354594262,"lat":48.6487409,"lon":2.348223,"tags":{"artwork_type":"mural","name":"Fresque sous-marine","note":"hall d'entrée de la piscine (accessible aux visiteurs et curieux)","tourism":"artwork"}},{"type":"node","id":8355116791,"lat":48.7897864,"lon":2.3112379,"tags":{"artist_name":"caValdait","artwork_type":"mural","tourism":"artwork"}},{"type":"node","id":8355694069,"lat":48.6515318,"lon":2.3816883,"tags":{"artwork_type":"mural","note":"Visage d'enfant en mosaïque et en Façade","tourism":"artwork"}},{"type":"node","id":8356206310,"lat":48.6529937,"lon":2.378534,"tags":{"artwork_type":"mural","note":"Street art en Façade (portraits féminins)","tourism":"artwork"}},{"type":"node","id":8379680055,"lat":48.6699952,"lon":2.3745275,"tags":{"artwork_type":"mural","historic":"heritage","name":"Le Nymphée","note":"https://www.essonne.fr/culture-loisirs-tourisme/lactualite-culture-loisirs-tourisme/plongee-dans-le-nymphee-de-viry-chatillon","start_date":"1692","tourism":"artwork"}},{"type":"node","id":8441703059,"lat":48.8734244,"lon":2.3707413,"tags":{"artist_name":"Bruno Baloup","artwork_type":"mural","description":"fenêtres en trompe l'oeil","start_date":"1992","tourism":"artwork"}},{"type":"node","id":8521552559,"lat":49.4271248,"lon":2.8158293,"tags":{"artwork_type":"mural","tourism":"artwork"}},{"type":"node","id":8592754728,"lat":48.8306006,"lon":2.2974622,"tags":{"artwork_type":"mural","tourism":"artwork"}},{"type":"node","id":8601675118,"lat":48.8762724,"lon":2.2925186,"tags":{"artist_name":"invader","artwork_type":"mural","description":"PA429 blanc à côté du panneau carnot","tourism":"artwork"}},{"type":"node","id":8608680317,"lat":48.9332708,"lon":2.308273,"tags":{"artist_name":"Invader","artwork_type":"mural","ref":"PA_1435","tourism":"artwork"}},{"type":"node","id":8610686618,"lat":48.8841444,"lon":2.3396401,"tags":{"artist_name":"Invader","artwork_type":"mural","ref":"PA_0161","tourism":"artwork"}},{"type":"node","id":8642547320,"lat":48.8930846,"lon":2.23351,"tags":{"artist_name":"Sébastien Preschoux","artwork_type":"mural","name":"Slinky","tourism":"artwork"}},{"type":"node","id":8644680439,"lat":48.8933836,"lon":2.2318467,"tags":{"artist_name":"Vhils","artwork_type":"mural","name":"Scratching the surface","tourism":"artwork"}},{"type":"node","id":8646604119,"lat":48.8636344,"lon":2.3445726,"tags":{"artist_name":"Invader","artwork_type":"mural","ref":"PA060","tourism":"artwork"}},{"type":"node","id":8646623719,"lat":48.8612057,"lon":2.3442597,"tags":{"artist_name":"Invader","artwork_type":"mural","ref":"PA_1034","survey:date":"2022-03-14","tourism":"artwork"}},{"type":"node","id":8647526518,"lat":48.8659355,"lon":2.3469392,"tags":{"artist_name":"Invader","artwork_type":"mural","ref":"PA468","survey:date":"2022-03-12","tourism":"artwork"}},{"type":"node","id":8652563011,"lat":48.7881794,"lon":2.3874721,"tags":{"artist_name":"Tuan","artwork_type":"mural","description":"Parcours \"L'art dans la ville\"","name":"Peinture sans titre","tourism":"artwork","year":"1973"}},{"type":"node","id":8652563012,"lat":48.7856436,"lon":2.3942176,"tags":{"artist_name":"Michel Tyszblat","artwork_type":"mural","description":"Parcours \"L'art dans la ville\"","name":"Peinture sans titre","tourism":"artwork","year":"1973"}},{"type":"node","id":8674961576,"lat":48.8675277,"lon":2.3437126,"tags":{"artwork_type":"mural","tourism":"artwork"}},{"type":"node","id":8676262320,"lat":48.8612351,"lon":2.3435017,"tags":{"artist_name":"Invader","artwork_type":"mural","ref":"Pa_493","survey:date":"2022-03-14","tourism":"artwork"}},{"type":"node","id":8718066018,"lat":49.0067647,"lon":2.5281587,"tags":{"artist_name":"Invader","artwork_type":"mural","inscription":"Play","name":"Pa_497","source":"survey","tourism":"artwork"}},{"type":"node","id":8762276928,"lat":48.8433541,"lon":2.3469142,"tags":{"artwork_type":"mural","name":"Scrabble","tourism":"artwork"}},{"type":"node","id":8783950369,"lat":48.9274356,"lon":2.0428191,"tags":{"artwork_type":"mural","name":"Peinture monumentale du hall d'entrée","tourism":"artwork","wikidata":"Q100872590"}},{"type":"node","id":8784694848,"lat":48.834397,"lon":2.3610048,"tags":{"artwork_subject":"Exil des républicains espagnols","artwork_type":"mural","name":"La Nueve de la 2e DB","start_date":"2019","tourism":"artwork"}},{"type":"node","id":8850821768,"lat":48.859662,"lon":2.4013333,"tags":{"artwork_type":"mural","name":"Love hotel","tourism":"artwork"}},{"type":"node","id":8850821782,"lat":48.8594337,"lon":2.4028333,"tags":{"artist_name":"The atomik nation","artwork_type":"mural","name":"Street music box","start_date":"2020","tourism":"artwork"}},{"type":"node","id":8946269795,"lat":48.8823661,"lon":2.4106513,"tags":{"artist_name":"Artivista","artwork_type":"mural","tourism":"artwork","year_of_construction":"2018"}},{"type":"node","id":8946269796,"lat":48.8827357,"lon":2.4107592,"tags":{"artist_name":"Artivista","artwork_type":"mural","name":"Le Labyrinthe","tourism":"artwork","year_of_construction":"2018"}},{"type":"node","id":8946269797,"lat":48.8856556,"lon":2.4039497,"tags":{"artist_name":"Artivista","artwork_type":"mural","tourism":"artwork","year_of_construction":"2021"}},{"type":"node","id":8946269798,"lat":48.8859103,"lon":2.4035602,"tags":{"artist_name":"Artivista","artwork_type":"mural","tourism":"artwork","year_of_construction":"2021"}},{"type":"node","id":8946269799,"lat":48.8881111,"lon":2.4017105,"tags":{"artist_name":"Artivista","artwork_type":"mural","tourism":"artwork","year_of_construction":"2021"}},{"type":"node","id":8946269800,"lat":48.8894897,"lon":2.4008761,"tags":{"artist_name":"Artivista","artwork_type":"mural","tourism":"artwork","year_of_construction":"2021"}},{"type":"node","id":8949448468,"lat":49.3779391,"lon":2.4151141,"tags":{"artist_name":"Christiran Guémy","artwork_type":"mural","name":"Jean-Dominique Cassini I","tourism":"artwork"}},{"type":"node","id":8949448469,"lat":49.3848209,"lon":2.4168563,"tags":{"artist_name":"Christian Guémy","artwork_type":"mural","name":"Georges Bernanos","tourism":"artwork"}},{"type":"node","id":8949448470,"lat":49.3841925,"lon":2.4144423,"tags":{"artist_name":"Christian Guémy","artwork_type":"mural","name":"François Tabuteau et Paul-Emile Victor","tourism":"artwork"}},{"type":"node","id":8949448471,"lat":49.3849097,"lon":2.4096999,"tags":{"artist_name":"Christian Guémy","artwork_type":"mural","name":"L'Abbé Henri Breuil","tourism":"artwork"}},{"type":"node","id":8949448472,"lat":49.3795309,"lon":2.4125293,"tags":{"artist_name":"Christian Guémy","artwork_type":"mural","name":"Jean Fernel","tourism":"artwork"}},{"type":"node","id":8949448473,"lat":49.3774808,"lon":2.4127841,"tags":{"artist_name":"Christian Guémy","artwork_type":"mural","name":"Louis Moreau Gottshalk","tourism":"artwork"}},{"type":"node","id":8949448475,"lat":49.3753694,"lon":2.4121618,"tags":{"artist_name":"Christian Guémy","artwork_type":"mural","name":"Pierre Viénot","tourism":"artwork"}},{"type":"node","id":8949448476,"lat":49.3777717,"lon":2.4151832,"tags":{"artist_name":"Christian Guémy","artwork_type":"mural","name":"Louis Le Caron dit Charondas","tourism":"artwork"}},{"type":"node","id":8949448477,"lat":49.3774778,"lon":2.4157362,"tags":{"artist_name":"Christian Guémy","artwork_type":"mural","name":"Jacques Grévin","tourism":"artwork"}},{"type":"node","id":8949448478,"lat":49.3777225,"lon":2.4167684,"tags":{"artist_name":"Christian Guémy","artwork_type":"mural","name":"Yolande Moreau en Séraphine Louis","tourism":"artwork"}},{"type":"node","id":8949448479,"lat":49.3777095,"lon":2.4167776,"tags":{"artist_name":"Christian Guémy","artwork_type":"mural","name":"Généraux Foch et Pershing","tourism":"artwork"}},{"type":"node","id":8949448480,"lat":49.3777406,"lon":2.4167961,"tags":{"artist_name":"Christian Guémy","artwork_type":"mural","name":"Robert Boulet et Maurice Denis","tourism":"artwork"}},{"type":"node","id":8949448481,"lat":49.3793393,"lon":2.4194335,"tags":{"artist_name":"Christian Guémy","artwork_type":"mural","name":"Françoise de Brancas, princiesse d'Harcourt","tourism":"artwork"}},{"type":"node","id":8960897010,"lat":49.3793372,"lon":2.4194012,"tags":{"artist_name":"Christian Guémy","artwork_type":"mural","name":"Roger Martin du Gard","tourism":"artwork"}},{"type":"node","id":8960897011,"lat":49.3802522,"lon":2.4192027,"tags":{"artist_name":"Christian Guémy","artwork_type":"mural","name":"Séraphine Louis","tourism":"artwork"}},{"type":"node","id":8960897012,"lat":49.3784585,"lon":2.4150505,"tags":{"artist_name":"Christian Guémy","artwork_type":"mural","name":"Paul Ambille","tourism":"artwork"}},{"type":"node","id":8960897013,"lat":49.381946,"lon":2.4153082,"tags":{"artist_name":"Christian Guémy","artwork_type":"mural","name":"Victor Hugo","tourism":"artwork"}},{"type":"node","id":8960897014,"lat":49.3796932,"lon":2.4135267,"tags":{"artist_name":"Christian Guémy","artwork_type":"mural","name":"Auguste Delphe-Labitte","tourism":"artwork"}},{"type":"node","id":8960897015,"lat":49.3796712,"lon":2.413936,"tags":{"artist_name":"Christian Guémy","artwork_type":"mural","name":"Robert de Clermont","tourism":"artwork"}},{"type":"node","id":8990407437,"lat":48.7997074,"lon":2.2860865,"tags":{"artist_name":"Frédéric Gracia","artwork_type":"mural","start_date":"2014-03","tourism":"artwork"}},{"type":"node","id":8990407444,"lat":48.7995693,"lon":2.2893804,"tags":{"artist_name":"Frédéric Gracia","artwork_type":"mural","start_date":"2014-03","tourism":"artwork"}},{"type":"node","id":9019374173,"lat":48.8728832,"lon":2.3636089,"tags":{"artwork_type":"mural","name":"Comme dans un livre ouvert","tourism":"artwork"}},{"type":"node","id":9040881098,"lat":48.8631288,"lon":2.3581534,"tags":{"artwork_type":"mural","tourism":"artwork"}},{"type":"node","id":9178471508,"lat":48.8265261,"lon":2.3782453,"tags":{"artwork_type":"mural","tourism":"artwork"}},{"type":"node","id":9215147812,"lat":49.0500865,"lon":2.0338905,"tags":{"artist_name":"Art Osons","artwork_type":"mural","name":"Sérénité","tourism":"artwork"}},{"type":"node","id":9221195742,"lat":48.8281084,"lon":2.3769649,"tags":{"artist_name":"Human soul","artwork_type":"mural","start_date":"2021","tourism":"artwork"}},{"type":"node","id":9221195753,"lat":48.8281519,"lon":2.376901,"tags":{"artist_name":"Human soul","artwork_type":"mural","start_date":"2021","tourism":"artwork"}},{"type":"node","id":9251045004,"lat":48.8054173,"lon":2.3241843,"tags":{"artwork_type":"mural","inscription":"CHE VAL TFD","tourism":"artwork"}},{"type":"node","id":9272082711,"lat":48.8478386,"lon":2.3408365,"tags":{"artist_name":"Invader","artwork_type":"mural","ref":"PA_487","tourism":"artwork"}},{"type":"node","id":9373681878,"lat":48.8662761,"lon":2.3806717,"tags":{"artwork_type":"mural","tourism":"artwork"}},{"type":"node","id":9436979262,"lat":48.9041515,"lon":2.4759276,"tags":{"artwork_type":"mural","name":"Fresque Kylian Mbappé","tourism":"artwork"}},{"type":"node","id":9506375420,"lat":48.8688272,"lon":2.3844967,"tags":{"artist_name":"Mo2","artwork_type":"mural","name":"Sakura","tourism":"artwork"}},{"type":"node","id":9509756816,"lat":48.8300039,"lon":2.3752588,"tags":{"artwork_type":"mural","tourism":"artwork"}},{"type":"node","id":9558338418,"lat":48.9097286,"lon":2.3275316,"tags":{"artwork_type":"mural","tourism":"artwork"}},{"type":"node","id":9572792630,"lat":48.8285155,"lon":2.3698917,"tags":{"artist_name":"C215","artwork_subject":"Invasion de l'Ukraine","artwork_type":"mural","start_date":"2022","tourism":"artwork"}},{"type":"node","id":9575929027,"lat":48.8019025,"lon":2.3329827,"tags":{"artwork_type":"mural","tourism":"artwork"}},{"type":"node","id":9577919617,"lat":48.8050864,"lon":2.1361859,"tags":{"artist_name":"Ecole d'Art Mural de Versailles","artwork_type":"mural","name":"Le Malade immaginaire","tourism":"artwork","website":"https://www.ecoleartmural-versailles.com"}},{"type":"node","id":9577919618,"lat":48.8054253,"lon":2.1362934,"tags":{"artist_name":"Ecole d’Art Mural de Versailles","artwork_type":"mural","name":"Sganarel","tourism":"artwork","website":"https://www.ecoleartmural-versailles.com"}},{"type":"node","id":9630500053,"lat":48.812765,"lon":2.3397519,"tags":{"artist_name":"Morne","artwork_type":"mural","tourism":"artwork"}},{"type":"node","id":9630500054,"lat":48.812717,"lon":2.3397756,"tags":{"artist_name":"Morne;CEB;Moneda","artwork_type":"mural","tourism":"artwork"}},{"type":"node","id":9630500055,"lat":48.8135461,"lon":2.3407494,"tags":{"artist_name":"Morne","artwork_type":"mural","tourism":"artwork"}},{"type":"node","id":9630500068,"lat":48.8140206,"lon":2.3410859,"tags":{"artist_name":"Morne;DMJC","artwork_type":"mural","tourism":"artwork"}},{"type":"node","id":9631299651,"lat":48.8126095,"lon":2.3379025,"tags":{"artist_name":"Quentin Chaudat","artwork_type":"mural","tourism":"artwork"}},{"type":"node","id":9631299682,"lat":48.814532,"lon":2.3338288,"tags":{"artist_name":"Morne","artwork_type":"mural","tourism":"artwork"}},{"type":"node","id":9631299684,"lat":48.8145833,"lon":2.3337454,"tags":{"artist_name":"Cyclope","artwork_type":"street_art","barrier":"bollard","description":"Giraffe","tourism":"artwork"}},{"type":"node","id":9631299685,"lat":48.8145685,"lon":2.3337402,"tags":{"artist_name":"Cyclope","artwork_type":"street_art","barrier":"bollard","description":"Giraffe","tourism":"artwork"}},{"type":"node","id":9631299718,"lat":48.816584,"lon":2.3351922,"tags":{"artist_name":"Terrible-T-Kid","artwork_type":"mural","tourism":"artwork"}},{"type":"node","id":9631299723,"lat":48.8165788,"lon":2.3354641,"tags":{"artist_name":"Morne;SEF.01","artwork_type":"mural","tourism":"artwork"}},{"type":"node","id":9631299742,"lat":48.8162925,"lon":2.3384155,"tags":{"artist_name":"Morne","artwork_type":"mural","description":"Fresques murales à l'intérieur de l'auberge de jeunesse","tourism":"artwork"}},{"type":"node","id":9631709731,"lat":48.8318684,"lon":2.3604625,"tags":{"artist_name":"PakOne","artwork_type":"mural","name":"Le Petit Prince","start_date":"2021-04","tourism":"artwork"}},{"type":"node","id":9631709732,"lat":48.8320701,"lon":2.3606086,"tags":{"artist_name":"Wen2","artwork_type":"mural","name":"Les Perdrix","start_date":"2021-04","tourism":"artwork"}},{"type":"node","id":9631712210,"lat":48.8333442,"lon":2.3620079,"tags":{"artist_name":"Jorge Rodrigez-Gerada","artwork_type":"mural","name":"Philippe Pinel","start_date":"2013","tourism":"artwork"}},{"type":"node","id":9633531439,"lat":48.7778461,"lon":2.4027586,"tags":{"artist_name":"Diane Benoit du Rey","artwork_type":"mural","name":"Architecture en lumière","start_date":"2022-03-31","tourism":"artwork"}},{"type":"node","id":9705209682,"lat":48.8362573,"lon":2.3090602,"tags":{"artist_name":"H. Dirosa","artwork_type":"mural","tourism":"artwork"}},{"type":"node","id":9706206690,"lat":48.8142139,"lon":2.3502894,"tags":{"artwork_type":"mural","tourism":"artwork"}},{"type":"node","id":9726640163,"lat":48.8509897,"lon":2.3355186,"tags":{"artist_name":"Jules-Eugène Lenepveu","artwork_type":"mural","name":"Nativité de la Sainte Vierge","source":"survey","start_date":"1864","tourism":"artwork"}},{"type":"node","id":9726640164,"lat":48.850959,"lon":2.3354923,"tags":{"artist_name":"Jules-Eugène Lenepveu","artwork_type":"mural","name":"Présentation de Marie au Temple","source":"survey","start_date":"1864","tourism":"artwork"}},{"type":"node","id":9726714170,"lat":48.8507916,"lon":2.3344444,"tags":{"artist_name":"François-Joseph Heim","artwork_type":"mural","description":"Médaillon au plafond","name":"Notre-Seigneur et la Sainte Vierge intercèdent auprès de Dieu le Père en faveur des pécheurs","source":"survey","start_date":"1845","tourism":"artwork"}},{"type":"node","id":9726714171,"lat":48.8507994,"lon":2.3344759,"tags":{"artist_name":"François-Joseph Heim","artwork_type":"mural","name":"La Religion invite le chrétien à souffrir en cette vie pour éviter les peines du Purgatoire","source":"survey","start_date":"1845","tourism":"artwork"}},{"type":"node","id":9726714172,"lat":48.8507904,"lon":2.3344007,"tags":{"artist_name":"François-Joseph Heim","artwork_type":"mural","name":"La prière pour les morts délivre les âmes qui souffrent dans le Purgatoire","source":"survey","start_date":"1845","tourism":"artwork"}},{"type":"node","id":9732447508,"lat":48.8511669,"lon":2.3354591,"tags":{"artwork_type":"mural","name":"Saint Louis rendant la justice sous son chêne","source":"survey","tourism":"artwork"}},{"type":"node","id":9732447509,"lat":48.8507979,"lon":2.3345067,"tags":{"artist_name":"Abel de Pujol","artwork_type":"mural","name":"Saint Roch vient d'expirer dans une prison de Montpellier, sa ville natale","source":"survey","start_date":"1822","tourism":"artwork"}},{"type":"node","id":9732447510,"lat":48.8511795,"lon":2.335442,"tags":{"artwork_type":"mural","name":"Le songe de saint Joseph","source":"survey","tourism":"artwork"}},{"type":"node","id":9732447512,"lat":48.8508047,"lon":2.334587,"tags":{"artist_name":"Abel de Pujol","artwork_type":"mural","name":"Saint Roch prie pour la guérison des pestiférés de l'hôpital de Rome","source":"survey","start_date":"1822","tourism":"artwork"}},{"type":"node","id":9732447515,"lat":48.8508014,"lon":2.3345494,"tags":{"artwork_type":"mural","name":"L'Apothéose de saint Roch","source":"survey","tourism":"artwork"}},{"type":"node","id":9732447516,"lat":48.8511492,"lon":2.3354893,"tags":{"artwork_type":"mural","name":"Saint Louis enterrant les pestiférés à Damiette","source":"survey","tourism":"artwork"}},{"type":"node","id":9732455411,"lat":48.8512121,"lon":2.3353255,"tags":{"artist_name":"Pichon","artwork_type":"mural","name":"Saint Charles assistant à son agonie le pape Pie IV","source":"survey;book \"Chefs-d'œuvre de Saint Sulpice\"","start_date":"c. 1880","tourism":"artwork"}},{"type":"node","id":9732455412,"lat":48.8512019,"lon":2.3353793,"tags":{"artist_name":"Pichon","artwork_type":"mural","name":"Saint Charles durant la peste de Milan","source":"survey;book \"Chefs-d'œuvre de Saint Sulpice\"","start_date":"c. 1880","tourism":"artwork"}},{"type":"node","id":9732476617,"lat":48.8511938,"lon":2.3354024,"tags":{"artwork_type":"mural","name":"La Mort de saint Joseph","source":"survey","tourism":"artwork"}},{"type":"node","id":9732495660,"lat":48.8512255,"lon":2.3351749,"tags":{"artwork_type":"mural","name":"Le martyre de Saint Jean l'Évangéliste","source":"survey","tourism":"artwork"}},{"type":"node","id":9732495661,"lat":48.8512195,"lon":2.3353052,"tags":{"artwork_type":"mural","name":"Aimez-vous les uns les autres","source":"survey","tourism":"artwork"}},{"type":"node","id":9743378897,"lat":48.8511513,"lon":2.3344346,"tags":{"artist_name":"Michel-Martin Drolling","artwork_type":"mural","name":"La Conversion de saint Paul","source":"survey","start_date":"1850","tourism":"artwork"}},{"type":"node","id":9743378898,"lat":48.8511731,"lon":2.3346579,"tags":{"artwork_type":"mural","name":"L'Adoration du Sacré-Cœur à travers le monde","source":"survey","tourism":"artwork"}},{"type":"node","id":9743378899,"lat":48.8511394,"lon":2.3342216,"tags":{"artist_name":"Émile Lafon","artwork_type":"mural","name":"La résurrection d'un mort par saint François-Xavier","source":"survey","start_date":"1859","tourism":"artwork"}},{"type":"node","id":9743378900,"lat":48.8511641,"lon":2.334588,"tags":{"artwork_type":"mural","name":"La glorification de saint Vincent de Paul","source":"survey","tourism":"artwork"}},{"type":"node","id":9743378901,"lat":48.8511688,"lon":2.334627,"tags":{"artist_name":"Alexandre-Charles Guillemot","artwork_type":"mural","name":"Saint Vincent de Paul assiste Louis XIII à ses derniers moments","source":"survey","start_date":"1824","tourism":"artwork"}},{"type":"node","id":9743378902,"lat":48.8511423,"lon":2.3343297,"tags":{"artist_name":"Alexandre Hesse","artwork_type":"mural","name":"Saint François de Sales prêchant les hérétiques du Chablais","source":"survey","start_date":"1860","tourism":"artwork"}},{"type":"node","id":9743378907,"lat":48.8511423,"lon":2.3342979,"tags":{"artist_name":"Émile Lafon","artwork_type":"mural","name":"La translation du corps de saint François-Xavier à Goa","source":"survey","start_date":"1859","tourism":"artwork"}},{"type":"node","id":9743378908,"lat":48.8511585,"lon":2.3345214,"tags":{"artist_name":"Michel-Martin Drolling","artwork_type":"mural","name":"Saint Paul annonçant le vrai Dieu à l'Aréopage","source":"survey","start_date":"1850","tourism":"artwork"}},{"type":"node","id":9743378909,"lat":48.8511609,"lon":2.3345481,"tags":{"artist_name":"Alexandre-Charles Guillemot","artwork_type":"mural","name":"Saint Vincent de Paul harangue les Dames de la Charité en faveur des enfants trouvés","source":"survey","start_date":"1824","tourism":"artwork"}},{"type":"node","id":9743378910,"lat":48.8511476,"lon":2.3344126,"tags":{"artist_name":"Alexandre Hesse","artwork_type":"mural","name":"Saint François de Sales remet à Jeanne de Chantal les Constitutions de l'Ordre de la Visitation","source":"survey","start_date":"1860","tourism":"artwork"}},{"type":"node","id":9815536352,"lat":48.8696517,"lon":2.376497,"tags":{"artist_name":"Hyuro;Escif;Axel Void","artwork_type":"mural","start_date":"2021","tourism":"artwork"}},{"type":"node","id":9819672093,"lat":48.8292954,"lon":2.3877194,"tags":{"artwork_type":"mural","tourism":"artwork"}},{"type":"node","id":9828622094,"lat":48.8686403,"lon":2.3884696,"tags":{"artwork_type":"mural","tourism":"artwork"}},{"type":"node","id":9870719893,"lat":48.8351384,"lon":2.3096532,"tags":{"artist_name":"Nadine Le Prince","artwork_type":"mural","start_date":"1988","tourism":"artwork"}},{"type":"node","id":9897549260,"lat":48.80782,"lon":2.1455204,"tags":{"artwork_type":"mural","tourism":"artwork"}},{"type":"node","id":9945144158,"lat":48.8763003,"lon":2.4492402,"tags":{"artist_name":"Artof Popof","artwork_type":"mural","tourism":"artwork"}},{"type":"node","id":9950625377,"lat":48.8242072,"lon":2.3763257,"tags":{"artwork_subject":"lighthouse","artwork_type":"mural","start_date":"2022","tourism":"artwork"}},{"type":"node","id":10010137604,"lat":48.8308114,"lon":2.3195839,"tags":{"artwork_type":"mural","tourism":"artwork"}},{"type":"node","id":10010511481,"lat":48.8331637,"lon":2.3620763,"tags":{"artwork_type":"mural","tourism":"artwork"}},{"type":"node","id":10010511486,"lat":48.832238,"lon":2.3631376,"tags":{"artwork_type":"mural","tourism":"artwork"}},{"type":"node","id":10048413760,"lat":48.6994633,"lon":2.2419733,"tags":{"artist_name":"C215","artwork_type":"mural","name":"André Malraux","tourism":"artwork"}},{"type":"node","id":10086459930,"lat":48.8258555,"lon":2.3761581,"tags":{"artist_name":"C215","artwork_type":"mural","tourism":"artwork"}},{"type":"node","id":10086459934,"lat":48.8258707,"lon":2.3762251,"tags":{"artist_name":"C215","artwork_type":"mural","tourism":"artwork"}},{"type":"node","id":10086459942,"lat":48.8258422,"lon":2.376099,"tags":{"artist_name":"C215","artwork_type":"mural","tourism":"artwork"}},{"type":"node","id":10100694687,"lat":48.658211,"lon":2.3667338,"tags":{"artwork_type":"mural","name":"Pour la Paix","tourism":"artwork"}},{"type":"node","id":10124625784,"lat":48.6786292,"lon":2.3624243,"tags":{"artwork_type":"mural","tourism":"artwork"}},{"type":"node","id":10132696216,"lat":48.8286783,"lon":2.3761884,"tags":{"artwork_type":"mural","name":"I'm not a real artist","tourism":"artwork"}},{"type":"node","id":10132701041,"lat":48.8439887,"lon":2.3846594,"tags":{"artwork_type":"mural","tourism":"artwork"}},{"type":"way","id":429670695,"bounds":{"minlat":48.9025043,"minlon":2.3515448,"maxlat":48.9025743,"maxlon":2.3515606},"nodes":[873786008,9874057603,9874057604],"geometry":[{"lat":48.9025743,"lon":2.3515606},{"lat":48.9025098,"lon":2.351546},{"lat":48.9025043,"lon":2.3515448}],"tags":{"artwork_type":"mural","description":"Publicité murale","name":"Petit Beurre","source":"Personal memory","tourism":"artwork"}},{"type":"way","id":524898343,"bounds":{"minlat":48.845388,"minlon":2.315499,"maxlat":48.845418,"maxlon":2.315579},"nodes":[1270590772,1270590768,1270590764,1270590761,1270590757,1270590751,1270590749,1270590617],"geometry":[{"lat":48.845388,"lon":2.315499},{"lat":48.845392,"lon":2.315499},{"lat":48.845398,"lon":2.315501},{"lat":48.845402,"lon":2.315505},{"lat":48.845418,"lon":2.315559},{"lat":48.8454175,"lon":2.315569},{"lat":48.845416,"lon":2.315573},{"lat":48.84541,"lon":2.315579}],"tags":{"artist_name":"Keith Haring","artwork_type":"mural","name":"Fresque Monumentale Keith Haring","start_date":"1987","tourism":"artwork","wikidata":"Q39890438","wikipedia":"fr:Tour Keith Haring"}},{"type":"way","id":537461085,"bounds":{"minlat":48.6759442,"minlon":2.3086819,"maxlat":48.6760302,"maxlon":2.3086836},"nodes":[5204508129,5204508130],"geometry":[{"lat":48.6759442,"lon":2.3086819},{"lat":48.6760302,"lon":2.3086836}],"tags":{"artwork_type":"street_art","barrier":"wall","tourism":"artwork"}},{"type":"way","id":544158227,"bounds":{"minlat":48.8142674,"minlon":2.3357373,"maxlat":48.8143907,"maxlon":2.3357745},"nodes":[5260226828,5260226847],"geometry":[{"lat":48.8143907,"lon":2.3357745},{"lat":48.8142674,"lon":2.3357373}],"tags":{"artist_name":"Cyclope","artwork_type":"street_art","barrier":"bollard","bicycle":"yes","foot":"yes","tourism":"artwork"}},{"type":"way","id":552562822,"bounds":{"minlat":48.9149527,"minlon":2.2955386,"maxlat":48.9152124,"maxlon":2.2957393},"nodes":[5334806866,5334703744,5334806865],"geometry":[{"lat":48.9152124,"lon":2.2955386},{"lat":48.9150807,"lon":2.295641},{"lat":48.9149527,"lon":2.2957393}],"tags":{"artwork_type":"mural","tourism":"artwork"}},{"type":"way","id":639410769,"bounds":{"minlat":48.8875564,"minlon":2.2437862,"maxlat":48.8875964,"maxlon":2.2440869},"nodes":[6025041512,6024836722,6025041511,6025041510,6025041509,6025041508,6025041507,6025041506,6025041505,6025041512],"geometry":[{"lat":48.8875611,"lon":2.2440869},{"lat":48.8875564,"lon":2.243796},{"lat":48.887583,"lon":2.2437862},{"lat":48.8875915,"lon":2.2438429},{"lat":48.887595,"lon":2.2438898},{"lat":48.8875964,"lon":2.2439361},{"lat":48.8875955,"lon":2.243979},{"lat":48.8875928,"lon":2.2440246},{"lat":48.8875862,"lon":2.2440829},{"lat":48.8875611,"lon":2.2440869}],"tags":{"artwork_type":"mural","material":"concrete","name":"DEFENSE PLAZA","tourism":"artwork"}},{"type":"way","id":679728912,"bounds":{"minlat":48.8418806,"minlon":2.3210452,"maxlat":48.841956,"maxlon":2.3211375},"nodes":[6364612055,6364612056],"geometry":[{"lat":48.841956,"lon":2.3211375},{"lat":48.8418806,"lon":2.3210452}],"tags":{"artwork_type":"mural","layer":"-2","level":"-2","name":"9 stations pour le centenaire","tourism":"artwork"}},{"type":"way","id":679728913,"bounds":{"minlat":48.8416861,"minlon":2.3208198,"maxlat":48.8417477,"maxlon":2.3208951},"nodes":[6364612057,6364612059],"geometry":[{"lat":48.8417477,"lon":2.3208951},{"lat":48.8416861,"lon":2.3208198}],"tags":{"artwork_type":"mural","layer":"-2","level":"-2","name":"9 stations pour le centenaire","tourism":"artwork"}},{"type":"way","id":759193167,"bounds":{"minlat":49.2724287,"minlon":2.4813904,"maxlat":49.2727481,"maxlon":2.4820502},"nodes":[7020811814,7020811815,7020811816],"geometry":[{"lat":49.2727481,"lon":2.4813904},{"lat":49.2725799,"lon":2.4818019},{"lat":49.2724287,"lon":2.4820502}],"tags":{"artwork_type":"mural","source":"survey","tourism":"artwork"}},{"type":"way","id":766731112,"bounds":{"minlat":49.2021908,"minlon":3.6357491,"maxlat":49.2022637,"maxlon":3.6357813},"nodes":[7160845939,7160845934,7160845937,7160845938,7160845939],"geometry":[{"lat":49.2022637,"lon":3.6357638},{"lat":49.2022602,"lon":3.6357813},{"lat":49.2021908,"lon":3.6357639},{"lat":49.2021921,"lon":3.6357491},{"lat":49.2022637,"lon":3.6357638}],"tags":{"area":"yes","artwork_type":"mural","tourism":"artwork"}},{"type":"way","id":767672792,"bounds":{"minlat":48.8524377,"minlon":2.2865025,"maxlat":48.8525052,"maxlon":2.2866464},"nodes":[633221664,675924439],"geometry":[{"lat":48.8525052,"lon":2.2865025},{"lat":48.8524377,"lon":2.2866464}],"tags":{"artist_name":"Emmanuel Kerner","artwork_type":"mural","start_date":"1998-03","tourism":"artwork"}},{"type":"way","id":796353560,"bounds":{"minlat":48.9304812,"minlon":2.0404493,"maxlat":48.9306161,"maxlon":2.0405083},"nodes":[1000231935,8377113206,1000232159],"geometry":[{"lat":48.9306161,"lon":2.0405083},{"lat":48.9305695,"lon":2.0404879},{"lat":48.9304812,"lon":2.0404493}],"tags":{"artist_name":"Catherine Feff","artwork_type":"mural","description":"Surface 200 m²","name":"Chez Gérard","start_date":"2002","tourism":"artwork","website":"http://catherinefeff-studio.com/index.php/portfolio_item/25/11-rue-au-pain-poissy/"}},{"type":"way","id":796561986,"bounds":{"minlat":48.9280009,"minlon":2.0420222,"maxlat":48.928073,"maxlon":2.0421126},"nodes":[1000231953,1000238767],"geometry":[{"lat":48.928073,"lon":2.0421126},{"lat":48.9280009,"lon":2.0420222}],"tags":{"artist_name":"Catherine Feff","artwork_type":"mural","description":"Surface : 200m²","name":"Dans la forêt, les Ceps","start_date":"2002","tourism":"artwork","website":"http://catherinefeff-studio.com/index.php/portfolio_item/25/15-rue-au-cep-poissy/"}},{"type":"way","id":796561987,"bounds":{"minlat":48.9305097,"minlon":2.0423489,"maxlat":48.9305894,"maxlon":2.0424768},"nodes":[1000232207,1000238271],"geometry":[{"lat":48.9305894,"lon":2.0423489},{"lat":48.9305097,"lon":2.0424768}],"tags":{"artist_name":"Catherine Feff","artwork_type":"mural","description":"Surface : 250 m2.","name":"La Paix","start_date":"1999","tourism":"artwork","website":"http://catherinefeff-studio.com/index.php/portfolio_item/25/21-rue-de-la-paix-poissy/"}},{"type":"way","id":833421441,"bounds":{"minlat":48.3644157,"minlon":2.8191316,"maxlat":48.3645494,"maxlon":2.8193332},"nodes":[350509376,350509366,350509359,350509354,350509347],"geometry":[{"lat":48.3645494,"lon":2.8192391},{"lat":48.3645052,"lon":2.819223},{"lat":48.3644852,"lon":2.8193332},{"lat":48.3644157,"lon":2.8193042},{"lat":48.3644502,"lon":2.8191316}],"tags":{"artist_name":"Prieur","artwork_type":"mural","tourism":"artwork"}},{"type":"way","id":847352565,"bounds":{"minlat":48.9278549,"minlon":2.0456636,"maxlat":48.9279451,"maxlon":2.0458094},"nodes":[1000238646,7907147753,1000232937],"geometry":[{"lat":48.9279451,"lon":2.0458094},{"lat":48.9278646,"lon":2.0456794},{"lat":48.9278549,"lon":2.0456636}],"tags":{"artist_name":"Atelier Catherine Feff","artwork_type":"mural","start_date":"2020-09-19","tourism":"artwork"}},{"type":"way","id":952088797,"bounds":{"minlat":48.737726,"minlon":2.7425751,"maxlat":48.737733,"maxlon":2.7427768},"nodes":[8812419556,8812419557],"geometry":[{"lat":48.737733,"lon":2.7427768},{"lat":48.737726,"lon":2.7425751}],"tags":{"artwork_type":"mural","name":"Mur d'expression","tourism":"artwork"}},{"type":"way","id":1018341111,"bounds":{"minlat":48.6449788,"minlon":2.0893012,"maxlat":48.6449802,"maxlon":2.0893847},"nodes":[9392757522,9392757523],"geometry":[{"lat":48.6449802,"lon":2.0893012},{"lat":48.6449788,"lon":2.0893847}],"tags":{"artwork_type":"mural","tourism":"artwork","wall":"concrete"}},{"type":"way","id":1047410040,"bounds":{"minlat":48.8161732,"minlon":2.3310545,"maxlat":48.816664,"maxlon":2.3314729},"nodes":[9631299704,9631299705],"geometry":[{"lat":48.8161732,"lon":2.3310545},{"lat":48.816664,"lon":2.3314729}],"tags":{"artist_name":"Morne;Sly2","artwork_type":"mural","barrier":"wall","tourism":"artwork"}},{"type":"way","id":1047410046,"bounds":{"minlat":48.8162643,"minlon":2.3367211,"maxlat":48.8164764,"maxlon":2.3374907},"nodes":[9630535739,9630535740,9630535741,9630535742,9630535743,9630535744,9630535745,9630535746,9630535747,9630535748,9630535749,9630535750,9630535751,9630535752,9630535753,9630535754,9630535755,9630535756,9630535757,9630535758],"geometry":[{"lat":48.8162643,"lon":2.3367799},{"lat":48.8163049,"lon":2.3367688},{"lat":48.8163434,"lon":2.3367559},{"lat":48.8163671,"lon":2.3367467},{"lat":48.816419,"lon":2.3367211},{"lat":48.816426,"lon":2.3367391},{"lat":48.8164422,"lon":2.3367911},{"lat":48.8164545,"lon":2.3368425},{"lat":48.8164637,"lon":2.3368891},{"lat":48.8164722,"lon":2.3369538},{"lat":48.8164754,"lon":2.3370077},{"lat":48.8164764,"lon":2.337046},{"lat":48.8164744,"lon":2.3371174},{"lat":48.816471,"lon":2.3371605},{"lat":48.8164654,"lon":2.3372051},{"lat":48.8164562,"lon":2.3372581},{"lat":48.816439,"lon":2.3373255},{"lat":48.8164188,"lon":2.3373878},{"lat":48.816398,"lon":2.3374418},{"lat":48.8163758,"lon":2.3374907}],"tags":{"artist_name":"Association Zomeka","artwork_type":"mural","barrier":"fence","description":"Océan","tourism":"artwork"}},{"type":"way","id":1047410047,"bounds":{"minlat":48.8160361,"minlon":2.3366122,"maxlat":48.8162643,"maxlon":2.3367799},"nodes":[9630535689,9630535734,9630535735,9630535736,9630535737,9630535738,9630535739],"geometry":[{"lat":48.8160361,"lon":2.3366216},{"lat":48.8160828,"lon":2.3366289},{"lat":48.8161308,"lon":2.3366297},{"lat":48.8161709,"lon":2.3366259},{"lat":48.8162042,"lon":2.3366206},{"lat":48.8162428,"lon":2.3366122},{"lat":48.8162643,"lon":2.3367799}],"tags":{"artist_name":"Association Zomeka","artwork_type":"mural","barrier":"fence","description":"Jungle","inscription":"Paris 2015 COP 21 - CMP11","tourism":"artwork"}},{"type":"way","id":1052816209,"bounds":{"minlat":48.8898239,"minlon":2.1632074,"maxlat":48.8898506,"maxlon":2.1632807},"nodes":[1722984953,9674363833],"geometry":[{"lat":48.8898239,"lon":2.1632807},{"lat":48.8898506,"lon":2.1632074}],"tags":{"artwork_type":"mural","tourism":"artwork"}},{"type":"way","id":1053031243,"bounds":{"minlat":49.56278,"minlon":2.9885433,"maxlat":49.5630782,"maxlon":2.9888764},"nodes":[4584321770,4584321769,4584321768],"geometry":[{"lat":49.56278,"lon":2.9885433},{"lat":49.5630782,"lon":2.9887362},{"lat":49.5630398,"lon":2.9888764}],"tags":{"artist_name":"Seth, Akhine, Alexone, Zenoy","artwork_type":"mural","start_date":"2019","tourism":"artwork","website":"http://www.street-heart.com/PM-D60400-10%20Seth%20Akhine%20Alexone%20Pont.htm"}},{"type":"way","id":1053031244,"bounds":{"minlat":49.5628719,"minlon":2.9887911,"maxlat":49.5629081,"maxlon":2.9889238},"nodes":[4584321767,4584321772],"geometry":[{"lat":49.5629081,"lon":2.9887911},{"lat":49.5628719,"lon":2.9889238}],"tags":{"artist_name":"Seth, Akhine, Alexone, Zenoy","artwork_type":"mural","start_date":"2019","tourism":"artwork","website":"street-heart.com/PM-D60400-11%20Seth%20Pont%20l_eveque.htm"}},{"type":"way","id":1053031245,"bounds":{"minlat":49.5633847,"minlon":2.9880459,"maxlat":49.5634188,"maxlon":2.9881218},"nodes":[4565372279,4565372258],"geometry":[{"lat":49.5634188,"lon":2.9880459},{"lat":49.5633847,"lon":2.9881218}],"tags":{"artist_name":"Hopare","artwork_type":"mural","name":"Utopie","start_date":"2020","tourism":"artwork","website":"http://street-heart.com/PM-D60400-13%20Hopare%20Pont.htm"}},{"type":"way","id":1078074687,"bounds":{"minlat":48.8611803,"minlon":2.7780074,"maxlat":48.8614582,"maxlon":2.7784995},"nodes":[9884087517,9884087518],"geometry":[{"lat":48.8611803,"lon":2.7780074},{"lat":48.8614582,"lon":2.7784995}],"tags":{"artwork_type":"mural","name":"Permis de Construire","tourism":"artwork"}},{"type":"way","id":1090695443,"bounds":{"minlat":48.9541582,"minlon":2.3217629,"maxlat":48.9541672,"maxlon":2.3218308},"nodes":[9990149215,9990149216],"geometry":[{"lat":48.9541672,"lon":2.3217629},{"lat":48.9541582,"lon":2.3218308}],"tags":{"artwork_type":"mural","name":"Fernand Belino","tourism":"artwork"}},{"type":"way","id":1106878735,"bounds":{"minlat":48.6390115,"minlon":2.2611969,"maxlat":48.6391988,"maxlon":2.2612065},"nodes":[10128438955,1593027843,1593028195,10128438953],"geometry":[{"lat":48.6390115,"lon":2.2611969},{"lat":48.6390199,"lon":2.2611984},{"lat":48.6390692,"lon":2.2612004},{"lat":48.6391988,"lon":2.2612065}],"tags":{"artwork_type":"mural","tourism":"artwork"}},{"type":"way","id":1112146190,"bounds":{"minlat":48.9254009,"minlon":2.367101,"maxlat":48.9254441,"maxlon":2.3671348},"nodes":[10174622255,789540338],"geometry":[{"lat":48.9254441,"lon":2.367101},{"lat":48.9254009,"lon":2.3671348}],"tags":{"artwork_type":"mural","tourism":"artwork"}},{"type":"way","id":1112590181,"bounds":{"minlat":48.834984,"minlon":2.355587,"maxlat":48.835118,"maxlon":2.3557148},"nodes":[10179143575,10179143576],"geometry":[{"lat":48.835118,"lon":2.355587},{"lat":48.834984,"lon":2.3557148}],"tags":{"artwork_type":"mural","barrier":"retaining_wall","tourism":"artwork"}}]}